{"type":"FeatureCollection","features":[{"type":"Feature","id":1,"geometry":{"type":"LineString","coordinates":[[118.01900000000001,27.658000000000072],[117.71000000000004,28.310000000000059],[116.45470623500012,28.911079976000053],[115.99200000000008,29.712000000000046],[115.14056623600004,29.874782642000071],[114.2940000000001,30.593000000000075],[112.53418857200006,31.342238974000054],[112.12200000000007,32.009000000000071],[112.94700000000012,33.05600000000004],[113.21316090500011,33.926714305000075],[112.45400000000006,34.619000000000028],[112.85100000000011,35.491000000000042],[113.1160000000001,36.19500000000005],[112.35896990500009,36.642603636000047],[112.33500000000004,37.358000000000061],[112.54900000000009,37.870000000000061],[113.30000000000007,40.076000000000079],[114.88600000000008,40.768000000000029],[113.89213323700005,41.263995965000049],[111.74900000000008,40.842000000000041],[112.27136057200005,42.819061631000068],[111.59238823900006,43.760861963000025],[109.64308057400007,44.834076296000035],[106.89991407000008,47.917830465000065],[106.14718782700004,49.162152577000029],[106.45200000000006,50.351000000000056],[104.28000000000009,52.287000000000035],[101.98455301100006,53.934828703000051],[99.939120385000081,54.18602218400008],[98.575498635000088,55.441989585000044],[97.283646450000049,55.908491763000029],[95.920024700000056,55.513759151000045],[93.695168160000037,55.298450454000033],[92.893000000000086,56.010000000000048],[90.106689870000082,54.831948276000048],[88.230483006000043,53.308020855000052],[87.881833330000063,52.67886130200003],[87.271792020000078,52.140589558000045],[84.221585474000051,51.853511295000033],[82.535000677000085,52.786515650000069],[82.176757527000063,53.693140231000029],[81.429175207000071,54.20772530000005],[75.05989629700008,54.145893029000035],[72.59543255400007,53.89905875200003],[68.253000000000043,58.201000000000079],[66.063885325000058,57.307998296000051],[65.238535318000061,56.518533072000082],[63.264872258000082,56.590302638000082],[60.142896146000055,56.123800460000041],[57.738615691000064,56.30322437500007],[54.739418386000068,55.438619267000036],[51.833523868000043,56.13945403300005],[49.106000000000051,55.797000000000082],[47.116719952000039,55.298450454000033],[44.390446705000045,55.780170466000072],[37.618000000000052,55.756000000000029],[35.741243772000075,55.406104802000073],[34.915893765000078,56.195570026000041],[30.315000000000055,59.939000000000078]]},"properties":{"OBJECTID":1,"Shape_Length":119.480067636123,"route_id":"R07","route_name":"万里茶道（武夷山—恰克图—圣彼得堡）","dynasty":"清代","route_type":"land","segment_type":"mixed","confidence":"high","priority":"A","direction":"下梅（武夷山）\u2192圣彼得堡","source_url":"https://www.neac.gov.cn/seac/c103391/202210/1159337.shtml","note":"依据配准路线图、WGS84节点与历史走廊人工数字化"}},{"type":"Feature","id":2,"geometry":{"type":"LineString","coordinates":[[103.00100000000003,29.981000000000051],[103.10900000000004,30.069000000000074],[102.75900000000007,30.067000000000064],[102.23400000000004,29.914000000000044],[101.95700000000005,29.999000000000024],[101.63172677200004,30.67137249600006],[101.12600000000003,30.979000000000042],[100.67700000000008,31.391000000000076],[100.40693049300006,31.622293566000053],[99.991000000000042,31.622000000000071],[99.252839746000063,31.885834253000041],[98.797209482000085,31.827844946000027],[98.580000000000041,31.80600000000004],[98.218000000000075,31.499000000000024],[97.172000000000082,31.140000000000043],[96.801714612000069,30.85163639700005],[96.356356740000081,30.713787531000037],[96.138979684000049,30.713787531000037],[95.824000000000069,30.741000000000042],[95.541524146000086,30.726048128000059],[94.928494337000075,30.817174180000052],[93.851550078000059,30.552080209000053],[93.233000000000061,30.641000000000076],[93.097689096000067,30.311838797000064],[93.16396258900005,30.005323893000025],[93.039699790000043,29.814787601000035],[92.244417876000057,29.665672242000028],[91.813640172000078,29.84792434700006],[91.573398761000078,29.79821922800005],[91.449135961000081,29.649103869000044],[91.132200000000068,29.660400000000038]]},"properties":{"OBJECTID":2,"Shape_Length":14.12381357892677,"route_id":"R03","route_name":"川藏茶马古道北线","dynasty":"宋代|元代|明代|清代","route_type":"land","segment_type":"caravan","confidence":"high","priority":"A","direction":"雅安\u2192拉萨","source_url":"https://www.fgsbmc.org.tw/onlineExhibition/teahorse/index.html","note":"依据茶马古道路线图、WGS84节点及川藏北线历史走廊人工数字化"}},{"type":"Feature","id":4,"geometry":{"type":"LineString","coordinates":[[103.00100000000003,29.981000000000051],[102.84700000000004,29.793000000000063],[102.72650274300008,29.659976864000043],[102.65100000000007,29.344000000000051],[102.37701362000007,29.473582665000038],[102.23400000000004,29.914000000000044],[101.95700000000005,29.999000000000024],[101.67803537500004,30.153921490000073],[101.44038277200008,30.088683521000064],[101.12351263400006,29.995486421000066],[101.01500000000004,30.032000000000039],[100.65286728300003,30.070044101000065],[100.26900000000006,29.996000000000038],[99.597118892000083,30.187122957000042],[99.11000000000007,30.005000000000052],[98.934545764000063,29.735699507000049],[98.593000000000075,29.67900000000003],[97.968790822000074,29.618038169000044],[97.841000000000065,29.671000000000049],[97.258000000000038,30.133000000000038],[96.918000000000063,30.053000000000054],[96.439430062000042,29.954585272000031],[95.768000000000086,29.859000000000037],[95.290393559000051,29.715676692000045],[94.892212593000067,29.840819282000041],[94.36200000000008,29.648000000000025],[93.954325768000047,29.742980530000068],[93.451935154000068,29.662889273000076],[93.246000000000038,29.885000000000048],[92.244417876000057,29.665672242000028],[91.813640172000078,29.84792434700006],[91.573398761000078,29.79821922800005],[91.449135961000081,29.649103869000044],[91.132200000000068,29.660400000000038]]},"properties":{"OBJECTID":4,"Shape_Length":13.440387187911325,"route_id":"R04","route_name":"川藏茶马古道南线","dynasty":"宋代|元代|明代|清代","route_type":"land","segment_type":"caravan","confidence":"high","priority":"A","direction":"雅安\u2192拉萨","source_url":"https://www.news.cn/20240927/6a60035780cc49d7a7df3cd07b428214/c.html","note":"依据茶马古道参考图、WGS84节点和川藏南线历史走廊人工数字化"}},{"type":"Feature","id":5,"geometry":{"type":"LineString","coordinates":[[101.04600000000005,23.048000000000059],[100.52606361600004,24.120262656000023],[100.50900000000007,25.043000000000063],[100.26700000000005,25.606000000000051],[99.942063617000088,26.243484982000041],[99.962518399000032,26.488942363000035],[100.23300000000006,26.872000000000071],[100.08524708900006,27.225314506000075],[99.70700000000005,27.829000000000065],[98.911000000000058,28.486000000000047],[98.752413510000054,28.531965964000051],[98.593000000000075,29.67900000000003],[97.968790822000074,29.618038169000044],[97.547735532000047,30.580298220000032],[97.172000000000082,31.140000000000043],[96.801714612000069,30.85163639700005],[96.356356740000081,30.713787531000037],[95.824000000000069,30.741000000000042],[95.541524146000086,30.726048128000059],[94.928494337000075,30.817174180000052],[93.851550078000059,30.552080209000053],[93.513644600000077,30.600655879000044],[93.329416205000086,30.317821821000052],[93.335169112000074,30.007164823000039],[93.246000000000038,29.885000000000048],[92.244417876000057,29.665672242000028],[91.813640172000078,29.84792434700006],[91.573398761000078,29.79821922800005],[91.449135961000081,29.649103869000044],[91.132200000000068,29.660400000000038],[90.240307200000075,29.565112320000026],[88.885000000000048,29.267000000000053],[88.667246592000083,28.652175360000058],[88.907000000000039,27.486000000000047]]},"properties":{"OBJECTID":5,"Shape_Length":20.958737148099225,"route_id":"R05","route_name":"滇藏茶马古道","dynasty":"唐代|宋代|元代|明代|清代","route_type":"land","segment_type":"caravan","confidence":"high","priority":"A","direction":"普洱（宁洱）\u2192亚东","source_url":"https://www.tibetology.ac.cn/2023-02/24/content_42271096.htm","note":"依据茶马古道参考图、WGS84节点及滇藏历史走廊人工数字化；拉萨以南继续延伸至日喀则和亚东。"}},{"type":"Feature","id":6,"geometry":{"type":"LineString","coordinates":[[108.93980000000005,34.341600000000028],[108.14879462400006,34.351008768000042],[107.89598131200006,34.295705856000041],[107.35875302400007,34.453714176000062],[106.79782348800006,34.327307520000033],[106.16579020800003,34.327307520000033],[105.83397273600008,34.509017088000064],[105.70509720000007,35.033407200000056],[105.40883160000004,35.119818000000066],[104.91505560000007,35.428428000000054],[104.72988960000004,35.514838800000064],[104.49534600000004,35.860482000000047],[104.01391440000003,35.946892800000057],[103.83430000000004,36.061100000000067],[103.32913774200006,36.136880831000042],[102.89558891300004,36.347796478000078],[102.32533549700008,36.535277053000073],[101.96599772800005,36.488406909000048],[101.77820000000008,36.61710000000005],[101.61837749500006,36.703228402000036],[101.34887416900006,36.746192700000051],[101.10280591400004,36.718851783000048],[100.92500000000007,36.43300000000005],[100.61823698000006,36.440316189000043],[100.58772256300006,36.336567173000049],[100.40463606400004,36.147377791000054],[99.946919817000037,35.860542275000057],[99.647878535000075,35.909365342000058],[99.538026636000041,35.768999026000074],[99.513615103000063,35.457751978000033],[99.104721921000078,35.40282602800005],[99.028802053000049,35.129172741000048],[98.759298727000044,35.027620763000073],[98.493701245000068,35.058867525000039],[98.20900000000006,34.915000000000077],[98.103849060000073,34.670480032000057],[98.109951943000056,34.444673350000073],[97.914659678000078,34.200558018000038],[97.792602012000032,33.907619619000059],[97.414223247000052,33.767253303000075],[97.536280913000041,33.468212021000056],[97.792602012000032,33.279022639000061],[97.591206863000082,33.047113074000038],[97.279959814000051,32.894540991000042],[97.008500000000083,33.004000000000076],[96.832613701000071,32.73445950200005],[96.22172938600005,32.77915835400006],[95.700242776000039,32.853656441000055],[95.417150044000039,32.794057971000029],[95.300000000000068,32.893000000000029],[95.40225042700007,32.212972891000049],[95.759841245000075,31.661687046000054],[96.601000000000056,31.212000000000046],[96.74321599600006,31.006103879000079],[96.340926325000055,30.991204262000053],[95.819439715000044,31.229598141000054],[95.521447366000075,31.304096228000049],[95.059559226000033,31.527590489000033],[94.493373764000069,31.333895463000033],[94.329477972000063,31.765984368000034],[94.016586006000068,31.765984368000034],[93.733493274000068,31.67658666400007],[93.286504751000052,31.900080925000054],[92.869315463000078,31.751084751000064],[92.437226558000077,31.736185133000049],[92.052000000000078,31.477000000000032],[91.751844156000061,31.199798906000069],[91.61774759900004,30.544215739000038],[91.101000000000056,30.47300000000007],[90.538456561000032,30.26484791200005],[91.132200000000068,29.660400000000038]]},"properties":{"OBJECTID":6,"Shape_Length":28.673559035415686,"route_id":"R01","route_name":"唐蕃古道（青藏茶路基础走廊）","dynasty":"唐代","route_type":"land","segment_type":"caravan","confidence":"medium","priority":"A","direction":"长安（西安）\u2192拉萨","source_url":"https://www.tibetology.ac.cn/2022-12/18/content_42207890.htm","note":"依据唐蕃古道参考图、WGS84节点及唐代交通走廊人工数字化；作为茶叶传播与后续青藏茶路的基础走廊，不表示逐段精确茶运轨迹。"}},{"type":"Feature","id":7,"geometry":{"type":"LineString","coordinates":[[107.76600000000008,32.983000000000061],[107.02300000000008,33.067000000000064],[106.34601943200005,33.617261834000033],[105.72500000000008,34.581000000000074],[105.20526747200006,34.618329881000079],[103.85900000000004,35.394000000000062],[103.21000000000004,35.601000000000056],[102.01581811500006,35.852204449000055],[101.77820000000008,36.61710000000005],[101.34887416900006,36.746192700000051],[101.10280591400004,36.718851783000048],[100.92500000000007,36.43300000000005],[100.71210159000003,35.10722357800006],[100.38617245900008,34.851136403000055],[99.594630282000082,34.827855751000072],[99.478227021000066,34.338962054000035],[99.175578542000039,34.199278140000047],[98.779807454000036,34.059594227000048],[98.104668539000045,33.896629661000077],[97.792602012000032,33.279022639000061],[97.279959814000051,32.894540991000042],[97.008500000000083,33.004000000000076],[96.637987448000047,32.243703352000068],[96.568145491000053,31.708248351000066],[95.759841245000075,31.661687046000054],[95.059559226000033,31.527590489000033],[94.193518963000031,31.428880524000078],[94.016586006000068,31.765984368000034],[93.733493274000068,31.67658666400007],[93.286504751000052,31.900080925000054],[92.437226558000077,31.736185133000049],[92.052000000000078,31.477000000000032],[91.751844156000061,31.199798906000069],[91.61774759900004,30.544215739000038],[91.101000000000056,30.47300000000007],[91.132200000000068,29.660400000000038]]},"properties":{"OBJECTID":7,"Shape_Length":23.40040700934545,"route_id":"R02","route_name":"青藏茶马古道（陕南—拉萨）","dynasty":"宋代|元代|明代|清代","route_type":"land","segment_type":"caravan","confidence":"medium","priority":"A","direction":"西乡\u2192拉萨","source_url":"https://paper.people.com.cn/rmzk/html/2021-03/01/content_2036495.htm","note":"依据茶马古道参考图、WGS84节点及陕南—甘肃—青海入藏历史走廊人工数字化。"}},{"type":"Feature","id":8,"geometry":{"type":"LineString","coordinates":[[114.2940000000001,30.593000000000075],[114.83402555400005,30.13484833900003],[115.14056623600004,29.874782642000071],[115.99200000000008,29.712000000000046],[117.24136468000006,30.055322042000057],[117.40432924600009,30.939986827000041],[118.73132642400003,32.616193788000032],[120.31441077600005,32.453229222000061],[120.71018186400011,31.638406394000071],[121.47400000000005,31.230000000000075],[124.38760201800005,32.170930000000055],[125.5865186640001,32.970207764000065],[124.18778257800011,34.26903413000008],[123.13873051200005,35.417995916000052],[124.08787285700009,35.96749937900006],[125.93620268600012,36.716822283000056],[127.38489363300005,36.816732003000027],[127.63466793500004,37.815829208000025],[126.18597698700012,38.365332671000033],[124.48751173900007,38.615106972000035],[122.48931732900007,38.615106972000035],[120.99067152200007,38.615106972000035],[118.79265767100003,39.164610435000043],[117.20000000000005,39.08400000000006],[116.40700000000004,39.904000000000053],[114.88600000000008,40.768000000000029],[113.89213323700005,41.263995965000049],[111.74900000000008,40.842000000000041],[112.27136057200005,42.819061631000068],[111.59238823900006,43.760861963000025],[109.64308057400007,44.834076296000035],[106.89991407000008,47.917830465000065],[106.14718782700004,49.162152577000029],[106.45200000000006,50.351000000000056]]},"properties":{"OBJECTID":8,"Shape_Length":52.262456551519129,"route_id":"R15","route_name":"汉口—天津—恰克图（晚清海陆联运）","dynasty":"清代","route_type":"mixed","segment_type":"mixed","confidence":"high","priority":"A","direction":"汉口\u2192恰克图","source_url":"https://m.cnhubei.com/content/2019-08/27/content_12297468.html","note":"依据万里茶道参考图、WGS84节点及晚清俄商海陆联运走廊人工数字化；汉口—上海为长江水运，上海—天津为沿海航运，天津—恰克图为陆路。"}},{"type":"Feature","id":14,"geometry":{"type":"LineString","coordinates":[[113.45100000000002,23.106000000000051],[113.54390000000001,22.198700000000031],[115.49605109400011,18.842256070000076],[114.44925909000006,11.74733248800004],[105.55385326200008,1.7120864770000708],[103.58089386200004,1.4804824030000532],[102.25000000000006,2.5000000000000568],[100.09118534000004,3.8069547510000348],[98.610702937000042,6.027678356000024],[97.595500918000084,8.0896078610000473],[95.808361245000071,11.473738626000056],[94.803748185000074,11.473738626000056],[92.265778351000051,10.310502452000037],[88.987567315000035,7.878281361000063],[86.819718081000076,6.5564220720000321],[84.22887387600008,6.609296443000062],[79.861000000000047,6.9270000000000209],[77.659233211000071,5.3700533600000426],[76.585222539000029,3.4698806330000593],[76.172141511000063,0.90877826100006587],[75.96579267900006,-1.7817425659999344],[73.197958111000048,-7.2702260879999585],[71.698194928000078,-8.5553856969999629],[68.801475721000031,-14.571648664999941],[62.807520232000059,-21.052150299999937],[50.34051824200003,-30.167964000999973],[35.256536242000038,-34.16612790399995],[18.424000000000035,-33.924999999999955],[13.003174970000032,-31.420149935999973],[10.574874310000041,-28.915671939999982],[9.9139446650000309,-25.776256129999979],[9.7487122540000541,-21.893294468999954],[8.1790043490000244,-19.249575891999939],[4.4612750990000336,-17.514635574999943],[1.7349403160000634,-17.266786958999944],[-1.7349403159999497,-17.101554546999978],[-5.70799999999997,-15.964999999999975],[-5.4449326379999547,-13.292546648999974],[-6.3614478269999495,-10.327025692999939],[-6.6919126489999599,-7.4354584989999353],[-7.8485395269999572,-3.5524968379999677],[-10.22257816299998,-0.79863891899992723],[-16.288284547999979,2.5099282000000471],[-18.545759208999982,3.7412780150000344],[-21.11580728499996,5.1431224200000543],[-22.521617514999946,5.9099280000000363],[-25.280558895999945,9.0877826100000334],[-26.102990219999981,12.383947891000048],[-26.674539893999963,13.41713383900003],[-26.433157329999972,18.486167686000044],[-26.195356541999956,23.479984218000027],[-23.98792190599994,27.81309665200007],[-21.882706379999945,31.945556759000056],[-16.561010627999963,38.501268916000072],[-9.0877826099999766,45.108448227000054],[-4.9569723329999533,47.669550599000047],[-1.3220407159999468,49.504161262000082],[2.9200000000000728,51.231000000000051]]},"properties":{"OBJECTID":14,"Shape_Length":264.19315871124513,"route_id":"R13","route_name":"广州—奥斯坦德（奥斯坦公司）","dynasty":"清代","route_type":"sea","segment_type":"sea","confidence":"medium","priority":"B","direction":"广州（黄埔）\u2192奥斯坦德","source_url":"https://www.worldhistory.org/article/2078/trade-goods-of-the-east-india-company/","note":"依据东印度公司贸易航线参考图、WGS84港口节点及好望角远洋航运走廊人工数字化；欧洲终点为北海沿岸的奥斯坦德。"}},{"type":"Feature","id":15,"geometry":{"type":"LineString","coordinates":[[113.45100000000002,23.106000000000051],[113.54390000000001,22.198700000000031],[115.49605109400011,18.842256070000076],[114.44925909000006,11.74733248800004],[111.07626263300006,7.6764746950000244],[105.55385326200008,1.7120864770000708],[103.58089386200004,1.4804824030000532],[102.25000000000006,2.5000000000000568],[100.09118534000004,3.8069547510000348],[95.808361245000071,11.473738626000056],[94.803748185000074,11.473738626000056],[92.265778351000051,10.310502452000037],[86.819718081000076,6.5564220720000321],[79.861000000000047,6.9270000000000209],[77.659233211000071,5.3700533600000426],[76.585222539000029,3.4698806330000593],[75.96579267900006,-1.7817425659999344],[72.635466706000045,-6.404106363999972],[72.125968149000073,-7.6669336219999309],[68.801475721000031,-14.571648664999941],[62.807520232000059,-21.052150299999937],[50.34051824200003,-30.167964000999973],[35.256536242000038,-34.16612790399995],[27.98714732600007,-34.347862626999984],[18.424000000000035,-33.924999999999955],[12.212573379000048,-31.054829447999964],[10.574874310000041,-28.915671939999982],[9.9139446650000309,-25.776256129999979],[9.7487122540000541,-21.893294468999954],[8.1790043490000244,-19.249575891999939],[4.4612750990000336,-17.514635574999943],[-1.7349403159999497,-17.101554546999978],[-5.70799999999997,-15.964999999999975],[-5.4449326379999547,-13.292546648999974],[-6.3614478269999495,-10.327025692999939],[-6.6919126489999599,-7.4354584989999353],[-7.8485395269999572,-3.5524968379999677],[-10.22257816299998,-0.79863891899992723],[-22.521617514999946,5.9099280000000363],[-25.280558895999945,9.0877826100000334],[-26.102990219999981,12.383947891000048],[-26.195356541999956,23.479984218000027],[-21.882706379999945,31.945556759000056],[-16.561010627999963,38.501268916000072],[-9.0877826099999766,45.108448227000054],[-1.3220407159999468,49.504161262000082],[0.29044759800007114,49.521315393000066],[3.8330822630000512,53.184016401000065],[5.8865191900000582,56.401067586000067],[8.4875392970000689,59.138983488000065],[11.157007302000068,59.960358259000031],[12.320621560000063,58.591400308000061],[11.974000000000046,57.708000000000027]]},"properties":{"OBJECTID":15,"Shape_Length":279.2730869962445,"route_id":"R14","route_name":"广州—哥德堡（瑞典东印度公司）","dynasty":"清代","route_type":"sea","segment_type":"sea","confidence":"medium","priority":"B","direction":"广州（黄埔）\u2192哥德堡","source_url":"https://www.worldhistory.org/article/2078/trade-goods-of-the-east-india-company/","note":"依据东印度公司贸易航线参考图、WGS84港口节点及好望角远洋航运走廊人工数字化；欧洲段经英吉利海峡、北海、斯卡格拉克海峡和卡特加特海域抵达哥德堡。"}},{"type":"Feature","id":17,"geometry":{"type":"LineString","coordinates":[[114.2940000000001,30.593000000000075],[114.80847994500004,30.391304581000043],[115.34116886300001,29.942724440000063],[116.07011159300009,29.830579404000048],[116.6308367690001,29.690398110000046],[117.24763446400004,29.690398110000046],[118.00461345200006,29.830579404000048],[118.50926611200009,30.363268322000067],[119.18213632400011,31.120247311000071],[119.63071646500009,31.316501123000023],[120.19144164200009,31.316501123000023],[121.00449314800005,31.316501123000023],[121.47400000000005,31.230000000000075],[121.87361717200008,31.064174793000063],[122.18201601900012,30.643630911000059],[123.13524882000002,30.755775946000028],[123.61186522000003,30.671667170000035],[124.22866291500009,30.335232064000024],[124.53706176200001,29.886651922000055],[124.53706176200001,29.297890487000075],[124.08848162100003,28.512875239000039],[123.94830032600009,27.980186321000076],[123.8641915500001,27.699823733000073],[123.63990147900006,27.251243591000048],[122.99506752600007,26.690518415000042],[122.5464873840001,26.298010791000024],[122.06987098400009,25.905503167000063],[121.31289199500009,25.569068061000053],[120.92038437200006,25.316741731000036],[120.44376797100006,25.036379143000033],[119.85500653600002,24.61583526000004],[119.40642639400005,24.61583526000004],[118.7160335210001,23.83082001300005],[117.97132039500002,22.122360490000062],[118.14654701300003,21.552873982000051],[118.49700024800006,20.808160857000075],[118.49700024800006,20.238674349000064],[118.54080690300009,19.450154569000063],[118.58461355700001,18.793054753000035],[118.80364682900006,17.829308355000023],[118.80364682900006,17.391241811000043],[118.80364682900006,16.734141994000026],[118.80364682900006,15.989428869000051],[118.67222686600007,15.507555670000045],[118.40938693900011,14.587615927000058],[118.19035366700007,14.193356037000058],[117.66467381400003,13.755289493000078],[117.18280061500002,13.14199633100003],[116.87615403400002,12.48489651400007],[116.3504741810001,11.302116844000068],[115.47434109200003,10.425983756000051],[114.9486612390001,10.206950483000071],[114.4667880400001,9.8564972480000392],[113.63446160600006,9.418430704000059],[113.0649750980001,9.1117841230000636],[112.01361539200002,8.7613308870000424],[111.35651557500006,8.1480377250000515],[111.00606234000008,7.5785512170000402],[110.12992925100008,7.14048467300006],[109.47282943500005,6.7024181290000229],[109.20998950800004,5.6948650770000313],[108.72811630900009,5.12537856900002],[108.24624311000008,4.6435053700000708],[107.23869005800009,4.2492454800000701],[105.92449042500004,3.8987922450000383],[104.74171075600003,3.5921456640000429],[103.90938432100006,3.2416924280000217],[102.81421796000006,2.8036258840000414],[102.25000000000006,2.5000000000000568],[101.49125699600006,2.5512995540000247],[101.07071311400006,2.8596984020000491],[100.45391541900005,2.9438071780000428],[99.668900172000065,4.037221273000057],[99.192283772000053,4.7661640030000285],[98.939957442000036,5.3829616970000416],[98.883884924000085,5.8595780970000533],[98.715667371000052,7.1492460040000765],[98.463341042000081,7.7660436980000327],[98.463341042000081,8.1024788040000431],[98.379232265000041,8.7753490170000532],[98.351196007000055,9.1398203810000496],[97.734398312000053,10.233234476000064],[97.369926947000067,10.709850876000075],[96.86527428800008,11.046285982000029],[96.164367817000084,11.943446265000034],[95.855968970000049,12.335953889000052],[95.098989981000045,12.924715325000022],[94.53826480400005,13.401331725000034],[94.145757181000079,13.821875608000028],[93.669140780000077,14.046165678000023],[93.192524380000066,14.046165678000023],[92.771980498000062,14.046165678000023],[91.734638921000055,13.934020643000053],[90.921587414000044,13.625621796000075],[90.022674865000056,12.791543095000065],[89.49699501200007,12.178249933000075],[89.49699501200007,10.995470263000072],[88.796088541000074,9.6812706300000286],[88.445635306000042,8.6299109240000575],[88.051375416000042,7.622357872000066],[87.876148798000031,6.8776447460000441],[87.350468945000046,6.4833848560000433],[87.131435672000066,6.089124967000032],[85.992462657000033,5.607251768000026],[84.941102951000062,5.5196384590000207],[83.75832328100006,6.0015116580000267],[83.145030119000069,5.9577050030000578],[81.962250449000067,6.3957715480000275],[81.08611736000006,6.6586114740000539],[79.861000000000047,6.9270000000000209],[78.304394804000083,8.5559871940000676],[76.456301570000051,10.198736736000058],[74.881999926000049,11.567694687000028],[74.334416745000055,12.868204740000067],[71.938740331000076,15.332329052000034],[70.501334482000061,16.632839106000063],[69.611511814000039,16.975078594000024],[68.790137043000072,17.248870184000054],[67.489626990000033,18.549380238000026],[65.983773244000076,19.09696341800003],[64.409471600000074,20.05523398400004],[63.519648932000052,20.05523398400004],[60.234149849000062,18.070244955000078],[58.454504513000074,16.632839106000063],[57.564681844000063,16.222151721000046],[56.401067586000067,15.537672745000066],[54.826765942000065,15.126985360000049],[53.594703786000082,14.716297974000042],[51.541266859000075,13.621131614000035],[50.446100499000067,13.347340023000072],[49.282486240000026,13.005100536000043],[47.639736699000025,12.662861048000025],[45.586299772000075,11.567694687000028],[45.019000000000062,12.785000000000025],[43.327519153000026,12.594413150000037],[41.890113304000067,12.252173662000075],[41.274082226000075,13.073548433000042],[39.699780582000074,14.647850077000044],[38.946853709000038,15.674568540000053],[38.330822631000046,16.495943311000076],[37.646343656000056,17.454213877000029],[37.167208373000051,18.41248444200005],[36.551177295000059,19.233859213000073],[35.387563036000074,20.876608754000074],[35.250667241000031,21.150400345000037],[34.634636163000039,22.519358296000064],[33.128782417000025,24.572795222000025],[32.512751339000033,25.873305276000053],[31.96516815800004,26.420888456000057],[31.828272363000053,27.584502715000042],[31.759824466000055,28.679669076000039],[32.550000000000068,29.966000000000065],[32.302000000000078,31.266000000000076],[31.55448077300008,32.92343872400005],[30.048627027000066,33.197230314000024],[28.679669076000039,34.360844573000065],[27.310711125000068,34.429292470000064],[26.557784252000033,34.429292470000064],[25.804857378000065,35.592906729000049],[24.572795222000025,37.030312578000064],[24.025212042000078,37.988583143000028],[23.68297255400006,40.247363763000067],[24.230555735000053,41.684769611000036],[25.531065788000035,41.684769611000036],[26.763127944000075,42.643040177000046],[28.063637998000047,43.395967050000081],[29.021908564000057,44.422685514000079],[29.911731232000079,45.586299772000075],[30.724000000000046,46.482000000000028]]},"properties":{"OBJECTID":17,"Shape_Length":178.77119320158613,"route_id":"R16","route_name":"汉口—敖德萨（晚清俄商海运）","dynasty":"清代","route_type":"sea","segment_type":"sea","confidence":"medium","priority":"A","direction":"汉口\u2192敖德萨","source_url":"https://knowledge.uchicago.edu/record/7173","note":"依据WGS84港口节点、晚清俄商海运记录及当时蒸汽航运走廊人工数字化；汉口—上海为长江水运，远洋段经马六甲海峡、科伦坡、亚丁、苏伊士运河和黑海抵达敖德萨。"}},{"type":"Feature","id":18,"geometry":{"type":"LineString","coordinates":[[113.45100000000002,23.106000000000051],[113.54390000000001,22.198700000000031],[113.98491484100009,21.421454019000066],[114.24775476800005,20.72054754800007],[114.9486612390001,19.756801150000058],[115.29911447500001,18.617828135000025],[115.47434109200003,17.040788575000022],[115.47434109200003,16.03323552300003],[114.9486612390001,14.675229236000064],[114.77343462100009,13.886709456000062],[114.51059469500001,13.098189676000061],[113.54684829700011,12.003023315000064],[113.3716216790001,11.477343462000022],[112.71452186300007,10.732630337000046],[112.45168193600011,10.338370447000045],[112.05742204600006,9.9879172110000241],[111.53174219300007,9.0679774680000378],[110.34896252300007,7.7099711810000713],[109.60424939800004,6.8776447460000441],[109.47282943500005,6.3519648930000585],[108.85953627300006,5.7386717310000677],[108.42146972800003,4.9501519510000662],[107.37011002200006,3.9864055540000436],[106.84443016800009,3.2854990830000474],[105.70545715300005,2.2341393760000301],[104.52267748300005,1.7522661770000241],[103.69035104900007,1.8836861410000552],[103.03325123300004,1.9712994500000605],[102.25000000000006,2.5000000000000568],[101.19337174600008,2.978852502000052],[101.01814512900006,3.4169190460000323],[100.27343200300004,4.3368587890000754],[99.879172113000038,4.8625386420000609],[99.309685606000073,5.4758318040000518],[98.696392443000036,6.7462247830000592],[98.083099281000045,7.7099711810000713],[97.119352884000079,8.9803641590000325],[96.506059722000032,10.46979041000003],[96.024186523000083,11.345923499000037],[95.279473397000061,12.525965253000038],[94.458098627000084,13.621131614000035],[92.815349085000037,14.853193770000075],[91.788630622000085,14.853193770000075],[90.556568466000044,14.853193770000075],[89.735193695000078,13.963371101000064],[89.392954208000049,13.347340023000072],[88.982266822000042,11.909934175000046],[88.023996257000078,8.8297787850000304],[87.271069383000054,7.1185813460000418],[86.312798818000033,6.50255026800005],[85.080736662000049,6.2287586780000765],[83.09574763300003,5.8865191900000582],[82.205924964000076,5.8865191900000582],[80.76851911600005,5.8865191900000582],[79.861000000000047,6.9270000000000209],[77.825259521000078,7.6661645260000455],[77.072332648000042,7.6661645260000455],[75.566478901000039,8.419091399000024],[74.608208336000075,10.061840941000071],[74.060625155000082,11.636142584000027],[73.102354589000072,12.594413150000037],[71.733396638000045,14.237162692000027],[69.624345795000067,15.079927430000055],[67.913148356000079,14.545178231000023],[67.27144931600003,13.368729991000066],[65.988051237000036,11.978382072000045],[64.597703318000072,9.7324354340000241],[62.565656359000059,6.8447897560000683],[61.282258280000065,4.3849434370000608],[60.533609401000035,3.1015453580000667],[59.99886020100007,0.42779936000005137],[57.432064043000082,-3.2084951979999801],[56.469515483000066,-5.454441835999944],[56.041716124000061,-7.8073383149999813],[55.400017084000069,-9.6254855939999402],[54.116619005000075,-11.229733192999959],[53.367970125000056,-13.475679830999979],[52.084572046000062,-15.82857630999996],[51.199027372000046,-17.796453363999944],[50.78833998600004,-19.165411315999961],[49.693173625000043,-20.260577675999969],[49.214038343000027,-21.013504549999936],[49.077142547000051,-21.697983524999927],[48.050424084000042,-22.998493578999955],[46.955257723000045,-24.162107836999951],[46.407674543000041,-24.572795221999968],[45.175612387000058,-25.394169992999934],[44.285789719000036,-26.626232148999975],[42.574592280000047,-27.51605481699994],[41.342530124000064,-28.47432538299995],[40.658051148000027,-29.15880435899993],[40.042020070000035,-29.774835436999979],[38.741510017000053,-30.596210206999956],[36.482729397000071,-31.622928670999954],[35.524458831000061,-32.033616055999971],[34.388223732000029,-32.548344245999942],[33.818737224000074,-32.592150899999979],[32.898797481000031,-32.942604135999943],[30.883691377000048,-33.336864025999944],[29.262845163000065,-33.59970395199997],[27.817225567000037,-33.774930569999981],[26.28399266100007,-33.862543878999929],[25.451666227000032,-33.950157187999935],[24.312693212000056,-34.212997113999961],[22.253780453000047,-34.169190459999982],[21.684293946000025,-34.169190459999982],[20.76435420200005,-34.25680376899993],[20.151061040000059,-34.169190459999982],[19.581574533000037,-34.081577150999976],[18.424000000000035,-33.924999999999955],[14.010429031000058,-32.833600858999944],[11.122783353000045,-32.619701178999946],[8.6629370340000378,-32.405801498999949],[7.3795389550000436,-32.191901818999952],[6.0961408760000495,-32.191901818999952],[3.9571440770000663,-30.908503739999958],[2.3528964780000479,-29.945955180999931],[0.2138996800000541,-28.662557100999948],[-1.8181472789999589,-26.844409822999978],[-3.2084951979999801,-24.598463183999968],[-5.2405421569999362,-21.603867665999928],[-5.8822411959999386,-20.213519746999964],[-6.2030907159999629,-18.181472787999951],[-5.70799999999997,-15.964999999999975],[-7.3319128549999277,-14.005833529999961],[-8.4598994479999305,-12.125855874999957],[-10.057880453999928,-10.997869281999954],[-11.279865929999971,-10.151879336999968],[-12.877846936999958,-9.0238927439999657],[-14.757824591999963,-8.9298938609999254],[-16.637802246999968,-7.8959061509999628],[-19.175772080999934,-6.5799217929999259],[-21.807740797999941,-4.699944137999978],[-24.627707280999971,-2.6319687169999497],[-26.413686052999935,-0.37599553099994409],[-27.353674880999961,1.597981007000044],[-27.917668176999939,3.7599553100000662],[-28.934031096999945,7.1967894610000371],[-29.374650859999974,10.428001055000038],[-29.374650859999974,12.924846378000041],[-29.515649183999983,15.603814537000062],[-29.327651418999949,18.98777431600007],[-28.481661473999964,21.055749736000053],[-28.38766259099998,22.465732978000062],[-27.259675997999977,24.627707281000028],[-26.413686052999935,26.78968158400005],[-25.661694990999933,29.327651419000063],[-24.345710632999953,30.92563242500006],[-23.499720687999968,32.523613432000047],[-22.84172850899995,33.369603377000033],[-22.183736328999942,34.215593322000075],[-21.337746384999946,35.531577680000055],[-19.491608326999938,37.659712386000024],[-18.408741197999973,39.043375940000033],[-17.506351923999944,40.066083784000057],[-16.182847654999932,41.209110198000076],[-15.039821239999981,42.352136613000027],[-13.776476255999967,43.194366602000059],[-12.753768411999943,44.096755876000032],[-11.129467717999944,45.119463721000045],[-10.166919157999928,45.72105657000003],[-8.482459179999978,46.623445845000049],[-6.7002403629999776,47.578474494000034],[-6.0234484069999326,47.81535167800007],[-4.9744208749999643,48.390624841000033],[-4.2299497239999369,48.729020818000038],[-3.0969999899999721,49.22713969800003],[-2.0141328599999611,49.833545290000075],[-1.6243006939999418,50.006804031000058],[-1.1694964999999797,50.396636198000067],[-0.84463636099997075,50.678181651000045],[-0.49811887899994645,50.95972710500007],[-0.12799999999992906,51.507000000000062]]},"properties":{"OBJECTID":18,"Shape_Length":281.43706120963782,"route_id":"R11","route_name":"广州—伦敦（英国东印度公司茶叶航线）","dynasty":"清代","route_type":"sea","segment_type":"sea","confidence":"high","priority":"A","direction":"广州（黄埔）\u2192伦敦","source_url":"https://globalcapitalism.history.ox.ac.uk/files/case33-englisheastindiacompanypdf","note":"依据东印度公司贸易路线图、WGS84港口节点及好望角航行走廊人工数字化；远洋段表示历史航运走廊，不代表单次航行的精确船舶轨迹。"}},{"type":"Feature","id":19,"geometry":{"type":"LineString","coordinates":[[113.45100000000002,23.106000000000051],[113.54390000000001,22.198700000000031],[114.8365257050001,21.562829647000058],[115.9931525830001,20.07573794700005],[117.23239566600012,19.580040714000063],[117.14977946100009,18.506030042000077],[116.81931463800004,17.349403164000023],[116.32361740500005,16.027543875000049],[114.67129329400007,14.375219765000054],[113.34943400600002,13.218592887000057],[112.35803953900006,12.144582215000071],[110.70571542800008,10.987955337000074],[109.87955337300008,10.82272292600004],[108.72292649500008,10.409641898000075],[106.90536997300006,9.3356312260000323],[106.82275376800004,7.6833071160000372],[106.82275376800004,6.8571450600000503],[106.82275376800004,5.7831343880000645],[106.98798617900007,4.2960426880000568],[107.73153202900005,3.8003454550000697],[108.39246167300007,2.8915671940000607],[109.13600752300005,0.66092964400002074],[109.87955337300008,-1.982788932999938],[109.21862372800007,-3.0567996049999806],[108.47507787800004,-5.2048209489999522],[105.85000000000008,-6.0999999999999659],[104.30295949900005,-7.7452692699999375],[102.36664218100003,-8.7779718389999744],[101.46302743300004,-12.263343009999971],[100.68850050600008,-14.845099433999962],[99.526710116000061,-18.588646246999929],[98.106744083000081,-20.008612279999966],[97.590392798000039,-22.203105239999957],[96.170426765000059,-23.364895629999978],[94.105021627000042,-26.463003337999965],[91.52326520400004,-29.044759760999966],[88.812420959000065,-31.110164899999972],[85.972488894000037,-33.691921322999974],[84.036171576000072,-36.01550210399995],[82.616205543000035,-36.531853388999934],[80.808976047000044,-37.564555957999971],[79.389010014000064,-37.564555957999971],[76.549077949000036,-38.855434169999967],[73.45097024100005,-39.759048917999962],[71.127389460000074,-39.888136738999947],[69.449247785000068,-39.888136738999947],[67.900193931000047,-39.888136738999947],[65.576613150000071,-39.888136738999947],[61.833066336000059,-39.500873274999947],[58.993134271000031,-39.500873274999947],[57.573168238000051,-39.500873274999947],[54.34597270900008,-39.500873274999947],[52.151479749000032,-39.500873274999947],[49.311547684000061,-40.791751486999942],[47.246142545000055,-41.308102771999984],[45.955264334000049,-41.695366234999938],[40.275400202000071,-42.082629698999938],[38.339082885000039,-42.082629698999938],[35.499150819000079,-42.082629698999938],[30.981077079000045,-42.082629698999938],[29.173847583000054,-42.082629698999938],[27.108442444000048,-41.953541877999953],[23.62307127300005,-41.049927128999968],[21.041314849000059,-39.242697632999977],[19.363173174000053,-36.79002903099996],[18.424000000000035,-33.924999999999955],[16.135977645000025,-33.821009143999959],[12.303682954000067,-32.67535473199996],[7.6645893810000416,-32.070255569999972],[3.2271955290000278,-31.263456687999962],[0.60509916200004454,-29.448159201999943],[-2.4203966469999614,-27.431161996999947],[-4.8407932939999796,-24.405666187999941],[-6.4543910579999419,-22.388668982999945],[-7.6645893809999279,-20.169972055999949],[-8.6730879839999488,-16.942776526999978],[-10.690085189999934,-13.71558099799995],[-11.698583792999955,-10.286685748999957],[-13.312181556999974,-7.8662891019999392],[-15.329178762999959,-4.437393851999957],[-16.33767736599998,-2.6220963669999264],[-18.152974850999954,2.2186969260000637],[-19.240396312999962,6.1686766810000222],[-20.562255601999937,8.959268512000051],[-22.177861398999937,11.30924058100004],[-23.512999999999977,14.93300000000005],[-24.234086958999967,17.477917262000062],[-21.884114890999967,21.590368382000065],[-21.296621872999935,24.968453231000069],[-21.443495127999938,26.437185774000056],[-22.618481161999966,27.905918317000044],[-25.661694990999933,29.327651419000063],[-26.883680466999976,29.327651419000063],[-28.38766259099998,30.643635777000043],[-30.173641362999945,31.677623487000062],[-31.395626838999931,32.24161678400003],[-33.181605610999952,32.617612315000031],[-36.377567624999983,34.215593322000075],[-38.727539693999972,34.967584384000077],[-39.761527403999935,35.343579915000078],[-42.487495003999982,36.189569859000073],[-43.521482713999944,36.189569859000073],[-45.213462603999972,36.189569859000073],[-46.341449196999974,36.189569859000073],[-48.409424616999956,36.659564273000058],[-49.819407857999977,36.659564273000058],[-51.605386630999931,37.035559804000059],[-52.357377692999933,37.035559804000059],[-54.331354229999931,37.693551983000077],[-55.553339705999974,37.975548632000027],[-57.245319595999945,38.163546397000061],[-58.843300602999932,38.257545280000045],[-62.415258146999975,39.197534107000024],[-64.295235801999979,39.385531873000048],[-65.893216808999966,39.667528521000065],[-68.149189994999972,40.325520700000027],[-70.12316653299996,40.419519583000067],[-72.379139718999966,40.701516231000028],[-74.005999999999972,40.713000000000079]]},"properties":{"OBJECTID":19,"Shape_Length":286.87293237814606,"route_id":"R12","route_name":"广州—纽约（中国皇后号返程茶叶航线）","dynasty":"清代","route_type":"sea","segment_type":"sea","confidence":"high","priority":"A","direction":"广州（黄埔）\u2192纽约","source_url":"https://www.thenation.com/article/society/american-old-money-opium-trade-fortunes/","note":"依据中国皇后号航程图、WGS84港口节点和18世纪远洋航行走廊人工数字化；路线方向按返程茶叶流向设置为广州至纽约。"}},{"type":"Feature","id":20,"geometry":{"type":"LineString","coordinates":[[113.54390000000001,22.198700000000031],[114.36280071100009,21.176068306000047],[114.84407499100007,19.070493333000059],[114.84407499100007,17.566511209000055],[114.84407499100007,16.724281219000034],[115.02455284500002,15.340617665000025],[115.02455284500002,13.836635541000021],[114.78391570600002,12.693609127000059],[114.18232285600004,11.249786288000053],[113.09945572700008,9.3246891690000666],[112.4978628770001,7.8207070450000629],[111.83611074300006,6.3167249210000591],[111.23451789300009,5.294017077000035],[110.75324361300005,4.3314685170000757],[109.79069505400008,2.8876456780000694],[109.55005791400004,2.2860528290000275],[109.36958005900004,1.4438228390000631],[109.53802605700008,0.077003885000067385],[109.61502994200004,-1.155058270999973],[109.53802605700008,-1.7710893489999648],[109.46102217200007,-2.3486184849999745],[109.03750080600008,-3.4651748139999654],[108.61397944000004,-4.235213660999932],[107.11240368700004,-4.9282486239999344],[106.57337649400006,-5.5442797019999261],[106.15000000000003,-6.1199999999999477],[106.52902225700007,-6.2766174479999677],[106.84560000000005,-6.2087999999999397],[106.81288937700003,-6.4343214039999452],[106.51325186100007,-6.5920253589999334],[106.18207355300007,-6.5762549639999293],[105.96128801500004,-6.3870102169999541],[105.85000000000008,-6.0999999999999659],[103.53412941800008,-6.0760877809999556],[101.60903229900003,-5.0533799369999315],[100.58632445500007,-4.2713092319999646],[99.022183046000066,-2.8876456779999558],[96.916608072000031,-1.383663553999952],[94.811033099000042,-0.18047785499993552],[92.344502415000079,1.9852564040000402],[91.20147600100006,2.406371398000033],[88.915423172000033,3.7298756680000338],[87.230963193000036,4.3916278020000732],[86.148096064000072,4.5721056570000655],[84.10268037600008,5.5346542160000354],[82.343021290000081,6.1099273790000552],[80.181046987000059,6.1099273790000552],[78.395068215000038,5.9219296130000316],[77.361080505000075,4.7939430200000288],[74.464739930000064,3.2312115950000475],[73.583500404000063,2.0562255600000299],[72.114767861000075,-0.88123952599994482],[70.792908572000044,-3.5249581029999604],[69.324176029000057,-5.8749301719999494],[67.708570232000056,-8.6655220039999676],[65.79921792600004,-13.365466140999956],[65.211724909000054,-14.834198683999944],[63.155499349000081,-18.359156786999961],[62.127386569000066,-19.534142821999978],[60.364907517000063,-21.590368381999951],[59.043048228000032,-22.471607907999953],[57.868062194000061,-24.527833467999983],[55.077470362000042,-28.052791570999943],[52.727498293000053,-29.521524113999931],[50.230652970000051,-32.018369436999933],[47.440061139000079,-33.046482216999948],[44.061976290000075,-34.074594996999963],[40.683891441000071,-34.515214759999935],[37.012060083000051,-35.54332753999995],[33.487101980000034,-35.54332753999995],[31.137129911000045,-36.130820557999982],[28.934031097000059,-36.130820557999982],[24.380960214000027,-36.130820557999982],[21.59718330100003,-35.554137411999932],[20.213519747000078,-35.433818841999937],[18.424000000000035,-33.924999999999955],[16.724281219000034,-33.629040292999946],[12.337353361000055,-33.340228725999964],[9.1061417670000537,-31.284003165999934],[6.4624231890000488,-29.96214387699996],[3.3780848490000608,-27.171552044999942],[0.8812395260000585,-25.262199738999982],[-1.9093523059999598,-22.618481161999966],[-4.699944137999978,-20.562255601999937],[-5.505777759999944,-18.596438166999974],[-5.7367894139999294,-17.248870183999941],[-5.70799999999997,-15.964999999999975],[-6.256565635999948,-13.716316970999969],[-7.3394327649999695,-12.33265341699996],[-8.3621406099999263,-11.309945572999936],[-9.1442113139999606,-10.588034152999967],[-10.828671292999957,-9.3848484539999504],[-11.129467717999944,-8.9637334589999682],[-12.513131271999953,-8.061344184999939],[-13.355361260999928,-7.4597513349999645],[-15.099980524999978,-5.9557692109999607],[-15.942210514999942,-5.3541763619999756],[-17.686829778999936,-3.4892385279999303],[-18.769696907999958,-2.0454156889999808],[-20.856002110999952,1.4687325430000442],[-22.912227670999982,3.9655778660000465],[-24.821579976999942,7.0499162060000344],[-27.318425299999944,11.896733598000026],[-28.787157842999932,14.393578921000028],[-29.521524113999931,16.302931227000045],[-31.871496182999977,21.443495128000052],[-32.165242691999936,25.555946248000055],[-32.312115945999949,28.346538080000073],[-32.312115945999949,33.046482217000062],[-32.018369436999933,34.808961269000065],[-30.255890385999976,37.012060083000051],[-28.052791570999943,39.655778661000056],[-25.409072993999928,41.41825771200007],[-23.211849108999957,42.669617839000068],[-21.78424107799998,43.251235926000049],[-20.198009930999945,43.991477128000042],[-16.919798894999929,45.260462045000054],[-14.751949661999959,45.947828875000027],[-11.315115510999931,46.899567563000062],[-8.2484019609999564,47.586934393000035],[-5.6046833839999408,48.644421824000062],[-3.4368341509999709,48.961668053000039],[-1.3218592889999741,49.490411769000048],[1.5333567750000725,50.389276085000063],[2.7494673200000648,51.023768544000063],[4.9040000000000532,52.368000000000052]]},"properties":{"OBJECTID":20,"Shape_Length":280.15462950547095,"route_id":"R09","route_name":"澳门/广州—万丹/巴达维亚—阿姆斯特丹（VOC间接航线）","dynasty":"明代|清代","route_type":"sea","segment_type":"sea","confidence":"medium","priority":"A","direction":"澳门\u2192阿姆斯特丹","source_url":"https://www.atlasofmutualheritage.nl/page/4365/kanton-guangzhou","note":"依据VOC贸易航线参考图、WGS84港口节点及季风和好望角航行走廊人工数字化；路线表达经万丹、巴达维亚转运至阿姆斯特丹的历史航运走廊。"}},{"type":"Feature","id":21,"geometry":{"type":"LineString","coordinates":[[113.45100000000002,23.106000000000051],[113.54390000000001,22.198700000000031],[113.98491484100009,21.421454019000066],[114.24775476800005,20.72054754800007],[114.9486612390001,19.756801150000058],[115.29911447500001,18.617828135000025],[115.47434109200003,17.040788575000022],[115.47434109200003,16.03323552300003],[114.9486612390001,14.675229236000064],[114.77343462100009,13.886709456000062],[114.51059469500001,13.098189676000061],[113.54684829700011,12.003023315000064],[113.3716216790001,11.477343462000022],[112.45168193600011,10.338370447000045],[112.05742204600006,9.9879172110000241],[111.53174219300007,9.0679774680000378],[110.34896252300007,7.7099711810000713],[109.60424939800004,6.8776447460000441],[109.47282943500005,6.3519648930000585],[108.85953627300006,5.7386717310000677],[108.42146972800003,4.9501519510000662],[107.37011002200006,3.9864055540000436],[106.84443016800009,3.2854990830000474],[105.70545715300005,2.2341393760000301],[104.52267748300005,1.7522661770000241],[103.03325123300004,1.9712994500000605],[102.25000000000006,2.5000000000000568],[101.19337174600008,2.978852502000052],[101.01814512900006,3.4169190460000323],[99.879172113000038,4.8625386420000609],[99.309685606000073,5.4758318040000518],[98.696392443000036,6.7462247830000592],[98.083099281000045,7.7099711810000713],[97.119352884000079,8.9803641590000325],[96.506059722000032,10.46979041000003],[96.024186523000083,11.345923499000037],[95.279473397000061,12.525965253000038],[94.458098627000084,13.621131614000035],[92.815349085000037,14.853193770000075],[90.556568466000044,14.853193770000075],[89.735193695000078,13.963371101000064],[89.392954208000049,13.347340023000072],[88.023996257000078,8.8297787850000304],[87.271069383000054,7.1185813460000418],[86.312798818000033,6.50255026800005],[83.09574763300003,5.8865191900000582],[80.76851911600005,5.8865191900000582],[79.861000000000047,6.9270000000000209],[79.118890450000038,7.1964552960000674],[77.825259521000078,7.6661645260000455],[77.072332648000042,7.6661645260000455],[75.566478901000039,8.419091399000024],[73.846725475000085,8.470427323000024],[72.730169146000037,8.508929265000063],[71.498106990000053,8.508929265000063],[70.112037065000038,8.3549214950000419],[68.879974909000055,8.046905956000046],[67.647912753000071,8.0084040140000639],[66.569858366000062,7.8158943020000606],[65.222290383000029,7.5463807060000363],[62.565656359000059,6.8447897560000683],[59.483667991000061,6.1686766810000222],[56.839949414000046,5.7280569180000498],[54.343104091000043,4.1124511200000597],[52.28687853100007,2.2030988140000431],[50.67127273300008,0.44061976300002925],[49.691569378000054,-1.1430264139999622],[49.029817243000082,-2.4665306829999736],[48.488383679000037,-3.6697163829999795],[47.886790829000063,-4.6924242269999468],[47.225038694000034,-5.9557692109999607],[46.803923700000041,-6.7979992009999251],[46.442967990000056,-7.5800699049999594],[46.142171565000069,-8.1816627549999339],[45.13283245100007,-10.267184632999943],[44.277233731000081,-13.047880471999974],[42.459086452000065,-15.400776949999965],[41.389588053000068,-17.218924228999981],[40.747889014000066,-18.93012166799997],[39.250591255000074,-20.962168625999936],[37.432443976000059,-24.170663823999973],[36.362945576000072,-26.309660622999957],[34.758697977000054,-28.127807901999972],[33.58224973800003,-29.411205980999966],[31.871052299000041,-31.65715261899993],[29.262845163000065,-33.59970395199997],[26.28399266100007,-33.862543878999929],[24.312693212000056,-34.212997113999961],[22.253780453000047,-34.169190459999982],[20.76435420200005,-34.25680376899993],[19.581574533000037,-34.081577150999976],[18.424000000000035,-33.924999999999955],[16.724281219000034,-33.629040292999946],[12.337353361000055,-33.340228725999964],[11.122783353000045,-32.619701178999946],[9.1061417670000537,-31.284003165999934],[6.4624231890000488,-29.96214387699996],[3.3780848490000608,-27.171552044999942],[0.8812395260000585,-25.262199738999982],[-1.9093523059999598,-22.618481161999966],[-4.699944137999978,-20.562255601999937],[-5.505777759999944,-18.596438166999974],[-5.7367894139999294,-17.248870183999941],[-5.70799999999997,-15.964999999999975],[-6.256565635999948,-13.716316970999969],[-7.3394327649999695,-12.33265341699996],[-8.3621406099999263,-11.309945572999936],[-9.1442113139999606,-10.588034152999967],[-10.828671292999957,-9.3848484539999504],[-11.129467717999944,-8.9637334589999682],[-13.355361260999928,-7.4597513349999645],[-15.099980524999978,-5.9557692109999607],[-15.942210514999942,-5.3541763619999756],[-17.686829778999936,-3.4892385279999303],[-18.769696907999958,-2.0454156889999808],[-20.856002110999952,1.4687325430000442],[-22.912227670999982,3.9655778660000465],[-24.821579976999942,7.0499162060000344],[-27.318425299999944,11.896733598000026],[-28.787157842999932,14.393578921000028],[-29.515649183999983,15.603814537000062],[-31.871496182999977,21.443495128000052],[-32.312115945999949,28.346538080000073],[-32.312115945999949,33.046482217000062],[-32.018369436999933,34.808961269000065],[-30.255890385999976,37.012060083000051],[-28.052791570999943,39.655778661000056],[-25.409072993999928,41.41825771200007],[-23.211849108999957,42.669617839000068],[-21.78424107799998,43.251235926000049],[-20.198009930999945,43.991477128000042],[-16.919798894999929,45.260462045000054],[-11.315115510999931,46.899567563000062],[-8.2484019609999564,47.586934393000035],[-5.7296529249999253,48.594434007000075],[-5.6046833839999408,48.644421824000062],[-3.4368341509999709,48.961668053000039],[-1.3218592889999741,49.490411769000048],[1.5333567750000725,50.389276085000063],[2.7494673200000648,51.023768544000063],[4.9040000000000532,52.368000000000052]]},"properties":{"OBJECTID":21,"Shape_Length":280.84695835601099,"route_id":"R10","route_name":"广州—阿姆斯特丹（VOC直航）","dynasty":"清代","route_type":"sea","segment_type":"sea","confidence":"medium","priority":"B","direction":"广州（黄埔）\u2192阿姆斯特丹","source_url":"https://scholarlypublications.universiteitleiden.nl/handle/1887/5421","note":"依据VOC航线参考图、WGS84港口节点及好望角航运走廊人工数字化；路线表达18世纪荷兰与广州之间减少巴达维亚中转后的直接贸易航线。"}}]}