{"type":"FeatureCollection","features":[{"type":"Feature","id":1,"geometry":{"type":"Point","coordinates":[108.93980000000005,34.341600000000028]},"properties":{"OBJECTID":1,"route_id":"R01","seq":1,"节点名称":"长安（西安）","经度_lon":108.93980000000001,"纬度_lat":34.3416,"节点角色":"起点","路线名称":"唐蕃古道（青藏茶路基础走廊）","展示朝代":"唐代","定位精度":"城市/港口中心点","数字化备注":"在ArcGIS Pro中沿古道、河谷或航海走廊补充折点"}},{"type":"Feature","id":2,"geometry":{"type":"Point","coordinates":[103.83430000000004,36.061100000000067]},"properties":{"OBJECTID":2,"route_id":"R01","seq":2,"节点名称":"兰州","经度_lon":103.8343,"纬度_lat":36.061100000000003,"节点角色":"途经点","路线名称":"唐蕃古道（青藏茶路基础走廊）","展示朝代":"唐代","定位精度":"城市/港口中心点","数字化备注":"在ArcGIS Pro中沿古道、河谷或航海走廊补充折点"}},{"type":"Feature","id":3,"geometry":{"type":"Point","coordinates":[101.77820000000008,36.61710000000005]},"properties":{"OBJECTID":3,"route_id":"R01","seq":3,"节点名称":"西宁","经度_lon":101.7782,"纬度_lat":36.617100000000001,"节点角色":"途经点","路线名称":"唐蕃古道（青藏茶路基础走廊）","展示朝代":"唐代","定位精度":"城市/港口中心点","数字化备注":"在ArcGIS Pro中沿古道、河谷或航海走廊补充折点"}},{"type":"Feature","id":4,"geometry":{"type":"Point","coordinates":[100.92500000000007,36.43300000000005]},"properties":{"OBJECTID":4,"route_id":"R01","seq":4,"节点名称":"日月山","经度_lon":100.925,"纬度_lat":36.433,"节点角色":"途经点","路线名称":"唐蕃古道（青藏茶路基础走廊）","展示朝代":"唐代","定位精度":"城市/港口中心点","数字化备注":"在ArcGIS Pro中沿古道、河谷或航海走廊补充折点"}},{"type":"Feature","id":5,"geometry":{"type":"Point","coordinates":[98.20900000000006,34.915000000000077]},"properties":{"OBJECTID":5,"route_id":"R01","seq":5,"节点名称":"玛多","经度_lon":98.209000000000003,"纬度_lat":34.914999999999999,"节点角色":"途经点","路线名称":"唐蕃古道（青藏茶路基础走廊）","展示朝代":"唐代","定位精度":"城市/港口中心点","数字化备注":"在ArcGIS Pro中沿古道、河谷或航海走廊补充折点"}},{"type":"Feature","id":6,"geometry":{"type":"Point","coordinates":[97.008500000000083,33.004000000000076]},"properties":{"OBJECTID":6,"route_id":"R01","seq":6,"节点名称":"玉树","经度_lon":97.008499999999998,"纬度_lat":33.003999999999998,"节点角色":"途经点","路线名称":"唐蕃古道（青藏茶路基础走廊）","展示朝代":"唐代","定位精度":"城市/港口中心点","数字化备注":"在ArcGIS Pro中沿古道、河谷或航海走廊补充折点"}},{"type":"Feature","id":7,"geometry":{"type":"Point","coordinates":[95.300000000000068,32.893000000000029]},"properties":{"OBJECTID":7,"route_id":"R01","seq":7,"节点名称":"杂多","经度_lon":95.299999999999997,"纬度_lat":32.893000000000001,"节点角色":"途经点","路线名称":"唐蕃古道（青藏茶路基础走廊）","展示朝代":"唐代","定位精度":"城市/港口中心点","数字化备注":"在ArcGIS Pro中沿古道、河谷或航海走廊补充折点"}},{"type":"Feature","id":8,"geometry":{"type":"Point","coordinates":[96.601000000000056,31.212000000000046]},"properties":{"OBJECTID":8,"route_id":"R01","seq":8,"节点名称":"类乌齐","经度_lon":96.600999999999999,"纬度_lat":31.212,"节点角色":"途经点","路线名称":"唐蕃古道（青藏茶路基础走廊）","展示朝代":"唐代","定位精度":"城市/港口中心点","数字化备注":"在ArcGIS Pro中沿古道、河谷或航海走廊补充折点"}},{"type":"Feature","id":9,"geometry":{"type":"Point","coordinates":[92.052000000000078,31.477000000000032]},"properties":{"OBJECTID":9,"route_id":"R01","seq":9,"节点名称":"那曲","经度_lon":92.052000000000007,"纬度_lat":31.477,"节点角色":"途经点","路线名称":"唐蕃古道（青藏茶路基础走廊）","展示朝代":"唐代","定位精度":"城市/港口中心点","数字化备注":"在ArcGIS Pro中沿古道、河谷或航海走廊补充折点"}},{"type":"Feature","id":10,"geometry":{"type":"Point","coordinates":[91.101000000000056,30.47300000000007]},"properties":{"OBJECTID":10,"route_id":"R01","seq":10,"节点名称":"当雄","经度_lon":91.100999999999999,"纬度_lat":30.472999999999999,"节点角色":"途经点","路线名称":"唐蕃古道（青藏茶路基础走廊）","展示朝代":"唐代","定位精度":"城市/港口中心点","数字化备注":"在ArcGIS Pro中沿古道、河谷或航海走廊补充折点"}},{"type":"Feature","id":11,"geometry":{"type":"Point","coordinates":[91.132200000000068,29.660400000000038]},"properties":{"OBJECTID":11,"route_id":"R01","seq":11,"节点名称":"拉萨","经度_lon":91.132199999999997,"纬度_lat":29.660399999999999,"节点角色":"终点","路线名称":"唐蕃古道（青藏茶路基础走廊）","展示朝代":"唐代","定位精度":"城市/港口中心点","数字化备注":"在ArcGIS Pro中沿古道、河谷或航海走廊补充折点"}},{"type":"Feature","id":12,"geometry":{"type":"Point","coordinates":[107.76600000000008,32.983000000000061]},"properties":{"OBJECTID":12,"route_id":"R02","seq":1,"节点名称":"西乡","经度_lon":107.76600000000001,"纬度_lat":32.982999999999997,"节点角色":"起点","路线名称":"青藏茶马古道（陕南—拉萨）","展示朝代":"宋代\uFF5C元代\uFF5C明代\uFF5C清代","定位精度":"城市/港口中心点","数字化备注":"在ArcGIS Pro中沿古道、河谷或航海走廊补充折点"}},{"type":"Feature","id":13,"geometry":{"type":"Point","coordinates":[107.02300000000008,33.067000000000064]},"properties":{"OBJECTID":13,"route_id":"R02","seq":2,"节点名称":"汉中","经度_lon":107.023,"纬度_lat":33.067,"节点角色":"途经点","路线名称":"青藏茶马古道（陕南—拉萨）","展示朝代":"宋代\uFF5C元代\uFF5C明代\uFF5C清代","定位精度":"城市/港口中心点","数字化备注":"在ArcGIS Pro中沿古道、河谷或航海走廊补充折点"}},{"type":"Feature","id":14,"geometry":{"type":"Point","coordinates":[105.72500000000008,34.581000000000074]},"properties":{"OBJECTID":14,"route_id":"R02","seq":3,"节点名称":"天水（秦州）","经度_lon":105.72499999999999,"纬度_lat":34.581000000000003,"节点角色":"途经点","路线名称":"青藏茶马古道（陕南—拉萨）","展示朝代":"宋代\uFF5C元代\uFF5C明代\uFF5C清代","定位精度":"城市/港口中心点","数字化备注":"在ArcGIS Pro中沿古道、河谷或航海走廊补充折点"}},{"type":"Feature","id":15,"geometry":{"type":"Point","coordinates":[103.85900000000004,35.394000000000062]},"properties":{"OBJECTID":15,"route_id":"R02","seq":4,"节点名称":"临洮","经度_lon":103.85899999999999,"纬度_lat":35.393999999999998,"节点角色":"途经点","路线名称":"青藏茶马古道（陕南—拉萨）","展示朝代":"宋代\uFF5C元代\uFF5C明代\uFF5C清代","定位精度":"城市/港口中心点","数字化备注":"在ArcGIS Pro中沿古道、河谷或航海走廊补充折点"}},{"type":"Feature","id":16,"geometry":{"type":"Point","coordinates":[103.21000000000004,35.601000000000056]},"properties":{"OBJECTID":16,"route_id":"R02","seq":5,"节点名称":"临夏（河州）","经度_lon":103.20999999999999,"纬度_lat":35.600999999999999,"节点角色":"途经点","路线名称":"青藏茶马古道（陕南—拉萨）","展示朝代":"宋代\uFF5C元代\uFF5C明代\uFF5C清代","定位精度":"城市/港口中心点","数字化备注":"在ArcGIS Pro中沿古道、河谷或航海走廊补充折点"}},{"type":"Feature","id":17,"geometry":{"type":"Point","coordinates":[101.77820000000008,36.61710000000005]},"properties":{"OBJECTID":17,"route_id":"R02","seq":6,"节点名称":"西宁","经度_lon":101.7782,"纬度_lat":36.617100000000001,"节点角色":"途经点","路线名称":"青藏茶马古道（陕南—拉萨）","展示朝代":"宋代\uFF5C元代\uFF5C明代\uFF5C清代","定位精度":"城市/港口中心点","数字化备注":"在ArcGIS Pro中沿古道、河谷或航海走廊补充折点"}},{"type":"Feature","id":18,"geometry":{"type":"Point","coordinates":[100.92500000000007,36.43300000000005]},"properties":{"OBJECTID":18,"route_id":"R02","seq":7,"节点名称":"日月山","经度_lon":100.925,"纬度_lat":36.433,"节点角色":"途经点","路线名称":"青藏茶马古道（陕南—拉萨）","展示朝代":"宋代\uFF5C元代\uFF5C明代\uFF5C清代","定位精度":"城市/港口中心点","数字化备注":"在ArcGIS Pro中沿古道、河谷或航海走廊补充折点"}},{"type":"Feature","id":19,"geometry":{"type":"Point","coordinates":[97.008500000000083,33.004000000000076]},"properties":{"OBJECTID":19,"route_id":"R02","seq":8,"节点名称":"玉树","经度_lon":97.008499999999998,"纬度_lat":33.003999999999998,"节点角色":"途经点","路线名称":"青藏茶马古道（陕南—拉萨）","展示朝代":"宋代\uFF5C元代\uFF5C明代\uFF5C清代","定位精度":"城市/港口中心点","数字化备注":"在ArcGIS Pro中沿古道、河谷或航海走廊补充折点"}},{"type":"Feature","id":20,"geometry":{"type":"Point","coordinates":[92.052000000000078,31.477000000000032]},"properties":{"OBJECTID":20,"route_id":"R02","seq":9,"节点名称":"那曲","经度_lon":92.052000000000007,"纬度_lat":31.477,"节点角色":"途经点","路线名称":"青藏茶马古道（陕南—拉萨）","展示朝代":"宋代\uFF5C元代\uFF5C明代\uFF5C清代","定位精度":"城市/港口中心点","数字化备注":"在ArcGIS Pro中沿古道、河谷或航海走廊补充折点"}},{"type":"Feature","id":21,"geometry":{"type":"Point","coordinates":[91.132200000000068,29.660400000000038]},"properties":{"OBJECTID":21,"route_id":"R02","seq":10,"节点名称":"拉萨","经度_lon":91.132199999999997,"纬度_lat":29.660399999999999,"节点角色":"终点","路线名称":"青藏茶马古道（陕南—拉萨）","展示朝代":"宋代\uFF5C元代\uFF5C明代\uFF5C清代","定位精度":"城市/港口中心点","数字化备注":"在ArcGIS Pro中沿古道、河谷或航海走廊补充折点"}},{"type":"Feature","id":22,"geometry":{"type":"Point","coordinates":[103.00100000000003,29.981000000000051]},"properties":{"OBJECTID":22,"route_id":"R03","seq":1,"节点名称":"雅安","经度_lon":103.001,"纬度_lat":29.981000000000002,"节点角色":"起点","路线名称":"川藏茶马古道北线","展示朝代":"宋代\uFF5C元代\uFF5C明代\uFF5C清代","定位精度":"城市/港口中心点","数字化备注":"在ArcGIS Pro中沿古道、河谷或航海走廊补充折点"}},{"type":"Feature","id":23,"geometry":{"type":"Point","coordinates":[103.10900000000004,30.069000000000074]},"properties":{"OBJECTID":23,"route_id":"R03","seq":2,"节点名称":"名山","经度_lon":103.10899999999999,"纬度_lat":30.068999999999999,"节点角色":"途经点","路线名称":"川藏茶马古道北线","展示朝代":"宋代\uFF5C元代\uFF5C明代\uFF5C清代","定位精度":"城市/港口中心点","数字化备注":"在ArcGIS Pro中沿古道、河谷或航海走廊补充折点"}},{"type":"Feature","id":24,"geometry":{"type":"Point","coordinates":[102.75900000000007,30.067000000000064]},"properties":{"OBJECTID":24,"route_id":"R03","seq":3,"节点名称":"天全","经度_lon":102.759,"纬度_lat":30.067,"节点角色":"途经点","路线名称":"川藏茶马古道北线","展示朝代":"宋代\uFF5C元代\uFF5C明代\uFF5C清代","定位精度":"城市/港口中心点","数字化备注":"在ArcGIS Pro中沿古道、河谷或航海走廊补充折点"}},{"type":"Feature","id":25,"geometry":{"type":"Point","coordinates":[102.23400000000004,29.914000000000044]},"properties":{"OBJECTID":25,"route_id":"R03","seq":4,"节点名称":"泸定","经度_lon":102.23399999999999,"纬度_lat":29.914000000000001,"节点角色":"途经点","路线名称":"川藏茶马古道北线","展示朝代":"宋代\uFF5C元代\uFF5C明代\uFF5C清代","定位精度":"城市/港口中心点","数字化备注":"在ArcGIS Pro中沿古道、河谷或航海走廊补充折点"}},{"type":"Feature","id":26,"geometry":{"type":"Point","coordinates":[101.95700000000005,29.999000000000024]},"properties":{"OBJECTID":26,"route_id":"R03","seq":5,"节点名称":"康定","经度_lon":101.95699999999999,"纬度_lat":29.998999999999999,"节点角色":"途经点","路线名称":"川藏茶马古道北线","展示朝代":"宋代\uFF5C元代\uFF5C明代\uFF5C清代","定位精度":"城市/港口中心点","数字化备注":"在ArcGIS Pro中沿古道、河谷或航海走廊补充折点"}},{"type":"Feature","id":27,"geometry":{"type":"Point","coordinates":[101.12600000000003,30.979000000000042]},"properties":{"OBJECTID":27,"route_id":"R03","seq":6,"节点名称":"道孚","经度_lon":101.126,"纬度_lat":30.978999999999999,"节点角色":"途经点","路线名称":"川藏茶马古道北线","展示朝代":"宋代\uFF5C元代\uFF5C明代\uFF5C清代","定位精度":"城市/港口中心点","数字化备注":"在ArcGIS Pro中沿古道、河谷或航海走廊补充折点"}},{"type":"Feature","id":28,"geometry":{"type":"Point","coordinates":[100.67700000000008,31.391000000000076]},"properties":{"OBJECTID":28,"route_id":"R03","seq":7,"节点名称":"炉霍","经度_lon":100.67700000000001,"纬度_lat":31.390999999999998,"节点角色":"途经点","路线名称":"川藏茶马古道北线","展示朝代":"宋代\uFF5C元代\uFF5C明代\uFF5C清代","定位精度":"城市/港口中心点","数字化备注":"在ArcGIS Pro中沿古道、河谷或航海走廊补充折点"}},{"type":"Feature","id":29,"geometry":{"type":"Point","coordinates":[99.991000000000042,31.622000000000071]},"properties":{"OBJECTID":29,"route_id":"R03","seq":8,"节点名称":"甘孜","经度_lon":99.991,"纬度_lat":31.622,"节点角色":"途经点","路线名称":"川藏茶马古道北线","展示朝代":"宋代\uFF5C元代\uFF5C明代\uFF5C清代","定位精度":"城市/港口中心点","数字化备注":"在ArcGIS Pro中沿古道、河谷或航海走廊补充折点"}},{"type":"Feature","id":30,"geometry":{"type":"Point","coordinates":[98.580000000000041,31.80600000000004]},"properties":{"OBJECTID":30,"route_id":"R03","seq":9,"节点名称":"德格","经度_lon":98.579999999999998,"纬度_lat":31.806000000000001,"节点角色":"途经点","路线名称":"川藏茶马古道北线","展示朝代":"宋代\uFF5C元代\uFF5C明代\uFF5C清代","定位精度":"城市/港口中心点","数字化备注":"在ArcGIS Pro中沿古道、河谷或航海走廊补充折点"}},{"type":"Feature","id":31,"geometry":{"type":"Point","coordinates":[98.218000000000075,31.499000000000024]},"properties":{"OBJECTID":31,"route_id":"R03","seq":10,"节点名称":"江达","经度_lon":98.218000000000004,"纬度_lat":31.498999999999999,"节点角色":"途经点","路线名称":"川藏茶马古道北线","展示朝代":"宋代\uFF5C元代\uFF5C明代\uFF5C清代","定位精度":"城市/港口中心点","数字化备注":"在ArcGIS Pro中沿古道、河谷或航海走廊补充折点"}},{"type":"Feature","id":32,"geometry":{"type":"Point","coordinates":[97.172000000000082,31.140000000000043]},"properties":{"OBJECTID":32,"route_id":"R03","seq":11,"节点名称":"昌都","经度_lon":97.171999999999997,"纬度_lat":31.140000000000001,"节点角色":"途经点","路线名称":"川藏茶马古道北线","展示朝代":"宋代\uFF5C元代\uFF5C明代\uFF5C清代","定位精度":"城市/港口中心点","数字化备注":"在ArcGIS Pro中沿古道、河谷或航海走廊补充折点"}},{"type":"Feature","id":33,"geometry":{"type":"Point","coordinates":[95.824000000000069,30.741000000000042]},"properties":{"OBJECTID":33,"route_id":"R03","seq":12,"节点名称":"洛隆","经度_lon":95.823999999999998,"纬度_lat":30.741,"节点角色":"途经点","路线名称":"川藏茶马古道北线","展示朝代":"宋代\uFF5C元代\uFF5C明代\uFF5C清代","定位精度":"城市/港口中心点","数字化备注":"在ArcGIS Pro中沿古道、河谷或航海走廊补充折点"}},{"type":"Feature","id":34,"geometry":{"type":"Point","coordinates":[93.233000000000061,30.641000000000076]},"properties":{"OBJECTID":34,"route_id":"R03","seq":13,"节点名称":"嘉黎","经度_lon":93.233000000000004,"纬度_lat":30.640999999999998,"节点角色":"途经点","路线名称":"川藏茶马古道北线","展示朝代":"宋代\uFF5C元代\uFF5C明代\uFF5C清代","定位精度":"城市/港口中心点","数字化备注":"在ArcGIS Pro中沿古道、河谷或航海走廊补充折点"}},{"type":"Feature","id":35,"geometry":{"type":"Point","coordinates":[91.132200000000068,29.660400000000038]},"properties":{"OBJECTID":35,"route_id":"R03","seq":14,"节点名称":"拉萨","经度_lon":91.132199999999997,"纬度_lat":29.660399999999999,"节点角色":"终点","路线名称":"川藏茶马古道北线","展示朝代":"宋代\uFF5C元代\uFF5C明代\uFF5C清代","定位精度":"城市/港口中心点","数字化备注":"在ArcGIS Pro中沿古道、河谷或航海走廊补充折点"}},{"type":"Feature","id":36,"geometry":{"type":"Point","coordinates":[103.00100000000003,29.981000000000051]},"properties":{"OBJECTID":36,"route_id":"R04","seq":1,"节点名称":"雅安","经度_lon":103.001,"纬度_lat":29.981000000000002,"节点角色":"起点","路线名称":"川藏茶马古道南线","展示朝代":"宋代\uFF5C元代\uFF5C明代\uFF5C清代","定位精度":"城市/港口中心点","数字化备注":"在ArcGIS Pro中沿古道、河谷或航海走廊补充折点"}},{"type":"Feature","id":37,"geometry":{"type":"Point","coordinates":[102.84700000000004,29.793000000000063]},"properties":{"OBJECTID":37,"route_id":"R04","seq":2,"节点名称":"荥经","经度_lon":102.84699999999999,"纬度_lat":29.792999999999999,"节点角色":"途经点","路线名称":"川藏茶马古道南线","展示朝代":"宋代\uFF5C元代\uFF5C明代\uFF5C清代","定位精度":"城市/港口中心点","数字化备注":"在ArcGIS Pro中沿古道、河谷或航海走廊补充折点"}},{"type":"Feature","id":38,"geometry":{"type":"Point","coordinates":[102.65100000000007,29.344000000000051]},"properties":{"OBJECTID":38,"route_id":"R04","seq":3,"节点名称":"汉源","经度_lon":102.651,"纬度_lat":29.344000000000001,"节点角色":"途经点","路线名称":"川藏茶马古道南线","展示朝代":"宋代\uFF5C元代\uFF5C明代\uFF5C清代","定位精度":"城市/港口中心点","数字化备注":"在ArcGIS Pro中沿古道、河谷或航海走廊补充折点"}},{"type":"Feature","id":39,"geometry":{"type":"Point","coordinates":[102.23400000000004,29.914000000000044]},"properties":{"OBJECTID":39,"route_id":"R04","seq":4,"节点名称":"泸定","经度_lon":102.23399999999999,"纬度_lat":29.914000000000001,"节点角色":"途经点","路线名称":"川藏茶马古道南线","展示朝代":"宋代\uFF5C元代\uFF5C明代\uFF5C清代","定位精度":"城市/港口中心点","数字化备注":"在ArcGIS Pro中沿古道、河谷或航海走廊补充折点"}},{"type":"Feature","id":40,"geometry":{"type":"Point","coordinates":[101.95700000000005,29.999000000000024]},"properties":{"OBJECTID":40,"route_id":"R04","seq":5,"节点名称":"康定","经度_lon":101.95699999999999,"纬度_lat":29.998999999999999,"节点角色":"途经点","路线名称":"川藏茶马古道南线","展示朝代":"宋代\uFF5C元代\uFF5C明代\uFF5C清代","定位精度":"城市/港口中心点","数字化备注":"在ArcGIS Pro中沿古道、河谷或航海走廊补充折点"}},{"type":"Feature","id":41,"geometry":{"type":"Point","coordinates":[101.01500000000004,30.032000000000039]},"properties":{"OBJECTID":41,"route_id":"R04","seq":6,"节点名称":"雅江","经度_lon":101.015,"纬度_lat":30.032,"节点角色":"途经点","路线名称":"川藏茶马古道南线","展示朝代":"宋代\uFF5C元代\uFF5C明代\uFF5C清代","定位精度":"城市/港口中心点","数字化备注":"在ArcGIS Pro中沿古道、河谷或航海走廊补充折点"}},{"type":"Feature","id":42,"geometry":{"type":"Point","coordinates":[100.26900000000006,29.996000000000038]},"properties":{"OBJECTID":42,"route_id":"R04","seq":7,"节点名称":"理塘","经度_lon":100.26900000000001,"纬度_lat":29.995999999999999,"节点角色":"途经点","路线名称":"川藏茶马古道南线","展示朝代":"宋代\uFF5C元代\uFF5C明代\uFF5C清代","定位精度":"城市/港口中心点","数字化备注":"在ArcGIS Pro中沿古道、河谷或航海走廊补充折点"}},{"type":"Feature","id":43,"geometry":{"type":"Point","coordinates":[99.11000000000007,30.005000000000052]},"properties":{"OBJECTID":43,"route_id":"R04","seq":8,"节点名称":"巴塘","经度_lon":99.109999999999999,"纬度_lat":30.004999999999999,"节点角色":"途经点","路线名称":"川藏茶马古道南线","展示朝代":"宋代\uFF5C元代\uFF5C明代\uFF5C清代","定位精度":"城市/港口中心点","数字化备注":"在ArcGIS Pro中沿古道、河谷或航海走廊补充折点"}},{"type":"Feature","id":44,"geometry":{"type":"Point","coordinates":[98.593000000000075,29.67900000000003]},"properties":{"OBJECTID":44,"route_id":"R04","seq":9,"节点名称":"芒康","经度_lon":98.593000000000004,"纬度_lat":29.678999999999998,"节点角色":"途经点","路线名称":"川藏茶马古道南线","展示朝代":"宋代\uFF5C元代\uFF5C明代\uFF5C清代","定位精度":"城市/港口中心点","数字化备注":"在ArcGIS Pro中沿古道、河谷或航海走廊补充折点"}},{"type":"Feature","id":45,"geometry":{"type":"Point","coordinates":[97.841000000000065,29.671000000000049]},"properties":{"OBJECTID":45,"route_id":"R04","seq":10,"节点名称":"左贡","经度_lon":97.840999999999994,"纬度_lat":29.670999999999999,"节点角色":"途经点","路线名称":"川藏茶马古道南线","展示朝代":"宋代\uFF5C元代\uFF5C明代\uFF5C清代","定位精度":"城市/港口中心点","数字化备注":"在ArcGIS Pro中沿古道、河谷或航海走廊补充折点"}},{"type":"Feature","id":46,"geometry":{"type":"Point","coordinates":[97.258000000000038,30.133000000000038]},"properties":{"OBJECTID":46,"route_id":"R04","seq":11,"节点名称":"邦达","经度_lon":97.257999999999996,"纬度_lat":30.132999999999999,"节点角色":"途经点","路线名称":"川藏茶马古道南线","展示朝代":"宋代\uFF5C元代\uFF5C明代\uFF5C清代","定位精度":"城市/港口中心点","数字化备注":"在ArcGIS Pro中沿古道、河谷或航海走廊补充折点"}},{"type":"Feature","id":47,"geometry":{"type":"Point","coordinates":[96.918000000000063,30.053000000000054]},"properties":{"OBJECTID":47,"route_id":"R04","seq":12,"节点名称":"八宿","经度_lon":96.918000000000006,"纬度_lat":30.053000000000001,"节点角色":"途经点","路线名称":"川藏茶马古道南线","展示朝代":"宋代\uFF5C元代\uFF5C明代\uFF5C清代","定位精度":"城市/港口中心点","数字化备注":"在ArcGIS Pro中沿古道、河谷或航海走廊补充折点"}},{"type":"Feature","id":48,"geometry":{"type":"Point","coordinates":[95.768000000000086,29.859000000000037]},"properties":{"OBJECTID":48,"route_id":"R04","seq":13,"节点名称":"波密","经度_lon":95.768000000000001,"纬度_lat":29.859000000000002,"节点角色":"途经点","路线名称":"川藏茶马古道南线","展示朝代":"宋代\uFF5C元代\uFF5C明代\uFF5C清代","定位精度":"城市/港口中心点","数字化备注":"在ArcGIS Pro中沿古道、河谷或航海走廊补充折点"}},{"type":"Feature","id":49,"geometry":{"type":"Point","coordinates":[94.36200000000008,29.648000000000025]},"properties":{"OBJECTID":49,"route_id":"R04","seq":14,"节点名称":"林芝","经度_lon":94.361999999999995,"纬度_lat":29.648,"节点角色":"途经点","路线名称":"川藏茶马古道南线","展示朝代":"宋代\uFF5C元代\uFF5C明代\uFF5C清代","定位精度":"城市/港口中心点","数字化备注":"在ArcGIS Pro中沿古道、河谷或航海走廊补充折点"}},{"type":"Feature","id":50,"geometry":{"type":"Point","coordinates":[93.246000000000038,29.885000000000048]},"properties":{"OBJECTID":50,"route_id":"R04","seq":15,"节点名称":"工布江达","经度_lon":93.245999999999995,"纬度_lat":29.885000000000002,"节点角色":"途经点","路线名称":"川藏茶马古道南线","展示朝代":"宋代\uFF5C元代\uFF5C明代\uFF5C清代","定位精度":"城市/港口中心点","数字化备注":"在ArcGIS Pro中沿古道、河谷或航海走廊补充折点"}},{"type":"Feature","id":51,"geometry":{"type":"Point","coordinates":[91.132200000000068,29.660400000000038]},"properties":{"OBJECTID":51,"route_id":"R04","seq":16,"节点名称":"拉萨","经度_lon":91.132199999999997,"纬度_lat":29.660399999999999,"节点角色":"终点","路线名称":"川藏茶马古道南线","展示朝代":"宋代\uFF5C元代\uFF5C明代\uFF5C清代","定位精度":"城市/港口中心点","数字化备注":"在ArcGIS Pro中沿古道、河谷或航海走廊补充折点"}},{"type":"Feature","id":52,"geometry":{"type":"Point","coordinates":[101.04600000000005,23.048000000000059]},"properties":{"OBJECTID":52,"route_id":"R05","seq":1,"节点名称":"普洱（宁洱）","经度_lon":101.04600000000001,"纬度_lat":23.047999999999998,"节点角色":"起点","路线名称":"滇藏茶马古道","展示朝代":"唐代\uFF5C宋代\uFF5C元代\uFF5C明代\uFF5C清代","定位精度":"城市/港口中心点","数字化备注":"在ArcGIS Pro中沿古道、河谷或航海走廊补充折点"}},{"type":"Feature","id":53,"geometry":{"type":"Point","coordinates":[100.50900000000007,25.043000000000063]},"properties":{"OBJECTID":53,"route_id":"R05","seq":2,"节点名称":"南涧","经度_lon":100.509,"纬度_lat":25.042999999999999,"节点角色":"途经点","路线名称":"滇藏茶马古道","展示朝代":"唐代\uFF5C宋代\uFF5C元代\uFF5C明代\uFF5C清代","定位精度":"城市/港口中心点","数字化备注":"在ArcGIS Pro中沿古道、河谷或航海走廊补充折点"}},{"type":"Feature","id":54,"geometry":{"type":"Point","coordinates":[100.26700000000005,25.606000000000051]},"properties":{"OBJECTID":54,"route_id":"R05","seq":3,"节点名称":"大理","经度_lon":100.267,"纬度_lat":25.606000000000002,"节点角色":"途经点","路线名称":"滇藏茶马古道","展示朝代":"唐代\uFF5C宋代\uFF5C元代\uFF5C明代\uFF5C清代","定位精度":"城市/港口中心点","数字化备注":"在ArcGIS Pro中沿古道、河谷或航海走廊补充折点"}},{"type":"Feature","id":55,"geometry":{"type":"Point","coordinates":[100.23300000000006,26.872000000000071]},"properties":{"OBJECTID":55,"route_id":"R05","seq":4,"节点名称":"丽江","经度_lon":100.233,"纬度_lat":26.872,"节点角色":"途经点","路线名称":"滇藏茶马古道","展示朝代":"唐代\uFF5C宋代\uFF5C元代\uFF5C明代\uFF5C清代","定位精度":"城市/港口中心点","数字化备注":"在ArcGIS Pro中沿古道、河谷或航海走廊补充折点"}},{"type":"Feature","id":56,"geometry":{"type":"Point","coordinates":[99.70700000000005,27.829000000000065]},"properties":{"OBJECTID":56,"route_id":"R05","seq":5,"节点名称":"香格里拉（中甸）","经度_lon":99.706999999999994,"纬度_lat":27.829000000000001,"节点角色":"途经点","路线名称":"滇藏茶马古道","展示朝代":"唐代\uFF5C宋代\uFF5C元代\uFF5C明代\uFF5C清代","定位精度":"城市/港口中心点","数字化备注":"在ArcGIS Pro中沿古道、河谷或航海走廊补充折点"}},{"type":"Feature","id":57,"geometry":{"type":"Point","coordinates":[98.911000000000058,28.486000000000047]},"properties":{"OBJECTID":57,"route_id":"R05","seq":6,"节点名称":"德钦","经度_lon":98.911000000000001,"纬度_lat":28.486000000000001,"节点角色":"途经点","路线名称":"滇藏茶马古道","展示朝代":"唐代\uFF5C宋代\uFF5C元代\uFF5C明代\uFF5C清代","定位精度":"城市/港口中心点","数字化备注":"在ArcGIS Pro中沿古道、河谷或航海走廊补充折点"}},{"type":"Feature","id":58,"geometry":{"type":"Point","coordinates":[98.593000000000075,29.67900000000003]},"properties":{"OBJECTID":58,"route_id":"R05","seq":7,"节点名称":"芒康","经度_lon":98.593000000000004,"纬度_lat":29.678999999999998,"节点角色":"途经点","路线名称":"滇藏茶马古道","展示朝代":"唐代\uFF5C宋代\uFF5C元代\uFF5C明代\uFF5C清代","定位精度":"城市/港口中心点","数字化备注":"在ArcGIS Pro中沿古道、河谷或航海走廊补充折点"}},{"type":"Feature","id":59,"geometry":{"type":"Point","coordinates":[97.172000000000082,31.140000000000043]},"properties":{"OBJECTID":59,"route_id":"R05","seq":8,"节点名称":"昌都","经度_lon":97.171999999999997,"纬度_lat":31.140000000000001,"节点角色":"途经点","路线名称":"滇藏茶马古道","展示朝代":"唐代\uFF5C宋代\uFF5C元代\uFF5C明代\uFF5C清代","定位精度":"城市/港口中心点","数字化备注":"在ArcGIS Pro中沿古道、河谷或航海走廊补充折点"}},{"type":"Feature","id":60,"geometry":{"type":"Point","coordinates":[95.824000000000069,30.741000000000042]},"properties":{"OBJECTID":60,"route_id":"R05","seq":9,"节点名称":"洛隆","经度_lon":95.823999999999998,"纬度_lat":30.741,"节点角色":"途经点","路线名称":"滇藏茶马古道","展示朝代":"唐代\uFF5C宋代\uFF5C元代\uFF5C明代\uFF5C清代","定位精度":"城市/港口中心点","数字化备注":"在ArcGIS Pro中沿古道、河谷或航海走廊补充折点"}},{"type":"Feature","id":61,"geometry":{"type":"Point","coordinates":[93.246000000000038,29.885000000000048]},"properties":{"OBJECTID":61,"route_id":"R05","seq":10,"节点名称":"工布江达","经度_lon":93.245999999999995,"纬度_lat":29.885000000000002,"节点角色":"途经点","路线名称":"滇藏茶马古道","展示朝代":"唐代\uFF5C宋代\uFF5C元代\uFF5C明代\uFF5C清代","定位精度":"城市/港口中心点","数字化备注":"在ArcGIS Pro中沿古道、河谷或航海走廊补充折点"}},{"type":"Feature","id":62,"geometry":{"type":"Point","coordinates":[91.132200000000068,29.660400000000038]},"properties":{"OBJECTID":62,"route_id":"R05","seq":11,"节点名称":"拉萨","经度_lon":91.132199999999997,"纬度_lat":29.660399999999999,"节点角色":"途经点","路线名称":"滇藏茶马古道","展示朝代":"唐代\uFF5C宋代\uFF5C元代\uFF5C明代\uFF5C清代","定位精度":"城市/港口中心点","数字化备注":"在ArcGIS Pro中沿古道、河谷或航海走廊补充折点"}},{"type":"Feature","id":63,"geometry":{"type":"Point","coordinates":[88.885000000000048,29.267000000000053]},"properties":{"OBJECTID":63,"route_id":"R05","seq":12,"节点名称":"日喀则","经度_lon":88.885000000000005,"纬度_lat":29.266999999999999,"节点角色":"途经点","路线名称":"滇藏茶马古道","展示朝代":"唐代\uFF5C宋代\uFF5C元代\uFF5C明代\uFF5C清代","定位精度":"城市/港口中心点","数字化备注":"在ArcGIS Pro中沿古道、河谷或航海走廊补充折点"}},{"type":"Feature","id":64,"geometry":{"type":"Point","coordinates":[88.907000000000039,27.486000000000047]},"properties":{"OBJECTID":64,"route_id":"R05","seq":13,"节点名称":"亚东","经度_lon":88.906999999999996,"纬度_lat":27.486000000000001,"节点角色":"终点","路线名称":"滇藏茶马古道","展示朝代":"唐代\uFF5C宋代\uFF5C元代\uFF5C明代\uFF5C清代","定位精度":"城市/港口中心点","数字化备注":"在ArcGIS Pro中沿古道、河谷或航海走廊补充折点"}},{"type":"Feature","id":65,"geometry":{"type":"Point","coordinates":[91.132200000000068,29.660400000000038]},"properties":{"OBJECTID":65,"route_id":"R06","seq":1,"节点名称":"拉萨","经度_lon":91.132199999999997,"纬度_lat":29.660399999999999,"节点角色":"起点","路线名称":"拉萨—拉达克茶巴贸易线","展示朝代":"清代","定位精度":"城市/港口中心点","数字化备注":"在ArcGIS Pro中沿古道、河谷或航海走廊补充折点"}},{"type":"Feature","id":66,"geometry":{"type":"Point","coordinates":[88.885000000000048,29.267000000000053]},"properties":{"OBJECTID":66,"route_id":"R06","seq":2,"节点名称":"日喀则","经度_lon":88.885000000000005,"纬度_lat":29.266999999999999,"节点角色":"途经点","路线名称":"拉萨—拉达克茶巴贸易线","展示朝代":"清代","定位精度":"城市/港口中心点","数字化备注":"在ArcGIS Pro中沿古道、河谷或航海走廊补充折点"}},{"type":"Feature","id":67,"geometry":{"type":"Point","coordinates":[85.233000000000061,29.328000000000031]},"properties":{"OBJECTID":67,"route_id":"R06","seq":3,"节点名称":"萨嘎","经度_lon":85.233000000000004,"纬度_lat":29.327999999999999,"节点角色":"途经点","路线名称":"拉萨—拉达克茶巴贸易线","展示朝代":"清代","定位精度":"城市/港口中心点","数字化备注":"在ArcGIS Pro中沿古道、河谷或航海走廊补充折点"}},{"type":"Feature","id":68,"geometry":{"type":"Point","coordinates":[80.09600000000006,32.500000000000057]},"properties":{"OBJECTID":68,"route_id":"R06","seq":4,"节点名称":"噶尔（阿里）","经度_lon":80.096000000000004,"纬度_lat":32.5,"节点角色":"途经点","路线名称":"拉萨—拉达克茶巴贸易线","展示朝代":"清代","定位精度":"城市/港口中心点","数字化备注":"在ArcGIS Pro中沿古道、河谷或航海走廊补充折点"}},{"type":"Feature","id":69,"geometry":{"type":"Point","coordinates":[79.729000000000042,33.388000000000034]},"properties":{"OBJECTID":69,"route_id":"R06","seq":5,"节点名称":"日土","经度_lon":79.728999999999999,"纬度_lat":33.387999999999998,"节点角色":"途经点","路线名称":"拉萨—拉达克茶巴贸易线","展示朝代":"清代","定位精度":"城市/港口中心点","数字化备注":"在ArcGIS Pro中沿古道、河谷或航海走廊补充折点"}},{"type":"Feature","id":70,"geometry":{"type":"Point","coordinates":[79.310000000000059,32.690000000000055]},"properties":{"OBJECTID":70,"route_id":"R06","seq":6,"节点名称":"典角","经度_lon":79.310000000000002,"纬度_lat":32.689999999999998,"节点角色":"途经点","路线名称":"拉萨—拉达克茶巴贸易线","展示朝代":"清代","定位精度":"城市/港口中心点","数字化备注":"在ArcGIS Pro中沿古道、河谷或航海走廊补充折点"}},{"type":"Feature","id":71,"geometry":{"type":"Point","coordinates":[77.577000000000055,34.152000000000044]},"properties":{"OBJECTID":71,"route_id":"R06","seq":7,"节点名称":"列城（拉达克）","经度_lon":77.576999999999998,"纬度_lat":34.152000000000001,"节点角色":"途经点","路线名称":"拉萨—拉达克茶巴贸易线","展示朝代":"清代","定位精度":"城市/港口中心点","数字化备注":"在ArcGIS Pro中沿古道、河谷或航海走廊补充折点"}},{"type":"Feature","id":72,"geometry":{"type":"Point","coordinates":[74.797000000000082,34.08400000000006]},"properties":{"OBJECTID":72,"route_id":"R06","seq":8,"节点名称":"斯利那加（克什米尔）","经度_lon":74.796999999999997,"纬度_lat":34.084000000000003,"节点角色":"终点","路线名称":"拉萨—拉达克茶巴贸易线","展示朝代":"清代","定位精度":"城市/港口中心点","数字化备注":"在ArcGIS Pro中沿古道、河谷或航海走廊补充折点"}},{"type":"Feature","id":73,"geometry":{"type":"Point","coordinates":[118.01900000000001,27.658000000000072]},"properties":{"OBJECTID":73,"route_id":"R07","seq":1,"节点名称":"下梅（武夷山）","经度_lon":118.01900000000001,"纬度_lat":27.658000000000001,"节点角色":"起点","路线名称":"万里茶道（武夷山—恰克图—圣彼得堡）","展示朝代":"清代","定位精度":"城市/港口中心点","数字化备注":"在ArcGIS Pro中沿古道、河谷或航海走廊补充折点"}},{"type":"Feature","id":74,"geometry":{"type":"Point","coordinates":[117.71000000000004,28.310000000000059]},"properties":{"OBJECTID":74,"route_id":"R07","seq":2,"节点名称":"铅山河口","经度_lon":117.70999999999999,"纬度_lat":28.309999999999999,"节点角色":"途经点","路线名称":"万里茶道（武夷山—恰克图—圣彼得堡）","展示朝代":"清代","定位精度":"城市/港口中心点","数字化备注":"在ArcGIS Pro中沿古道、河谷或航海走廊补充折点"}},{"type":"Feature","id":75,"geometry":{"type":"Point","coordinates":[115.99200000000008,29.712000000000046]},"properties":{"OBJECTID":75,"route_id":"R07","seq":3,"节点名称":"九江","经度_lon":115.992,"纬度_lat":29.712,"节点角色":"途经点","路线名称":"万里茶道（武夷山—恰克图—圣彼得堡）","展示朝代":"清代","定位精度":"城市/港口中心点","数字化备注":"在ArcGIS Pro中沿古道、河谷或航海走廊补充折点"}},{"type":"Feature","id":76,"geometry":{"type":"Point","coordinates":[114.2940000000001,30.593000000000075]},"properties":{"OBJECTID":76,"route_id":"R07","seq":4,"节点名称":"汉口","经度_lon":114.294,"纬度_lat":30.593,"节点角色":"途经点","路线名称":"万里茶道（武夷山—恰克图—圣彼得堡）","展示朝代":"清代","定位精度":"城市/港口中心点","数字化备注":"在ArcGIS Pro中沿古道、河谷或航海走廊补充折点"}},{"type":"Feature","id":77,"geometry":{"type":"Point","coordinates":[112.12200000000007,32.009000000000071]},"properties":{"OBJECTID":77,"route_id":"R07","seq":5,"节点名称":"襄阳","经度_lon":112.122,"纬度_lat":32.009,"节点角色":"途经点","路线名称":"万里茶道（武夷山—恰克图—圣彼得堡）","展示朝代":"清代","定位精度":"城市/港口中心点","数字化备注":"在ArcGIS Pro中沿古道、河谷或航海走廊补充折点"}},{"type":"Feature","id":78,"geometry":{"type":"Point","coordinates":[112.94700000000012,33.05600000000004]},"properties":{"OBJECTID":78,"route_id":"R07","seq":6,"节点名称":"社旗","经度_lon":112.947,"纬度_lat":33.055999999999997,"节点角色":"途经点","路线名称":"万里茶道（武夷山—恰克图—圣彼得堡）","展示朝代":"清代","定位精度":"城市/港口中心点","数字化备注":"在ArcGIS Pro中沿古道、河谷或航海走廊补充折点"}},{"type":"Feature","id":79,"geometry":{"type":"Point","coordinates":[112.45400000000006,34.619000000000028]},"properties":{"OBJECTID":79,"route_id":"R07","seq":7,"节点名称":"洛阳","经度_lon":112.45399999999999,"纬度_lat":34.619,"节点角色":"途经点","路线名称":"万里茶道（武夷山—恰克图—圣彼得堡）","展示朝代":"清代","定位精度":"城市/港口中心点","数字化备注":"在ArcGIS Pro中沿古道、河谷或航海走廊补充折点"}},{"type":"Feature","id":80,"geometry":{"type":"Point","coordinates":[112.85100000000011,35.491000000000042]},"properties":{"OBJECTID":80,"route_id":"R07","seq":8,"节点名称":"晋城","经度_lon":112.851,"纬度_lat":35.491,"节点角色":"途经点","路线名称":"万里茶道（武夷山—恰克图—圣彼得堡）","展示朝代":"清代","定位精度":"城市/港口中心点","数字化备注":"在ArcGIS Pro中沿古道、河谷或航海走廊补充折点"}},{"type":"Feature","id":81,"geometry":{"type":"Point","coordinates":[113.1160000000001,36.19500000000005]},"properties":{"OBJECTID":81,"route_id":"R07","seq":9,"节点名称":"长治","经度_lon":113.116,"纬度_lat":36.195,"节点角色":"途经点","路线名称":"万里茶道（武夷山—恰克图—圣彼得堡）","展示朝代":"清代","定位精度":"城市/港口中心点","数字化备注":"在ArcGIS Pro中沿古道、河谷或航海走廊补充折点"}},{"type":"Feature","id":82,"geometry":{"type":"Point","coordinates":[112.33500000000004,37.358000000000061]},"properties":{"OBJECTID":82,"route_id":"R07","seq":10,"节点名称":"祁县","经度_lon":112.33499999999999,"纬度_lat":37.357999999999997,"节点角色":"途经点","路线名称":"万里茶道（武夷山—恰克图—圣彼得堡）","展示朝代":"清代","定位精度":"城市/港口中心点","数字化备注":"在ArcGIS Pro中沿古道、河谷或航海走廊补充折点"}},{"type":"Feature","id":83,"geometry":{"type":"Point","coordinates":[112.54900000000009,37.870000000000061]},"properties":{"OBJECTID":83,"route_id":"R07","seq":11,"节点名称":"太原","经度_lon":112.54900000000001,"纬度_lat":37.869999999999997,"节点角色":"途经点","路线名称":"万里茶道（武夷山—恰克图—圣彼得堡）","展示朝代":"清代","定位精度":"城市/港口中心点","数字化备注":"在ArcGIS Pro中沿古道、河谷或航海走廊补充折点"}},{"type":"Feature","id":84,"geometry":{"type":"Point","coordinates":[113.30000000000007,40.076000000000079]},"properties":{"OBJECTID":84,"route_id":"R07","seq":12,"节点名称":"大同","经度_lon":113.3,"纬度_lat":40.076000000000001,"节点角色":"途经点","路线名称":"万里茶道（武夷山—恰克图—圣彼得堡）","展示朝代":"清代","定位精度":"城市/港口中心点","数字化备注":"在ArcGIS Pro中沿古道、河谷或航海走廊补充折点"}},{"type":"Feature","id":85,"geometry":{"type":"Point","coordinates":[114.88600000000008,40.768000000000029]},"properties":{"OBJECTID":85,"route_id":"R07","seq":13,"节点名称":"张家口","经度_lon":114.886,"纬度_lat":40.768000000000001,"节点角色":"途经点","路线名称":"万里茶道（武夷山—恰克图—圣彼得堡）","展示朝代":"清代","定位精度":"城市/港口中心点","数字化备注":"在ArcGIS Pro中沿古道、河谷或航海走廊补充折点"}},{"type":"Feature","id":86,"geometry":{"type":"Point","coordinates":[111.74900000000008,40.842000000000041]},"properties":{"OBJECTID":86,"route_id":"R07","seq":14,"节点名称":"呼和浩特（归化）","经度_lon":111.749,"纬度_lat":40.841999999999999,"节点角色":"途经点","路线名称":"万里茶道（武夷山—恰克图—圣彼得堡）","展示朝代":"清代","定位精度":"城市/港口中心点","数字化备注":"在ArcGIS Pro中沿古道、河谷或航海走廊补充折点"}},{"type":"Feature","id":87,"geometry":{"type":"Point","coordinates":[106.90570000000008,47.886400000000037]},"properties":{"OBJECTID":87,"route_id":"R07","seq":15,"节点名称":"乌兰巴托（库伦）","经度_lon":106.9057,"纬度_lat":47.886400000000002,"节点角色":"途经点","路线名称":"万里茶道（武夷山—恰克图—圣彼得堡）","展示朝代":"清代","定位精度":"城市/港口中心点","数字化备注":"在ArcGIS Pro中沿古道、河谷或航海走廊补充折点"}},{"type":"Feature","id":88,"geometry":{"type":"Point","coordinates":[106.45200000000006,50.351000000000056]},"properties":{"OBJECTID":88,"route_id":"R07","seq":16,"节点名称":"恰克图","经度_lon":106.452,"纬度_lat":50.350999999999999,"节点角色":"途经点","路线名称":"万里茶道（武夷山—恰克图—圣彼得堡）","展示朝代":"清代","定位精度":"城市/港口中心点","数字化备注":"在ArcGIS Pro中沿古道、河谷或航海走廊补充折点"}},{"type":"Feature","id":89,"geometry":{"type":"Point","coordinates":[104.28000000000009,52.287000000000035]},"properties":{"OBJECTID":89,"route_id":"R07","seq":17,"节点名称":"伊尔库茨克","经度_lon":104.28,"纬度_lat":52.286999999999999,"节点角色":"途经点","路线名称":"万里茶道（武夷山—恰克图—圣彼得堡）","展示朝代":"清代","定位精度":"城市/港口中心点","数字化备注":"在ArcGIS Pro中沿古道、河谷或航海走廊补充折点"}},{"type":"Feature","id":90,"geometry":{"type":"Point","coordinates":[92.893000000000086,56.010000000000048]},"properties":{"OBJECTID":90,"route_id":"R07","seq":18,"节点名称":"克拉斯诺亚尔斯克","经度_lon":92.893000000000001,"纬度_lat":56.009999999999998,"节点角色":"途经点","路线名称":"万里茶道（武夷山—恰克图—圣彼得堡）","展示朝代":"清代","定位精度":"城市/港口中心点","数字化备注":"在ArcGIS Pro中沿古道、河谷或航海走廊补充折点"}},{"type":"Feature","id":91,"geometry":{"type":"Point","coordinates":[68.253000000000043,58.201000000000079]},"properties":{"OBJECTID":91,"route_id":"R07","seq":19,"节点名称":"托博尔斯克","经度_lon":68.253,"纬度_lat":58.201000000000001,"节点角色":"途经点","路线名称":"万里茶道（武夷山—恰克图—圣彼得堡）","展示朝代":"清代","定位精度":"城市/港口中心点","数字化备注":"在ArcGIS Pro中沿古道、河谷或航海走廊补充折点"}},{"type":"Feature","id":92,"geometry":{"type":"Point","coordinates":[49.106000000000051,55.797000000000082]},"properties":{"OBJECTID":92,"route_id":"R07","seq":20,"节点名称":"喀山","经度_lon":49.106000000000002,"纬度_lat":55.796999999999997,"节点角色":"途经点","路线名称":"万里茶道（武夷山—恰克图—圣彼得堡）","展示朝代":"清代","定位精度":"城市/港口中心点","数字化备注":"在ArcGIS Pro中沿古道、河谷或航海走廊补充折点"}},{"type":"Feature","id":93,"geometry":{"type":"Point","coordinates":[37.618000000000052,55.756000000000029]},"properties":{"OBJECTID":93,"route_id":"R07","seq":21,"节点名称":"莫斯科","经度_lon":37.618000000000002,"纬度_lat":55.756,"节点角色":"途经点","路线名称":"万里茶道（武夷山—恰克图—圣彼得堡）","展示朝代":"清代","定位精度":"城市/港口中心点","数字化备注":"在ArcGIS Pro中沿古道、河谷或航海走廊补充折点"}},{"type":"Feature","id":94,"geometry":{"type":"Point","coordinates":[30.315000000000055,59.939000000000078]},"properties":{"OBJECTID":94,"route_id":"R07","seq":22,"节点名称":"圣彼得堡","经度_lon":30.315000000000001,"纬度_lat":59.939,"节点角色":"终点","路线名称":"万里茶道（武夷山—恰克图—圣彼得堡）","展示朝代":"清代","定位精度":"城市/港口中心点","数字化备注":"在ArcGIS Pro中沿古道、河谷或航海走廊补充折点"}},{"type":"Feature","id":95,"geometry":{"type":"Point","coordinates":[116.40700000000004,39.904000000000053]},"properties":{"OBJECTID":95,"route_id":"R08","seq":1,"节点名称":"北京","经度_lon":116.407,"纬度_lat":39.904000000000003,"节点角色":"起点","路线名称":"北京—恰克图—莫斯科早期商队线","展示朝代":"清代","定位精度":"城市/港口中心点","数字化备注":"在ArcGIS Pro中沿古道、河谷或航海走廊补充折点"}},{"type":"Feature","id":96,"geometry":{"type":"Point","coordinates":[114.88600000000008,40.768000000000029]},"properties":{"OBJECTID":96,"route_id":"R08","seq":2,"节点名称":"张家口","经度_lon":114.886,"纬度_lat":40.768000000000001,"节点角色":"途经点","路线名称":"北京—恰克图—莫斯科早期商队线","展示朝代":"清代","定位精度":"城市/港口中心点","数字化备注":"在ArcGIS Pro中沿古道、河谷或航海走廊补充折点"}},{"type":"Feature","id":97,"geometry":{"type":"Point","coordinates":[111.74900000000008,40.842000000000041]},"properties":{"OBJECTID":97,"route_id":"R08","seq":3,"节点名称":"呼和浩特（归化）","经度_lon":111.749,"纬度_lat":40.841999999999999,"节点角色":"途经点","路线名称":"北京—恰克图—莫斯科早期商队线","展示朝代":"清代","定位精度":"城市/港口中心点","数字化备注":"在ArcGIS Pro中沿古道、河谷或航海走廊补充折点"}},{"type":"Feature","id":98,"geometry":{"type":"Point","coordinates":[106.90570000000008,47.886400000000037]},"properties":{"OBJECTID":98,"route_id":"R08","seq":4,"节点名称":"乌兰巴托（库伦）","经度_lon":106.9057,"纬度_lat":47.886400000000002,"节点角色":"途经点","路线名称":"北京—恰克图—莫斯科早期商队线","展示朝代":"清代","定位精度":"城市/港口中心点","数字化备注":"在ArcGIS Pro中沿古道、河谷或航海走廊补充折点"}},{"type":"Feature","id":99,"geometry":{"type":"Point","coordinates":[106.45200000000006,50.351000000000056]},"properties":{"OBJECTID":99,"route_id":"R08","seq":5,"节点名称":"恰克图","经度_lon":106.452,"纬度_lat":50.350999999999999,"节点角色":"途经点","路线名称":"北京—恰克图—莫斯科早期商队线","展示朝代":"清代","定位精度":"城市/港口中心点","数字化备注":"在ArcGIS Pro中沿古道、河谷或航海走廊补充折点"}},{"type":"Feature","id":100,"geometry":{"type":"Point","coordinates":[104.28000000000009,52.287000000000035]},"properties":{"OBJECTID":100,"route_id":"R08","seq":6,"节点名称":"伊尔库茨克","经度_lon":104.28,"纬度_lat":52.286999999999999,"节点角色":"途经点","路线名称":"北京—恰克图—莫斯科早期商队线","展示朝代":"清代","定位精度":"城市/港口中心点","数字化备注":"在ArcGIS Pro中沿古道、河谷或航海走廊补充折点"}},{"type":"Feature","id":101,"geometry":{"type":"Point","coordinates":[49.106000000000051,55.797000000000082]},"properties":{"OBJECTID":101,"route_id":"R08","seq":7,"节点名称":"喀山","经度_lon":49.106000000000002,"纬度_lat":55.796999999999997,"节点角色":"途经点","路线名称":"北京—恰克图—莫斯科早期商队线","展示朝代":"清代","定位精度":"城市/港口中心点","数字化备注":"在ArcGIS Pro中沿古道、河谷或航海走廊补充折点"}},{"type":"Feature","id":102,"geometry":{"type":"Point","coordinates":[37.618000000000052,55.756000000000029]},"properties":{"OBJECTID":102,"route_id":"R08","seq":8,"节点名称":"莫斯科","经度_lon":37.618000000000002,"纬度_lat":55.756,"节点角色":"终点","路线名称":"北京—恰克图—莫斯科早期商队线","展示朝代":"清代","定位精度":"城市/港口中心点","数字化备注":"在ArcGIS Pro中沿古道、河谷或航海走廊补充折点"}},{"type":"Feature","id":103,"geometry":{"type":"Point","coordinates":[113.54390000000001,22.198700000000031]},"properties":{"OBJECTID":103,"route_id":"R09","seq":1,"节点名称":"澳门","经度_lon":113.54389999999999,"纬度_lat":22.198699999999999,"节点角色":"起点","路线名称":"澳门/广州—万丹/巴达维亚—阿姆斯特丹（VOC间接航线）","展示朝代":"明代\uFF5C清代","定位精度":"城市/港口中心点","数字化备注":"在ArcGIS Pro中沿古道、河谷或航海走廊补充折点"}},{"type":"Feature","id":104,"geometry":{"type":"Point","coordinates":[106.15000000000003,-6.1199999999999477]},"properties":{"OBJECTID":104,"route_id":"R09","seq":2,"节点名称":"万丹","经度_lon":106.15000000000001,"纬度_lat":-6.1200000000000001,"节点角色":"途经点","路线名称":"澳门/广州—万丹/巴达维亚—阿姆斯特丹（VOC间接航线）","展示朝代":"明代\uFF5C清代","定位精度":"城市/港口中心点","数字化备注":"在ArcGIS Pro中沿古道、河谷或航海走廊补充折点"}},{"type":"Feature","id":105,"geometry":{"type":"Point","coordinates":[106.84560000000005,-6.2087999999999397]},"properties":{"OBJECTID":105,"route_id":"R09","seq":3,"节点名称":"巴达维亚（雅加达）","经度_lon":106.8456,"纬度_lat":-6.2088000000000001,"节点角色":"途经点","路线名称":"澳门/广州—万丹/巴达维亚—阿姆斯特丹（VOC间接航线）","展示朝代":"明代\uFF5C清代","定位精度":"城市/港口中心点","数字化备注":"在ArcGIS Pro中沿古道、河谷或航海走廊补充折点"}},{"type":"Feature","id":106,"geometry":{"type":"Point","coordinates":[105.85000000000008,-6.0999999999999659]},"properties":{"OBJECTID":106,"route_id":"R09","seq":4,"节点名称":"巽他海峡","经度_lon":105.84999999999999,"纬度_lat":-6.0999999999999996,"节点角色":"途经点","路线名称":"澳门/广州—万丹/巴达维亚—阿姆斯特丹（VOC间接航线）","展示朝代":"明代\uFF5C清代","定位精度":"城市/港口中心点","数字化备注":"在ArcGIS Pro中沿古道、河谷或航海走廊补充折点"}},{"type":"Feature","id":107,"geometry":{"type":"Point","coordinates":[18.424000000000035,-33.924999999999955]},"properties":{"OBJECTID":107,"route_id":"R09","seq":5,"节点名称":"开普敦","经度_lon":18.423999999999999,"纬度_lat":-33.924999999999997,"节点角色":"途经点","路线名称":"澳门/广州—万丹/巴达维亚—阿姆斯特丹（VOC间接航线）","展示朝代":"明代\uFF5C清代","定位精度":"城市/港口中心点","数字化备注":"在ArcGIS Pro中沿古道、河谷或航海走廊补充折点"}},{"type":"Feature","id":108,"geometry":{"type":"Point","coordinates":[-5.70799999999997,-15.964999999999975]},"properties":{"OBJECTID":108,"route_id":"R09","seq":6,"节点名称":"圣赫勒拿","经度_lon":-5.7080000000000002,"纬度_lat":-15.965,"节点角色":"途经点","路线名称":"澳门/广州—万丹/巴达维亚—阿姆斯特丹（VOC间接航线）","展示朝代":"明代\uFF5C清代","定位精度":"城市/港口中心点","数字化备注":"在ArcGIS Pro中沿古道、河谷或航海走廊补充折点"}},{"type":"Feature","id":109,"geometry":{"type":"Point","coordinates":[4.9040000000000532,52.368000000000052]},"properties":{"OBJECTID":109,"route_id":"R09","seq":7,"节点名称":"阿姆斯特丹","经度_lon":4.9039999999999999,"纬度_lat":52.368000000000002,"节点角色":"终点","路线名称":"澳门/广州—万丹/巴达维亚—阿姆斯特丹（VOC间接航线）","展示朝代":"明代\uFF5C清代","定位精度":"城市/港口中心点","数字化备注":"在ArcGIS Pro中沿古道、河谷或航海走廊补充折点"}},{"type":"Feature","id":110,"geometry":{"type":"Point","coordinates":[113.45100000000002,23.106000000000051]},"properties":{"OBJECTID":110,"route_id":"R10","seq":1,"节点名称":"广州（黄埔）","经度_lon":113.45099999999999,"纬度_lat":23.106000000000002,"节点角色":"起点","路线名称":"广州—阿姆斯特丹（VOC直航）","展示朝代":"清代","定位精度":"城市/港口中心点","数字化备注":"在ArcGIS Pro中沿古道、河谷或航海走廊补充折点"}},{"type":"Feature","id":111,"geometry":{"type":"Point","coordinates":[113.54390000000001,22.198700000000031]},"properties":{"OBJECTID":111,"route_id":"R10","seq":2,"节点名称":"澳门","经度_lon":113.54389999999999,"纬度_lat":22.198699999999999,"节点角色":"途经点","路线名称":"广州—阿姆斯特丹（VOC直航）","展示朝代":"清代","定位精度":"城市/港口中心点","数字化备注":"在ArcGIS Pro中沿古道、河谷或航海走廊补充折点"}},{"type":"Feature","id":112,"geometry":{"type":"Point","coordinates":[102.25000000000006,2.5000000000000568]},"properties":{"OBJECTID":112,"route_id":"R10","seq":3,"节点名称":"马六甲海峡","经度_lon":102.25,"纬度_lat":2.5,"节点角色":"途经点","路线名称":"广州—阿姆斯特丹（VOC直航）","展示朝代":"清代","定位精度":"城市/港口中心点","数字化备注":"在ArcGIS Pro中沿古道、河谷或航海走廊补充折点"}},{"type":"Feature","id":113,"geometry":{"type":"Point","coordinates":[79.861000000000047,6.9270000000000209]},"properties":{"OBJECTID":113,"route_id":"R10","seq":4,"节点名称":"科伦坡","经度_lon":79.861000000000004,"纬度_lat":6.9269999999999996,"节点角色":"途经点","路线名称":"广州—阿姆斯特丹（VOC直航）","展示朝代":"清代","定位精度":"城市/港口中心点","数字化备注":"在ArcGIS Pro中沿古道、河谷或航海走廊补充折点"}},{"type":"Feature","id":114,"geometry":{"type":"Point","coordinates":[18.424000000000035,-33.924999999999955]},"properties":{"OBJECTID":114,"route_id":"R10","seq":5,"节点名称":"开普敦","经度_lon":18.423999999999999,"纬度_lat":-33.924999999999997,"节点角色":"途经点","路线名称":"广州—阿姆斯特丹（VOC直航）","展示朝代":"清代","定位精度":"城市/港口中心点","数字化备注":"在ArcGIS Pro中沿古道、河谷或航海走廊补充折点"}},{"type":"Feature","id":115,"geometry":{"type":"Point","coordinates":[-5.70799999999997,-15.964999999999975]},"properties":{"OBJECTID":115,"route_id":"R10","seq":6,"节点名称":"圣赫勒拿","经度_lon":-5.7080000000000002,"纬度_lat":-15.965,"节点角色":"途经点","路线名称":"广州—阿姆斯特丹（VOC直航）","展示朝代":"清代","定位精度":"城市/港口中心点","数字化备注":"在ArcGIS Pro中沿古道、河谷或航海走廊补充折点"}},{"type":"Feature","id":116,"geometry":{"type":"Point","coordinates":[4.9040000000000532,52.368000000000052]},"properties":{"OBJECTID":116,"route_id":"R10","seq":7,"节点名称":"阿姆斯特丹","经度_lon":4.9039999999999999,"纬度_lat":52.368000000000002,"节点角色":"终点","路线名称":"广州—阿姆斯特丹（VOC直航）","展示朝代":"清代","定位精度":"城市/港口中心点","数字化备注":"在ArcGIS Pro中沿古道、河谷或航海走廊补充折点"}},{"type":"Feature","id":117,"geometry":{"type":"Point","coordinates":[113.45100000000002,23.106000000000051]},"properties":{"OBJECTID":117,"route_id":"R11","seq":1,"节点名称":"广州（黄埔）","经度_lon":113.45099999999999,"纬度_lat":23.106000000000002,"节点角色":"起点","路线名称":"广州—伦敦（英国东印度公司茶叶航线）","展示朝代":"清代","定位精度":"城市/港口中心点","数字化备注":"在ArcGIS Pro中沿古道、河谷或航海走廊补充折点"}},{"type":"Feature","id":118,"geometry":{"type":"Point","coordinates":[113.54390000000001,22.198700000000031]},"properties":{"OBJECTID":118,"route_id":"R11","seq":2,"节点名称":"澳门","经度_lon":113.54389999999999,"纬度_lat":22.198699999999999,"节点角色":"途经点","路线名称":"广州—伦敦（英国东印度公司茶叶航线）","展示朝代":"清代","定位精度":"城市/港口中心点","数字化备注":"在ArcGIS Pro中沿古道、河谷或航海走廊补充折点"}},{"type":"Feature","id":119,"geometry":{"type":"Point","coordinates":[102.25000000000006,2.5000000000000568]},"properties":{"OBJECTID":119,"route_id":"R11","seq":3,"节点名称":"马六甲海峡","经度_lon":102.25,"纬度_lat":2.5,"节点角色":"途经点","路线名称":"广州—伦敦（英国东印度公司茶叶航线）","展示朝代":"清代","定位精度":"城市/港口中心点","数字化备注":"在ArcGIS Pro中沿古道、河谷或航海走廊补充折点"}},{"type":"Feature","id":120,"geometry":{"type":"Point","coordinates":[79.861000000000047,6.9270000000000209]},"properties":{"OBJECTID":120,"route_id":"R11","seq":4,"节点名称":"科伦坡","经度_lon":79.861000000000004,"纬度_lat":6.9269999999999996,"节点角色":"途经点","路线名称":"广州—伦敦（英国东印度公司茶叶航线）","展示朝代":"清代","定位精度":"城市/港口中心点","数字化备注":"在ArcGIS Pro中沿古道、河谷或航海走廊补充折点"}},{"type":"Feature","id":121,"geometry":{"type":"Point","coordinates":[18.424000000000035,-33.924999999999955]},"properties":{"OBJECTID":121,"route_id":"R11","seq":5,"节点名称":"开普敦","经度_lon":18.423999999999999,"纬度_lat":-33.924999999999997,"节点角色":"途经点","路线名称":"广州—伦敦（英国东印度公司茶叶航线）","展示朝代":"清代","定位精度":"城市/港口中心点","数字化备注":"在ArcGIS Pro中沿古道、河谷或航海走廊补充折点"}},{"type":"Feature","id":122,"geometry":{"type":"Point","coordinates":[-5.70799999999997,-15.964999999999975]},"properties":{"OBJECTID":122,"route_id":"R11","seq":6,"节点名称":"圣赫勒拿","经度_lon":-5.7080000000000002,"纬度_lat":-15.965,"节点角色":"途经点","路线名称":"广州—伦敦（英国东印度公司茶叶航线）","展示朝代":"清代","定位精度":"城市/港口中心点","数字化备注":"在ArcGIS Pro中沿古道、河谷或航海走廊补充折点"}},{"type":"Feature","id":123,"geometry":{"type":"Point","coordinates":[-0.12799999999992906,51.507000000000062]},"properties":{"OBJECTID":123,"route_id":"R11","seq":7,"节点名称":"伦敦","经度_lon":-0.128,"纬度_lat":51.506999999999998,"节点角色":"终点","路线名称":"广州—伦敦（英国东印度公司茶叶航线）","展示朝代":"清代","定位精度":"城市/港口中心点","数字化备注":"在ArcGIS Pro中沿古道、河谷或航海走廊补充折点"}},{"type":"Feature","id":124,"geometry":{"type":"Point","coordinates":[113.45100000000002,23.106000000000051]},"properties":{"OBJECTID":124,"route_id":"R12","seq":1,"节点名称":"广州（黄埔）","经度_lon":113.45099999999999,"纬度_lat":23.106000000000002,"节点角色":"起点","路线名称":"广州—纽约（中国皇后号返程茶叶航线）","展示朝代":"清代","定位精度":"城市/港口中心点","数字化备注":"在ArcGIS Pro中沿古道、河谷或航海走廊补充折点"}},{"type":"Feature","id":125,"geometry":{"type":"Point","coordinates":[113.54390000000001,22.198700000000031]},"properties":{"OBJECTID":125,"route_id":"R12","seq":2,"节点名称":"澳门","经度_lon":113.54389999999999,"纬度_lat":22.198699999999999,"节点角色":"途经点","路线名称":"广州—纽约（中国皇后号返程茶叶航线）","展示朝代":"清代","定位精度":"城市/港口中心点","数字化备注":"在ArcGIS Pro中沿古道、河谷或航海走廊补充折点"}},{"type":"Feature","id":126,"geometry":{"type":"Point","coordinates":[105.85000000000008,-6.0999999999999659]},"properties":{"OBJECTID":126,"route_id":"R12","seq":3,"节点名称":"巽他海峡","经度_lon":105.84999999999999,"纬度_lat":-6.0999999999999996,"节点角色":"途经点","路线名称":"广州—纽约（中国皇后号返程茶叶航线）","展示朝代":"清代","定位精度":"城市/港口中心点","数字化备注":"在ArcGIS Pro中沿古道、河谷或航海走廊补充折点"}},{"type":"Feature","id":127,"geometry":{"type":"Point","coordinates":[18.424000000000035,-33.924999999999955]},"properties":{"OBJECTID":127,"route_id":"R12","seq":4,"节点名称":"开普敦","经度_lon":18.423999999999999,"纬度_lat":-33.924999999999997,"节点角色":"途经点","路线名称":"广州—纽约（中国皇后号返程茶叶航线）","展示朝代":"清代","定位精度":"城市/港口中心点","数字化备注":"在ArcGIS Pro中沿古道、河谷或航海走廊补充折点"}},{"type":"Feature","id":128,"geometry":{"type":"Point","coordinates":[-23.512999999999977,14.93300000000005]},"properties":{"OBJECTID":128,"route_id":"R12","seq":5,"节点名称":"佛得角","经度_lon":-23.513000000000002,"纬度_lat":14.933,"节点角色":"途经点","路线名称":"广州—纽约（中国皇后号返程茶叶航线）","展示朝代":"清代","定位精度":"城市/港口中心点","数字化备注":"在ArcGIS Pro中沿古道、河谷或航海走廊补充折点"}},{"type":"Feature","id":129,"geometry":{"type":"Point","coordinates":[-74.005999999999972,40.713000000000079]},"properties":{"OBJECTID":129,"route_id":"R12","seq":6,"节点名称":"纽约","经度_lon":-74.006,"纬度_lat":40.713000000000001,"节点角色":"终点","路线名称":"广州—纽约（中国皇后号返程茶叶航线）","展示朝代":"清代","定位精度":"城市/港口中心点","数字化备注":"在ArcGIS Pro中沿古道、河谷或航海走廊补充折点"}},{"type":"Feature","id":130,"geometry":{"type":"Point","coordinates":[113.45100000000002,23.106000000000051]},"properties":{"OBJECTID":130,"route_id":"R13","seq":1,"节点名称":"广州（黄埔）","经度_lon":113.45099999999999,"纬度_lat":23.106000000000002,"节点角色":"起点","路线名称":"广州—奥斯坦德（奥斯坦公司）","展示朝代":"清代","定位精度":"城市/港口中心点","数字化备注":"在ArcGIS Pro中沿古道、河谷或航海走廊补充折点"}},{"type":"Feature","id":131,"geometry":{"type":"Point","coordinates":[113.54390000000001,22.198700000000031]},"properties":{"OBJECTID":131,"route_id":"R13","seq":2,"节点名称":"澳门","经度_lon":113.54389999999999,"纬度_lat":22.198699999999999,"节点角色":"途经点","路线名称":"广州—奥斯坦德（奥斯坦公司）","展示朝代":"清代","定位精度":"城市/港口中心点","数字化备注":"在ArcGIS Pro中沿古道、河谷或航海走廊补充折点"}},{"type":"Feature","id":132,"geometry":{"type":"Point","coordinates":[102.25000000000006,2.5000000000000568]},"properties":{"OBJECTID":132,"route_id":"R13","seq":3,"节点名称":"马六甲海峡","经度_lon":102.25,"纬度_lat":2.5,"节点角色":"途经点","路线名称":"广州—奥斯坦德（奥斯坦公司）","展示朝代":"清代","定位精度":"城市/港口中心点","数字化备注":"在ArcGIS Pro中沿古道、河谷或航海走廊补充折点"}},{"type":"Feature","id":133,"geometry":{"type":"Point","coordinates":[79.861000000000047,6.9270000000000209]},"properties":{"OBJECTID":133,"route_id":"R13","seq":4,"节点名称":"科伦坡","经度_lon":79.861000000000004,"纬度_lat":6.9269999999999996,"节点角色":"途经点","路线名称":"广州—奥斯坦德（奥斯坦公司）","展示朝代":"清代","定位精度":"城市/港口中心点","数字化备注":"在ArcGIS Pro中沿古道、河谷或航海走廊补充折点"}},{"type":"Feature","id":134,"geometry":{"type":"Point","coordinates":[18.424000000000035,-33.924999999999955]},"properties":{"OBJECTID":134,"route_id":"R13","seq":5,"节点名称":"开普敦","经度_lon":18.423999999999999,"纬度_lat":-33.924999999999997,"节点角色":"途经点","路线名称":"广州—奥斯坦德（奥斯坦公司）","展示朝代":"清代","定位精度":"城市/港口中心点","数字化备注":"在ArcGIS Pro中沿古道、河谷或航海走廊补充折点"}},{"type":"Feature","id":135,"geometry":{"type":"Point","coordinates":[-5.70799999999997,-15.964999999999975]},"properties":{"OBJECTID":135,"route_id":"R13","seq":6,"节点名称":"圣赫勒拿","经度_lon":-5.7080000000000002,"纬度_lat":-15.965,"节点角色":"途经点","路线名称":"广州—奥斯坦德（奥斯坦公司）","展示朝代":"清代","定位精度":"城市/港口中心点","数字化备注":"在ArcGIS Pro中沿古道、河谷或航海走廊补充折点"}},{"type":"Feature","id":136,"geometry":{"type":"Point","coordinates":[2.9200000000000728,51.231000000000051]},"properties":{"OBJECTID":136,"route_id":"R13","seq":7,"节点名称":"奥斯坦德","经度_lon":2.9199999999999999,"纬度_lat":51.231000000000002,"节点角色":"终点","路线名称":"广州—奥斯坦德（奥斯坦公司）","展示朝代":"清代","定位精度":"城市/港口中心点","数字化备注":"在ArcGIS Pro中沿古道、河谷或航海走廊补充折点"}},{"type":"Feature","id":137,"geometry":{"type":"Point","coordinates":[113.45100000000002,23.106000000000051]},"properties":{"OBJECTID":137,"route_id":"R14","seq":1,"节点名称":"广州（黄埔）","经度_lon":113.45099999999999,"纬度_lat":23.106000000000002,"节点角色":"起点","路线名称":"广州—哥德堡（瑞典东印度公司）","展示朝代":"清代","定位精度":"城市/港口中心点","数字化备注":"在ArcGIS Pro中沿古道、河谷或航海走廊补充折点"}},{"type":"Feature","id":138,"geometry":{"type":"Point","coordinates":[113.54390000000001,22.198700000000031]},"properties":{"OBJECTID":138,"route_id":"R14","seq":2,"节点名称":"澳门","经度_lon":113.54389999999999,"纬度_lat":22.198699999999999,"节点角色":"途经点","路线名称":"广州—哥德堡（瑞典东印度公司）","展示朝代":"清代","定位精度":"城市/港口中心点","数字化备注":"在ArcGIS Pro中沿古道、河谷或航海走廊补充折点"}},{"type":"Feature","id":139,"geometry":{"type":"Point","coordinates":[102.25000000000006,2.5000000000000568]},"properties":{"OBJECTID":139,"route_id":"R14","seq":3,"节点名称":"马六甲海峡","经度_lon":102.25,"纬度_lat":2.5,"节点角色":"途经点","路线名称":"广州—哥德堡（瑞典东印度公司）","展示朝代":"清代","定位精度":"城市/港口中心点","数字化备注":"在ArcGIS Pro中沿古道、河谷或航海走廊补充折点"}},{"type":"Feature","id":140,"geometry":{"type":"Point","coordinates":[79.861000000000047,6.9270000000000209]},"properties":{"OBJECTID":140,"route_id":"R14","seq":4,"节点名称":"科伦坡","经度_lon":79.861000000000004,"纬度_lat":6.9269999999999996,"节点角色":"途经点","路线名称":"广州—哥德堡（瑞典东印度公司）","展示朝代":"清代","定位精度":"城市/港口中心点","数字化备注":"在ArcGIS Pro中沿古道、河谷或航海走廊补充折点"}},{"type":"Feature","id":141,"geometry":{"type":"Point","coordinates":[18.424000000000035,-33.924999999999955]},"properties":{"OBJECTID":141,"route_id":"R14","seq":5,"节点名称":"开普敦","经度_lon":18.423999999999999,"纬度_lat":-33.924999999999997,"节点角色":"途经点","路线名称":"广州—哥德堡（瑞典东印度公司）","展示朝代":"清代","定位精度":"城市/港口中心点","数字化备注":"在ArcGIS Pro中沿古道、河谷或航海走廊补充折点"}},{"type":"Feature","id":142,"geometry":{"type":"Point","coordinates":[-5.70799999999997,-15.964999999999975]},"properties":{"OBJECTID":142,"route_id":"R14","seq":6,"节点名称":"圣赫勒拿","经度_lon":-5.7080000000000002,"纬度_lat":-15.965,"节点角色":"途经点","路线名称":"广州—哥德堡（瑞典东印度公司）","展示朝代":"清代","定位精度":"城市/港口中心点","数字化备注":"在ArcGIS Pro中沿古道、河谷或航海走廊补充折点"}},{"type":"Feature","id":143,"geometry":{"type":"Point","coordinates":[11.974000000000046,57.708000000000027]},"properties":{"OBJECTID":143,"route_id":"R14","seq":7,"节点名称":"哥德堡","经度_lon":11.974,"纬度_lat":57.707999999999998,"节点角色":"终点","路线名称":"广州—哥德堡（瑞典东印度公司）","展示朝代":"清代","定位精度":"城市/港口中心点","数字化备注":"在ArcGIS Pro中沿古道、河谷或航海走廊补充折点"}},{"type":"Feature","id":144,"geometry":{"type":"Point","coordinates":[114.2940000000001,30.593000000000075]},"properties":{"OBJECTID":144,"route_id":"R15","seq":1,"节点名称":"汉口","经度_lon":114.294,"纬度_lat":30.593,"节点角色":"起点","路线名称":"汉口—天津—恰克图（晚清海陆联运）","展示朝代":"清代","定位精度":"城市/港口中心点","数字化备注":"在ArcGIS Pro中沿古道、河谷或航海走廊补充折点"}},{"type":"Feature","id":145,"geometry":{"type":"Point","coordinates":[115.99200000000008,29.712000000000046]},"properties":{"OBJECTID":145,"route_id":"R15","seq":2,"节点名称":"九江","经度_lon":115.992,"纬度_lat":29.712,"节点角色":"途经点","路线名称":"汉口—天津—恰克图（晚清海陆联运）","展示朝代":"清代","定位精度":"城市/港口中心点","数字化备注":"在ArcGIS Pro中沿古道、河谷或航海走廊补充折点"}},{"type":"Feature","id":146,"geometry":{"type":"Point","coordinates":[121.47400000000005,31.230000000000075]},"properties":{"OBJECTID":146,"route_id":"R15","seq":3,"节点名称":"上海","经度_lon":121.474,"纬度_lat":31.23,"节点角色":"途经点","路线名称":"汉口—天津—恰克图（晚清海陆联运）","展示朝代":"清代","定位精度":"城市/港口中心点","数字化备注":"在ArcGIS Pro中沿古道、河谷或航海走廊补充折点"}},{"type":"Feature","id":147,"geometry":{"type":"Point","coordinates":[117.20000000000005,39.08400000000006]},"properties":{"OBJECTID":147,"route_id":"R15","seq":4,"节点名称":"天津","经度_lon":117.2,"纬度_lat":39.084000000000003,"节点角色":"途经点","路线名称":"汉口—天津—恰克图（晚清海陆联运）","展示朝代":"清代","定位精度":"城市/港口中心点","数字化备注":"在ArcGIS Pro中沿古道、河谷或航海走廊补充折点"}},{"type":"Feature","id":148,"geometry":{"type":"Point","coordinates":[116.40700000000004,39.904000000000053]},"properties":{"OBJECTID":148,"route_id":"R15","seq":5,"节点名称":"北京","经度_lon":116.407,"纬度_lat":39.904000000000003,"节点角色":"途经点","路线名称":"汉口—天津—恰克图（晚清海陆联运）","展示朝代":"清代","定位精度":"城市/港口中心点","数字化备注":"在ArcGIS Pro中沿古道、河谷或航海走廊补充折点"}},{"type":"Feature","id":149,"geometry":{"type":"Point","coordinates":[114.88600000000008,40.768000000000029]},"properties":{"OBJECTID":149,"route_id":"R15","seq":6,"节点名称":"张家口","经度_lon":114.886,"纬度_lat":40.768000000000001,"节点角色":"途经点","路线名称":"汉口—天津—恰克图（晚清海陆联运）","展示朝代":"清代","定位精度":"城市/港口中心点","数字化备注":"在ArcGIS Pro中沿古道、河谷或航海走廊补充折点"}},{"type":"Feature","id":150,"geometry":{"type":"Point","coordinates":[111.74900000000008,40.842000000000041]},"properties":{"OBJECTID":150,"route_id":"R15","seq":7,"节点名称":"呼和浩特（归化）","经度_lon":111.749,"纬度_lat":40.841999999999999,"节点角色":"途经点","路线名称":"汉口—天津—恰克图（晚清海陆联运）","展示朝代":"清代","定位精度":"城市/港口中心点","数字化备注":"在ArcGIS Pro中沿古道、河谷或航海走廊补充折点"}},{"type":"Feature","id":151,"geometry":{"type":"Point","coordinates":[106.90570000000008,47.886400000000037]},"properties":{"OBJECTID":151,"route_id":"R15","seq":8,"节点名称":"乌兰巴托（库伦）","经度_lon":106.9057,"纬度_lat":47.886400000000002,"节点角色":"途经点","路线名称":"汉口—天津—恰克图（晚清海陆联运）","展示朝代":"清代","定位精度":"城市/港口中心点","数字化备注":"在ArcGIS Pro中沿古道、河谷或航海走廊补充折点"}},{"type":"Feature","id":152,"geometry":{"type":"Point","coordinates":[106.45200000000006,50.351000000000056]},"properties":{"OBJECTID":152,"route_id":"R15","seq":9,"节点名称":"恰克图","经度_lon":106.452,"纬度_lat":50.350999999999999,"节点角色":"终点","路线名称":"汉口—天津—恰克图（晚清海陆联运）","展示朝代":"清代","定位精度":"城市/港口中心点","数字化备注":"在ArcGIS Pro中沿古道、河谷或航海走廊补充折点"}},{"type":"Feature","id":153,"geometry":{"type":"Point","coordinates":[114.2940000000001,30.593000000000075]},"properties":{"OBJECTID":153,"route_id":"R16","seq":1,"节点名称":"汉口","经度_lon":114.294,"纬度_lat":30.593,"节点角色":"起点","路线名称":"汉口—敖德萨（晚清俄商海运）","展示朝代":"清代","定位精度":"城市/港口中心点","数字化备注":"在ArcGIS Pro中沿古道、河谷或航海走廊补充折点"}},{"type":"Feature","id":154,"geometry":{"type":"Point","coordinates":[121.47400000000005,31.230000000000075]},"properties":{"OBJECTID":154,"route_id":"R16","seq":2,"节点名称":"上海","经度_lon":121.474,"纬度_lat":31.23,"节点角色":"途经点","路线名称":"汉口—敖德萨（晚清俄商海运）","展示朝代":"清代","定位精度":"城市/港口中心点","数字化备注":"在ArcGIS Pro中沿古道、河谷或航海走廊补充折点"}},{"type":"Feature","id":155,"geometry":{"type":"Point","coordinates":[102.25000000000006,2.5000000000000568]},"properties":{"OBJECTID":155,"route_id":"R16","seq":3,"节点名称":"马六甲海峡","经度_lon":102.25,"纬度_lat":2.5,"节点角色":"途经点","路线名称":"汉口—敖德萨（晚清俄商海运）","展示朝代":"清代","定位精度":"城市/港口中心点","数字化备注":"在ArcGIS Pro中沿古道、河谷或航海走廊补充折点"}},{"type":"Feature","id":156,"geometry":{"type":"Point","coordinates":[79.861000000000047,6.9270000000000209]},"properties":{"OBJECTID":156,"route_id":"R16","seq":4,"节点名称":"科伦坡","经度_lon":79.861000000000004,"纬度_lat":6.9269999999999996,"节点角色":"途经点","路线名称":"汉口—敖德萨（晚清俄商海运）","展示朝代":"清代","定位精度":"城市/港口中心点","数字化备注":"在ArcGIS Pro中沿古道、河谷或航海走廊补充折点"}},{"type":"Feature","id":157,"geometry":{"type":"Point","coordinates":[45.019000000000062,12.785000000000025]},"properties":{"OBJECTID":157,"route_id":"R16","seq":5,"节点名称":"亚丁","经度_lon":45.018999999999998,"纬度_lat":12.785,"节点角色":"途经点","路线名称":"汉口—敖德萨（晚清俄商海运）","展示朝代":"清代","定位精度":"城市/港口中心点","数字化备注":"在ArcGIS Pro中沿古道、河谷或航海走廊补充折点"}},{"type":"Feature","id":158,"geometry":{"type":"Point","coordinates":[32.550000000000068,29.966000000000065]},"properties":{"OBJECTID":158,"route_id":"R16","seq":6,"节点名称":"苏伊士","经度_lon":32.549999999999997,"纬度_lat":29.966000000000001,"节点角色":"途经点","路线名称":"汉口—敖德萨（晚清俄商海运）","展示朝代":"清代","定位精度":"城市/港口中心点","数字化备注":"在ArcGIS Pro中沿古道、河谷或航海走廊补充折点"}},{"type":"Feature","id":159,"geometry":{"type":"Point","coordinates":[32.302000000000078,31.266000000000076]},"properties":{"OBJECTID":159,"route_id":"R16","seq":7,"节点名称":"塞得港","经度_lon":32.302,"纬度_lat":31.265999999999998,"节点角色":"途经点","路线名称":"汉口—敖德萨（晚清俄商海运）","展示朝代":"清代","定位精度":"城市/港口中心点","数字化备注":"在ArcGIS Pro中沿古道、河谷或航海走廊补充折点"}},{"type":"Feature","id":160,"geometry":{"type":"Point","coordinates":[30.724000000000046,46.482000000000028]},"properties":{"OBJECTID":160,"route_id":"R16","seq":8,"节点名称":"敖德萨","经度_lon":30.724,"纬度_lat":46.481999999999999,"节点角色":"终点","路线名称":"汉口—敖德萨（晚清俄商海运）","展示朝代":"清代","定位精度":"城市/港口中心点","数字化备注":"在ArcGIS Pro中沿古道、河谷或航海走廊补充折点"}},{"type":"Feature","id":161,"geometry":{"type":"Point","coordinates":[101.95700000000005,29.999000000000024]},"properties":{"OBJECTID":161,"route_id":"R17","seq":1,"节点名称":"康定","经度_lon":101.95699999999999,"纬度_lat":29.998999999999999,"节点角色":"起点","路线名称":"康藏—印藏驮运联运线","展示朝代":"抗战时期","定位精度":"城市/港口中心点","数字化备注":"在ArcGIS Pro中沿古道、河谷或航海走廊补充折点"}},{"type":"Feature","id":162,"geometry":{"type":"Point","coordinates":[100.26900000000006,29.996000000000038]},"properties":{"OBJECTID":162,"route_id":"R17","seq":2,"节点名称":"理塘","经度_lon":100.26900000000001,"纬度_lat":29.995999999999999,"节点角色":"途经点","路线名称":"康藏—印藏驮运联运线","展示朝代":"抗战时期","定位精度":"城市/港口中心点","数字化备注":"在ArcGIS Pro中沿古道、河谷或航海走廊补充折点"}},{"type":"Feature","id":163,"geometry":{"type":"Point","coordinates":[99.11000000000007,30.005000000000052]},"properties":{"OBJECTID":163,"route_id":"R17","seq":3,"节点名称":"巴塘","经度_lon":99.109999999999999,"纬度_lat":30.004999999999999,"节点角色":"途经点","路线名称":"康藏—印藏驮运联运线","展示朝代":"抗战时期","定位精度":"城市/港口中心点","数字化备注":"在ArcGIS Pro中沿古道、河谷或航海走廊补充折点"}},{"type":"Feature","id":164,"geometry":{"type":"Point","coordinates":[98.593000000000075,29.67900000000003]},"properties":{"OBJECTID":164,"route_id":"R17","seq":4,"节点名称":"芒康","经度_lon":98.593000000000004,"纬度_lat":29.678999999999998,"节点角色":"途经点","路线名称":"康藏—印藏驮运联运线","展示朝代":"抗战时期","定位精度":"城市/港口中心点","数字化备注":"在ArcGIS Pro中沿古道、河谷或航海走廊补充折点"}},{"type":"Feature","id":165,"geometry":{"type":"Point","coordinates":[97.172000000000082,31.140000000000043]},"properties":{"OBJECTID":165,"route_id":"R17","seq":5,"节点名称":"昌都","经度_lon":97.171999999999997,"纬度_lat":31.140000000000001,"节点角色":"途经点","路线名称":"康藏—印藏驮运联运线","展示朝代":"抗战时期","定位精度":"城市/港口中心点","数字化备注":"在ArcGIS Pro中沿古道、河谷或航海走廊补充折点"}},{"type":"Feature","id":166,"geometry":{"type":"Point","coordinates":[91.132200000000068,29.660400000000038]},"properties":{"OBJECTID":166,"route_id":"R17","seq":6,"节点名称":"拉萨","经度_lon":91.132199999999997,"纬度_lat":29.660399999999999,"节点角色":"途经点","路线名称":"康藏—印藏驮运联运线","展示朝代":"抗战时期","定位精度":"城市/港口中心点","数字化备注":"在ArcGIS Pro中沿古道、河谷或航海走廊补充折点"}},{"type":"Feature","id":167,"geometry":{"type":"Point","coordinates":[89.606000000000051,28.91700000000003]},"properties":{"OBJECTID":167,"route_id":"R17","seq":7,"节点名称":"江孜","经度_lon":89.605999999999995,"纬度_lat":28.917000000000002,"节点角色":"途经点","路线名称":"康藏—印藏驮运联运线","展示朝代":"抗战时期","定位精度":"城市/港口中心点","数字化备注":"在ArcGIS Pro中沿古道、河谷或航海走廊补充折点"}},{"type":"Feature","id":168,"geometry":{"type":"Point","coordinates":[88.907000000000039,27.486000000000047]},"properties":{"OBJECTID":168,"route_id":"R17","seq":8,"节点名称":"亚东","经度_lon":88.906999999999996,"纬度_lat":27.486000000000001,"节点角色":"途经点","路线名称":"康藏—印藏驮运联运线","展示朝代":"抗战时期","定位精度":"城市/港口中心点","数字化备注":"在ArcGIS Pro中沿古道、河谷或航海走廊补充折点"}},{"type":"Feature","id":169,"geometry":{"type":"Point","coordinates":[88.760000000000048,27.36000000000007]},"properties":{"OBJECTID":169,"route_id":"R17","seq":9,"节点名称":"杰里普山口","经度_lon":88.760000000000005,"纬度_lat":27.359999999999999,"节点角色":"途经点","路线名称":"康藏—印藏驮运联运线","展示朝代":"抗战时期","定位精度":"城市/港口中心点","数字化备注":"在ArcGIS Pro中沿古道、河谷或航海走廊补充折点"}},{"type":"Feature","id":170,"geometry":{"type":"Point","coordinates":[88.474000000000046,27.059000000000026]},"properties":{"OBJECTID":170,"route_id":"R17","seq":10,"节点名称":"噶伦堡","经度_lon":88.474000000000004,"纬度_lat":27.059000000000001,"节点角色":"终点","路线名称":"康藏—印藏驮运联运线","展示朝代":"抗战时期","定位精度":"城市/港口中心点","数字化备注":"在ArcGIS Pro中沿古道、河谷或航海走廊补充折点"}},{"type":"Feature","id":171,"geometry":{"type":"Point","coordinates":[100.23300000000006,26.872000000000071]},"properties":{"OBJECTID":171,"route_id":"R18","seq":1,"节点名称":"丽江","经度_lon":100.233,"纬度_lat":26.872,"节点角色":"起点","路线名称":"丽江—拉萨—噶伦堡抗战马帮线","展示朝代":"抗战时期","定位精度":"城市/港口中心点","数字化备注":"在ArcGIS Pro中沿古道、河谷或航海走廊补充折点"}},{"type":"Feature","id":172,"geometry":{"type":"Point","coordinates":[99.70700000000005,27.829000000000065]},"properties":{"OBJECTID":172,"route_id":"R18","seq":2,"节点名称":"香格里拉（中甸）","经度_lon":99.706999999999994,"纬度_lat":27.829000000000001,"节点角色":"途经点","路线名称":"丽江—拉萨—噶伦堡抗战马帮线","展示朝代":"抗战时期","定位精度":"城市/港口中心点","数字化备注":"在ArcGIS Pro中沿古道、河谷或航海走廊补充折点"}},{"type":"Feature","id":173,"geometry":{"type":"Point","coordinates":[98.911000000000058,28.486000000000047]},"properties":{"OBJECTID":173,"route_id":"R18","seq":3,"节点名称":"德钦","经度_lon":98.911000000000001,"纬度_lat":28.486000000000001,"节点角色":"途经点","路线名称":"丽江—拉萨—噶伦堡抗战马帮线","展示朝代":"抗战时期","定位精度":"城市/港口中心点","数字化备注":"在ArcGIS Pro中沿古道、河谷或航海走廊补充折点"}},{"type":"Feature","id":174,"geometry":{"type":"Point","coordinates":[98.593000000000075,29.67900000000003]},"properties":{"OBJECTID":174,"route_id":"R18","seq":4,"节点名称":"芒康","经度_lon":98.593000000000004,"纬度_lat":29.678999999999998,"节点角色":"途经点","路线名称":"丽江—拉萨—噶伦堡抗战马帮线","展示朝代":"抗战时期","定位精度":"城市/港口中心点","数字化备注":"在ArcGIS Pro中沿古道、河谷或航海走廊补充折点"}},{"type":"Feature","id":175,"geometry":{"type":"Point","coordinates":[97.172000000000082,31.140000000000043]},"properties":{"OBJECTID":175,"route_id":"R18","seq":5,"节点名称":"昌都","经度_lon":97.171999999999997,"纬度_lat":31.140000000000001,"节点角色":"途经点","路线名称":"丽江—拉萨—噶伦堡抗战马帮线","展示朝代":"抗战时期","定位精度":"城市/港口中心点","数字化备注":"在ArcGIS Pro中沿古道、河谷或航海走廊补充折点"}},{"type":"Feature","id":176,"geometry":{"type":"Point","coordinates":[91.132200000000068,29.660400000000038]},"properties":{"OBJECTID":176,"route_id":"R18","seq":6,"节点名称":"拉萨","经度_lon":91.132199999999997,"纬度_lat":29.660399999999999,"节点角色":"途经点","路线名称":"丽江—拉萨—噶伦堡抗战马帮线","展示朝代":"抗战时期","定位精度":"城市/港口中心点","数字化备注":"在ArcGIS Pro中沿古道、河谷或航海走廊补充折点"}},{"type":"Feature","id":177,"geometry":{"type":"Point","coordinates":[89.606000000000051,28.91700000000003]},"properties":{"OBJECTID":177,"route_id":"R18","seq":7,"节点名称":"江孜","经度_lon":89.605999999999995,"纬度_lat":28.917000000000002,"节点角色":"途经点","路线名称":"丽江—拉萨—噶伦堡抗战马帮线","展示朝代":"抗战时期","定位精度":"城市/港口中心点","数字化备注":"在ArcGIS Pro中沿古道、河谷或航海走廊补充折点"}},{"type":"Feature","id":178,"geometry":{"type":"Point","coordinates":[88.907000000000039,27.486000000000047]},"properties":{"OBJECTID":178,"route_id":"R18","seq":8,"节点名称":"亚东","经度_lon":88.906999999999996,"纬度_lat":27.486000000000001,"节点角色":"途经点","路线名称":"丽江—拉萨—噶伦堡抗战马帮线","展示朝代":"抗战时期","定位精度":"城市/港口中心点","数字化备注":"在ArcGIS Pro中沿古道、河谷或航海走廊补充折点"}},{"type":"Feature","id":179,"geometry":{"type":"Point","coordinates":[88.760000000000048,27.36000000000007]},"properties":{"OBJECTID":179,"route_id":"R18","seq":9,"节点名称":"杰里普山口","经度_lon":88.760000000000005,"纬度_lat":27.359999999999999,"节点角色":"途经点","路线名称":"丽江—拉萨—噶伦堡抗战马帮线","展示朝代":"抗战时期","定位精度":"城市/港口中心点","数字化备注":"在ArcGIS Pro中沿古道、河谷或航海走廊补充折点"}},{"type":"Feature","id":180,"geometry":{"type":"Point","coordinates":[88.474000000000046,27.059000000000026]},"properties":{"OBJECTID":180,"route_id":"R18","seq":10,"节点名称":"噶伦堡","经度_lon":88.474000000000004,"纬度_lat":27.059000000000001,"节点角色":"终点","路线名称":"丽江—拉萨—噶伦堡抗战马帮线","展示朝代":"抗战时期","定位精度":"城市/港口中心点","数字化备注":"在ArcGIS Pro中沿古道、河谷或航海走廊补充折点"}}]}