{
  "type": "FeatureCollection",
  "features": [
    {
      "type": "Feature",
      "properties": { "name": "nine-dash-line" },
      "geometry": {
        "type": "MultiLineString",
        "coordinates": [
          [[109.75, 21.5], [108.5, 19.0], [107.0, 17.0], [106.5, 15.5]],
          [[106.5, 15.5], [107.0, 14.5], [108.0, 13.5], [109.0, 12.5]],
          [[109.0, 12.5], [110.0, 12.0], [111.0, 11.5], [112.0, 11.0]],
          [[112.0, 11.0], [113.0, 11.5], [114.0, 12.0], [115.0, 12.5]],
          [[115.0, 12.5], [116.0, 13.5], [117.0, 15.0], [118.0, 16.5]],
          [[118.0, 16.5], [119.0, 17.5], [120.0, 19.0], [120.5, 20.5]]
        ]
      }
    },
    {
      "type": "Feature",
      "properties": { "name": "paracel-islands" },
      "geometry": {
        "type": "Polygon",
        "coordinates": [[
          [111.0, 16.5], [112.5, 16.5], [112.5, 15.5], [111.0, 15.5], [111.0, 16.5]
        ]]
      }
    },
    {
      "type": "Feature",
      "properties": { "name": "spratly-islands" },
      "geometry": {
        "type": "Polygon",
        "coordinates": [[
          [113.5, 12.0], [115.5, 12.0], [115.5, 10.0], [113.5, 10.0], [113.5, 12.0]
        ]]
      }
    }
  ]
}
