{"type":"FeatureCollection","features":[{"type":"Feature","id":5,"geometry":{"type":"Polygon","coordinates":[[[120.33333333314602,33.750000000078956],[120.30483080969009,33.846955626635292],[120.23106770814638,33.780063529951633],[120.33333333314602,33.750000000078956]]]},"properties":{"OBJECTID":5,"Id":5,"gridcode":1,"Shape_Length":0.30722820912564636,"Shape_Area":0.004529170640825364}},{"type":"Feature","id":6,"geometry":{"type":"Polygon","coordinates":[[[120.66666666647814,33.416666666747005],[120.66666666647814,33.250000000081002],[120.74999999981105,33.250000000081002],[120.74999999981105,33.416666666747005],[120.66666666647814,33.416666666747005]]]},"properties":{"OBJECTID":6,"Id":6,"gridcode":1,"Shape_Length":0.49999999999783995,"Shape_Area":0.013888888888764149}},{"type":"Feature","id":7,"geometry":{"type":"Polygon","coordinates":[[[120.16666666647995,32.666666666750018],[120.13816414302426,32.763622293306298],[120.06440104148044,32.696730196622468],[120.16666666647995,32.666666666750018]]]},"properties":{"OBJECTID":7,"Id":7,"gridcode":1,"Shape_Length":0.30722820912555326,"Shape_Area":0.0045291706408236041}},{"type":"Feature","id":8,"geometry":{"type":"Polygon","coordinates":[[[119.91666666648098,32.416666666751098],[119.88816414302505,32.513622293307208],[119.81440104148157,32.446730196623605],[119.91666666648098,32.416666666751098]]]},"properties":{"OBJECTID":8,"Id":8,"gridcode":1,"Shape_Length":0.30722820912495535,"Shape_Area":0.0045291706408051458}},{"type":"Feature","id":10,"geometry":{"type":"Polygon","coordinates":[[[120.49999999981196,31.916666666752974],[120.47149747635626,32.013622293309311],[120.39773437481244,31.946730196625481],[120.49999999981196,31.916666666752974]]]},"properties":{"OBJECTID":10,"Id":10,"gridcode":1,"Shape_Length":0.30722820912562387,"Shape_Area":0.0045291706408257006}},{"type":"Feature","id":11,"geometry":{"type":"Polygon","coordinates":[[[120.58333333314522,31.916666666752974],[120.66666666647814,31.916666666752974],[120.66666666647814,32.000000000086061],[120.58333333314522,32.000000000086061],[120.58333333314522,31.916666666752974]]]},"properties":{"OBJECTID":11,"Id":11,"gridcode":1,"Shape_Length":0.33333333333200699,"Shape_Area":0.0069444444443891801}},{"type":"Feature","id":12,"geometry":{"type":"Polygon","coordinates":[[[120.49999999981196,31.916666666752974],[120.54166666647859,31.809935300086863],[120.58333333314522,31.916666666752974],[120.49999999981196,31.916666666752974]]]},"properties":{"OBJECTID":12,"Id":12,"gridcode":1,"Shape_Length":0.31248564723406652,"Shape_Area":0.0044471402777505687}},{"type":"Feature","id":14,"geometry":{"type":"Polygon","coordinates":[[[120.16666666647995,31.833333333420114],[120.3560444430683,31.86671199317891],[120.21301503448899,31.941640625086336],[120.16666666647995,31.833333333420114]]]},"properties":{"OBJECTID":14,"Id":14,"gridcode":1,"Shape_Length":0.47157185918010996,"Shape_Area":0.0094819738389526707}},{"type":"Feature","id":15,"geometry":{"type":"Polygon","coordinates":[[[120.16666666647995,31.666666666754111],[120.19516918993588,31.569711040197831],[120.26893229147959,31.636603136881604],[120.16666666647995,31.666666666754111]]]},"properties":{"OBJECTID":15,"Id":15,"gridcode":1,"Shape_Length":0.3072282091256201,"Shape_Area":0.0045291706408248878}},{"type":"Feature","id":18,"geometry":{"type":"Polygon","coordinates":[[[110.33333333318598,31.500000000088107],[110.41666666651906,31.500000000088107],[110.41666666651906,31.41666666675502],[110.61434895818491,31.533859105467855],[110.39253587201478,31.599863896399597],[110.33333333318598,31.500000000088107]]]},"properties":{"OBJECTID":18,"Id":18,"gridcode":1,"Shape_Length":0.74399503726769933,"Shape_Area":0.02267694332812872}},{"type":"Feature","id":21,"geometry":{"type":"Polygon","coordinates":[[[110.41666666651906,31.33333333342199],[110.44516918997499,31.236377706865824],[110.51893229151864,31.303269803549483],[110.41666666651906,31.33333333342199]]]},"properties":{"OBJECTID":21,"Id":21,"gridcode":1,"Shape_Length":0.30722820912533805,"Shape_Area":0.0045291706408163192}},{"type":"Feature","id":22,"geometry":{"type":"Polygon","coordinates":[[[110.08333333318711,31.250000000089074],[110.24999999985306,31.250000000089074],[110.24999999985306,31.33333333342199],[110.14773437485337,31.36339686329444],[110.22149747639719,31.43028895997827],[110.24999999985306,31.33333333342199],[110.41666666651906,31.33333333342199],[110.41666666651906,31.41666666675502],[110.33333333318598,31.41666666675502],[110.33333333318598,31.500000000088107],[109.62960937485553,31.587922201730009],[109.71315553396744,31.436646335580747],[110.04627604152057,31.296276041755618],[110.08333333318711,31.250000000089074]]]},"properties":{"OBJECTID":22,"Id":22,"gridcode":1,"Shape_Length":2.2766754078010707,"Shape_Area":0.14077241295289947}},{"type":"Feature","id":23,"geometry":{"type":"Polygon","coordinates":[[[120.66666666647814,32.000000000086061],[120.79929687481092,31.965963541752899],[121.0679540453458,31.791017541125882],[120.85937935263246,31.712973703915338],[120.9709322323522,31.541666666754566],[120.81904365828279,31.308417810536753],[121.00229671523095,31.215963541755855],[121.13953388353832,31.414731682234901],[121.52713278274564,31.25193498460925],[121.58333333314113,31.33333333342199],[121.49999999980821,31.33333333342199],[121.49999999980821,31.41666666675502],[121.33398437480867,31.500651041754736],[121.24999999980901,31.666666666754111],[121.14773437480937,31.696730196626618],[121.22149747635308,31.76362229331022],[121.24999999980901,31.666666666754111],[121.38867187480844,31.638671875087425],[121.49999999980821,31.583333333421024],[121.49999999980821,31.750000000087027],[121.74999999980696,31.750000000087027],[121.74999999980696,32.000000000086061],[121.71596354147391,32.049296875085759],[121.3598762091965,32.182536538208296],[121.41666215029375,32.43584447341027],[120.99061460309076,32.545179667636376],[120.88263020814384,32.965963541748749],[120.83333333314397,33.000000000081968],[120.4497597157723,33.286302083414171],[120.31607389121473,33.165163452902107],[120.2689046535636,32.845969679670304],[120.38958940928387,32.432059725666079],[120.36316884660744,32.253272034545034],[120.6303645831448,32.047031250085809],[120.66666666647814,32.000000000086061]]]},"properties":{"OBJECTID":23,"Id":23,"gridcode":1,"Shape_Length":7.5319633006675044,"Shape_Area":1.3381117576421027}},{"type":"Feature","id":24,"geometry":{"type":"Polygon","coordinates":[[[120.83333333314397,31.08333333342307],[120.80483080968816,31.18028895997918],[120.73106770814434,31.113396863295577],[120.83333333314397,31.08333333342307]]]},"properties":{"OBJECTID":24,"Id":24,"gridcode":1,"Shape_Length":0.30722820912539406,"Shape_Area":0.004529170640817877}},{"type":"Feature","id":25,"geometry":{"type":"Polygon","coordinates":[[[110.9999999998501,31.000000000089983],[110.9547206391606,31.105809225642815],[110.8083593748508,31.03377749675866],[110.9999999998501,31.000000000089983]]]},"properties":{"OBJECTID":25,"Id":25,"gridcode":1,"Shape_Length":0.47281132872255238,"Shape_Area":0.0093739613303940091}},{"type":"Feature","id":31,"geometry":{"type":"Polygon","coordinates":[[[122.24999999980503,30.250000000092996],[122.20472063911552,30.355809225645828],[122.05835937480572,30.283777496761616],[122.24999999980503,30.250000000092996]]]},"properties":{"OBJECTID":31,"Id":31,"gridcode":1,"Shape_Length":0.47281132872256759,"Shape_Area":0.0093739613303952963}},{"type":"Feature","id":32,"geometry":{"type":"Polygon","coordinates":[[[122.74999999980298,30.166666666760079],[122.72149747634728,30.263622293316189],[122.64773437480346,30.196730196632586],[122.74999999980298,30.166666666760079]]]},"properties":{"OBJECTID":32,"Id":32,"gridcode":1,"Shape_Length":0.30722820912525295,"Shape_Area":0.0045291706408140744}},{"type":"Feature","id":33,"geometry":{"type":"Polygon","coordinates":[[[121.83333333313999,30.000000000094133],[121.93028895969633,30.028502523549832],[121.86339686301267,30.102265625093651],[121.83333333313999,30.000000000094133]]]},"properties":{"OBJECTID":33,"Id":33,"gridcode":1,"Shape_Length":0.30722820912555737,"Shape_Area":0.0045291706408232702}},{"type":"Feature","id":34,"geometry":{"type":"Polygon","coordinates":[[[117.66666666648996,29.833333333428129],[117.56971103993396,29.804830809972202],[117.63660313661762,29.731067708428384],[117.66666666648996,29.833333333428129]]]},"properties":{"OBJECTID":34,"Id":34,"gridcode":1,"Shape_Length":0.30722820912541621,"Shape_Area":0.0045291706408182968}},{"type":"Feature","id":35,"geometry":{"type":"Polygon","coordinates":[[[117.66666666648996,29.833333333428129],[117.85604444307819,29.866711993186982],[117.71301503449888,29.941640625094351],[117.66666666648996,29.833333333428129]]]},"properties":{"OBJECTID":35,"Id":35,"gridcode":1,"Shape_Length":0.47157185917993671,"Shape_Area":0.0094819738389470953}},{"type":"Feature","id":38,"geometry":{"type":"Polygon","coordinates":[[[122.166666666472,29.666666666762126],[122.13816414301618,29.763622293318235],[122.06440104147237,29.696730196634633],[122.166666666472,29.666666666762126]]]},"properties":{"OBJECTID":38,"Id":38,"gridcode":1,"Shape_Length":0.30722820912539406,"Shape_Area":0.004529170640817877}},{"type":"Feature","id":39,"geometry":{"type":"Polygon","coordinates":[[[95.41666666657909,29.500000000096009],[95.388164143123163,29.596955626652289],[95.314401041579515,29.530063529968459],[95.41666666657909,29.500000000096009]]]},"properties":{"OBJECTID":39,"Id":39,"gridcode":1,"Shape_Length":0.3072282091255456,"Shape_Area":0.0045291706408229424}},{"type":"Feature","id":41,"geometry":{"type":"Polygon","coordinates":[[[95.333333333246003,29.333333333430005],[95.430288959802283,29.361835856885932],[95.36339686311851,29.43559895842958],[95.333333333246003,29.333333333430005]]]},"properties":{"OBJECTID":41,"Id":41,"gridcode":1,"Shape_Length":0.30722820912552351,"Shape_Area":0.0045291706408221322}},{"type":"Feature","id":42,"geometry":{"type":"Polygon","coordinates":[[[103.16666666654805,29.250000000097089],[103.13816414309213,29.346955626653198],[103.06440104154848,29.280063529969595],[103.16666666654805,29.250000000097089]]]},"properties":{"OBJECTID":42,"Id":42,"gridcode":1,"Shape_Length":0.30722820912524529,"Shape_Area":0.0045291706408134126}},{"type":"Feature","id":45,"geometry":{"type":"Polygon","coordinates":[[[95.166666666579999,28.833333333432051],[95.195169190035926,28.736377706875771],[95.268932291579574,28.803269803559544],[95.166666666579999,28.833333333432051]]]},"properties":{"OBJECTID":45,"Id":45,"gridcode":1,"Shape_Length":0.30722820912552351,"Shape_Area":0.0045291706408221322}},{"type":"Feature","id":46,"geometry":{"type":"Polygon","coordinates":[[[95.583333333245037,28.750000000099135],[95.554830809789109,28.846955626655244],[95.481067708245519,28.780063529971642],[95.583333333245037,28.750000000099135]]]},"properties":{"OBJECTID":46,"Id":46,"gridcode":1,"Shape_Length":0.30722820912514864,"Shape_Area":0.004529170640810657}},{"type":"Feature","id":47,"geometry":{"type":"Polygon","coordinates":[[[105.49999999987199,28.833333333432051],[105.45472063918248,28.939142558984884],[105.30835937487285,28.867110830100671],[105.49999999987199,28.833333333432051]]]},"properties":{"OBJECTID":47,"Id":47,"gridcode":1,"Shape_Length":0.47281132872224674,"Shape_Area":0.009373961330386274}},{"type":"Feature","id":52,"geometry":{"type":"Polygon","coordinates":[[[94.749999999914962,28.916666666765138],[94.860677083247936,28.860677083431938],[94.916666666581136,28.750000000099135],[94.999999999914053,28.750000000099135],[94.999999999914053,28.833333333432051],[95.166666666579999,28.833333333432051],[95.051335843104823,29.107921828626274],[95.299296874912784,29.20070312509722],[95.333333333246003,29.333333333430005],[94.999957356391349,29.240499511669157],[94.749999999914962,28.916666666765138]]]},"properties":{"OBJECTID":52,"Id":52,"gridcode":1,"Shape_Length":2.0360443257854692,"Shape_Area":0.13638567998296541}},{"type":"Feature","id":53,"geometry":{"type":"Polygon","coordinates":[[[95.083333333246912,28.666666666766048],[95.083333333246912,28.750000000099135],[94.999999999914053,28.750000000099135],[94.999999999914053,28.666666666766048],[95.083333333246912,28.666666666766048]]]},"properties":{"OBJECTID":53,"Id":53,"gridcode":1,"Shape_Length":0.3333333333318933,"Shape_Area":0.0069444444443844434}},{"type":"Feature","id":54,"geometry":{"type":"Polygon","coordinates":[[[95.666666666578124,28.666666666766048],[95.666666666578124,28.750000000099135],[95.583333333245037,28.750000000099135],[95.583333333245037,28.666666666766048],[95.666666666578124,28.666666666766048]]]},"properties":{"OBJECTID":54,"Id":54,"gridcode":1,"Shape_Length":0.33333333333234805,"Shape_Area":0.006944444444403391}},{"type":"Feature","id":56,"geometry":{"type":"Polygon","coordinates":[[[96.833333333240034,28.666666666766048],[96.804830809784107,28.763622293322214],[96.73106770824046,28.696730196638555],[96.833333333240034,28.666666666766048]]]},"properties":{"OBJECTID":56,"Id":56,"gridcode":1,"Shape_Length":0.30722820912533805,"Shape_Area":0.0045291706408163192}},{"type":"Feature","id":59,"geometry":{"type":"Polygon","coordinates":[[[95.49999999991195,28.583333333433018],[95.47149747645625,28.680288959989298],[95.397734374912432,28.613396863305468],[95.49999999991195,28.583333333433018]]]},"properties":{"OBJECTID":59,"Id":59,"gridcode":1,"Shape_Length":0.30722820912555326,"Shape_Area":0.0045291706408236041}},{"type":"Feature","id":60,"geometry":{"type":"Polygon","coordinates":[[[96.916666666573065,28.583333333433018],[96.916666666573065,28.666666666766048],[96.833333333240034,28.666666666766048],[96.833333333240034,28.583333333433018],[96.916666666573065,28.583333333433018]]]},"properties":{"OBJECTID":60,"Id":60,"gridcode":1,"Shape_Length":0.33333333333212067,"Shape_Area":0.0069444444443939168}},{"type":"Feature","id":61,"geometry":{"type":"Polygon","coordinates":[[[103.16666666654805,29.250000000097089],[103.20980933011731,29.203437320312332],[103.37636714477946,29.210039027066387],[103.54642510094601,29.120052959786108],[103.53290334247578,28.778905643623943],[103.62341145821279,28.876588541765273],[103.75634494407012,28.999758099100859],[103.87341145821188,28.873411458431917],[104.00634494406916,28.750241901096331],[104.12445667651997,28.877716616886403],[104.29007812487691,28.790078125098887],[104.50714324596618,28.687636168227868],[104.87956982836221,28.88470547480955],[104.87334849456812,29.041666666764513],[104.88374309980333,29.303917444748322],[104.44927494604929,30.052956411574939],[104.03848958321129,30.246822916759697],[103.44038299790827,30.705475087631726],[103.13746567409413,30.378544824567541],[102.95674479154889,30.29325520842616],[102.70361382913921,30.119070766894822],[102.71163634382947,29.916666666761046],[102.70668182791002,29.7916666667615],[102.71030903103042,29.700154115906287],[102.95980933011845,29.710043341536164],[103.04007812488175,29.623411458428961],[103.29664165012719,29.542183055764383],[103.28957441576233,29.363880208429975],[103.16666666654805,29.250000000097089]]]},"properties":{"OBJECTID":61,"Id":61,"gridcode":1,"Shape_Length":7.3027526785739783,"Shape_Area":2.4862373229528214}},{"type":"Feature","id":65,"geometry":{"type":"Polygon","coordinates":[[[95.999999999909903,28.416666666767014],[95.999999999909903,28.500000000100101],[95.916666666577044,28.500000000100101],[95.916666666577044,28.416666666767014],[95.999999999909903,28.416666666767014]]]},"properties":{"OBJECTID":65,"Id":65,"gridcode":1,"Shape_Length":0.3333333333318933,"Shape_Area":0.0069444444443844434}},{"type":"Feature","id":68,"geometry":{"type":"Polygon","coordinates":[[[94.583333333248959,28.583333333433018],[94.787902019335547,28.448148654798274],[94.874999999914507,28.467674062839251],[94.965442774974292,28.447398827114398],[94.999999999914053,28.666666666766048],[94.916666666581136,28.666666666766048],[94.916666666581136,28.750000000099135],[94.749999999914962,28.750000000099135],[94.749999999914962,28.916666666765138],[94.583333333248959,28.916666666765138],[94.583333333248959,28.583333333433018]]]},"properties":{"OBJECTID":68,"Id":68,"gridcode":1,"Shape_Length":1.6491219873345528,"Shape_Area":0.12731534949926523}},{"type":"Feature","id":69,"geometry":{"type":"Polygon","coordinates":[[[107.33333333319797,28.333333333434098],[107.30483080974221,28.430288959990207],[107.2310677081984,28.363396863306605],[107.33333333319797,28.333333333434098]]]},"properties":{"OBJECTID":69,"Id":69,"gridcode":1,"Shape_Length":0.30722820912532356,"Shape_Area":0.0045291706408159757}},{"type":"Feature","id":71,"geometry":{"type":"Polygon","coordinates":[[[94.583333333248959,28.583333333433018],[94.299296874916706,28.653098613778639],[94.367369791583315,28.534036458433263],[94.46596354158288,28.465963541766882],[94.499999999916099,28.333333333434098],[94.583333333248959,28.333333333434098],[94.583333333248959,28.583333333433018]]]},"properties":{"OBJECTID":71,"Id":71,"gridcode":1,"Shape_Length":1.0196995577281673,"Shape_Area":0.044512732016088893}},{"type":"Feature","id":73,"geometry":{"type":"Polygon","coordinates":[[[95.083333333246912,28.666666666766048],[95.111328124913598,28.611328125099476],[95.222005208246401,28.555338541766503],[95.312614657773679,28.37622683921262],[95.267969557998526,28.284810682530065],[95.360347732755713,28.222005208434496],[95.444661458245605,28.388671875100499],[95.722005208244525,28.444661458433529],[95.783489096484061,28.566199377046871],[95.916666666577044,28.500000000100101],[95.955989583243536,28.544010416766469],[96.287771767503898,28.69628734632073],[95.999999999909903,28.750000000099135],[95.969936470037624,28.647734375099446],[95.903044373353794,28.721497476643037],[95.999999999909903,28.750000000099135],[95.96703993046566,28.903222141108074],[95.721071774811037,29.004605308531495],[95.824666283090266,28.753272165318663],[95.666666666578124,28.666666666766048],[95.666666666578124,28.583333333433018],[95.49999999991195,28.583333333433018],[95.41666666657909,28.467065868363647],[95.298541666579581,28.631875000099512],[95.083333333246912,28.666666666766048]]]},"properties":{"OBJECTID":73,"Id":73,"gridcode":1,"Shape_Length":4.0675256063400731,"Shape_Area":0.22922807746858845}},{"type":"Feature","id":74,"geometry":{"type":"Polygon","coordinates":[[[95.999999999909903,28.250000000101011],[96.041666666576532,28.1432686334349],[96.08333333324299,28.250000000101011],[95.999999999909903,28.250000000101011]]]},"properties":{"OBJECTID":74,"Id":74,"gridcode":1,"Shape_Length":0.31248564723383399,"Shape_Area":0.0044471402777414683}},{"type":"Feature","id":75,"geometry":{"type":"Polygon","coordinates":[[[96.08333333324299,28.250000000101011],[96.249999999908994,28.250000000101011],[96.215394818261302,28.469572128183756],[95.999999999909903,28.416666666767014],[96.08333333324299,28.250000000101011]]]},"properties":{"OBJECTID":75,"Id":75,"gridcode":1,"Shape_Length":0.7970850177853761,"Shape_Area":0.038451639761725553}},{"type":"Feature","id":76,"geometry":{"type":"Polygon","coordinates":[[[94.499999999916099,28.333333333434098],[94.416666666583012,28.333333333434098],[94.416666666583012,28.166666666767924],[94.499999999916099,28.166666666767924],[94.499999999916099,28.333333333434098]]]},"properties":{"OBJECTID":76,"Id":76,"gridcode":1,"Shape_Length":0.49999999999852207,"Shape_Area":0.013888888888806782}},{"type":"Feature","id":77,"geometry":{"type":"Polygon","coordinates":[[[96.999999999905981,28.083333333435064],[96.999999999905981,28.166666666767924],[96.89326863323987,28.125000000101522],[96.999999999905981,28.083333333435064]]]},"properties":{"OBJECTID":77,"Id":77,"gridcode":1,"Shape_Length":0.3124856472335239,"Shape_Area":0.0044471402777293339}},{"type":"Feature","id":78,"geometry":{"type":"Polygon","coordinates":[[[96.916666666573065,28.583333333433018],[96.999269711930992,28.4171554421834],[96.937925522033424,28.291545910488196],[96.999999999905981,28.166666666767924],[97.083333333239068,28.166666666767924],[97.083333333239068,28.583333333433018],[96.916666666573065,28.583333333433018]]]},"properties":{"OBJECTID":78,"Id":78,"gridcode":1,"Shape_Length":1.1314873697628478,"Shape_Area":0.049527325420561957}},{"type":"Feature","id":81,"geometry":{"type":"Polygon","coordinates":[[[85.999999999950091,27.916666666769061],[85.999999999950091,28.000000000101977],[85.916666666617004,28.000000000101977],[85.916666666617004,27.916666666769061],[85.999999999950091,27.916666666769061]]]},"properties":{"OBJECTID":81,"Id":81,"gridcode":1,"Shape_Length":0.33333333333200699,"Shape_Area":0.0069444444443891801}},{"type":"Feature","id":84,"geometry":{"type":"Polygon","coordinates":[[[96.666666666574031,28.000000000101977],[96.749999999907118,28.000000000101977],[96.833333333240034,28.000000000101977],[96.607335513706346,28.446025432600038],[96.387161458241849,28.279505208434273],[96.249999999908994,28.250000000101011],[96.33391973602744,28.084112149634507],[96.499999999908027,28.166666666767924],[96.588373458510091,28.281159110265435],[96.666666666574031,28.000000000101977]]]},"properties":{"OBJECTID":84,"Id":84,"gridcode":1,"Shape_Length":1.8908949468648131,"Shape_Area":0.1009473642364223}},{"type":"Feature","id":85,"geometry":{"type":"Polygon","coordinates":[[[96.916666666573065,27.916666666769061],[96.916666666573065,28.000000000101977],[96.833333333240034,28.000000000101977],[96.833333333240034,27.916666666769061],[96.916666666573065,27.916666666769061]]]},"properties":{"OBJECTID":85,"Id":85,"gridcode":1,"Shape_Length":0.3333333333318933,"Shape_Area":0.0069444444443844434}},{"type":"Feature","id":86,"geometry":{"type":"Polygon","coordinates":[[[119.08333333315102,28.000000000101977],[118.98637770659491,27.971497476646221],[119.05326980327857,27.897734375102402],[119.08333333315102,28.000000000101977]]]},"properties":{"OBJECTID":86,"Id":86,"gridcode":1,"Shape_Length":0.30722820912534565,"Shape_Area":0.0045291706408167858}},{"type":"Feature","id":87,"geometry":{"type":"Polygon","coordinates":[[[93.249999999920931,27.916666666769061],[93.204720639231425,28.022475892321893],[93.058359374921793,27.95044416343768],[93.249999999920931,27.916666666769061]]]},"properties":{"OBJECTID":87,"Id":87,"gridcode":1,"Shape_Length":0.47281132872224674,"Shape_Area":0.009373961330386274}},{"type":"Feature","id":88,"geometry":{"type":"Polygon","coordinates":[[[119.58333333314897,27.916666666769061],[119.48637770659286,27.888164143313134],[119.55326980327652,27.814401041769486],[119.58333333314897,27.916666666769061]]]},"properties":{"OBJECTID":88,"Id":88,"gridcode":1,"Shape_Length":0.30722820912526744,"Shape_Area":0.0045291706408142228}},{"type":"Feature","id":89,"geometry":{"type":"Polygon","coordinates":[[[87.333333333278119,27.833333333436144],[87.499999999944123,27.833333333436144],[87.379422718752664,28.029024330779293],[87.333333333278119,27.833333333436144]]]},"properties":{"OBJECTID":89,"Id":89,"gridcode":1,"Shape_Length":0.59756807449944604,"Shape_Area":0.01630758311186422}},{"type":"Feature","id":90,"geometry":{"type":"Polygon","coordinates":[[[96.999999999905981,27.833333333436144],[97.166080263786625,27.750778816302329],[97.249999999905071,27.916666666769061],[97.083333333239068,27.916666666769061],[97.083333333239068,28.083333333435064],[96.999999999905981,28.083333333435064],[96.999999999905981,27.833333333436144]]]},"properties":{"OBJECTID":90,"Id":90,"gridcode":1,"Shape_Length":1.0380400814345663,"Shape_Area":0.041544881192050798}},{"type":"Feature","id":93,"geometry":{"type":"Polygon","coordinates":[[[98.249999999900922,27.750000000103057],[98.249999999900922,27.666666666770027],[98.333333333234009,27.666666666770027],[98.416666666567096,27.666666666770027],[98.416666666567096,27.750000000103057],[98.249999999900922,27.750000000103057]]]},"properties":{"OBJECTID":93,"Id":93,"gridcode":1,"Shape_Length":0.49999999999840838,"Shape_Area":0.013888888888797309}},{"type":"Feature","id":99,"geometry":{"type":"Polygon","coordinates":[[[118.74999999981924,27.33333333343802],[118.84695562637535,27.361835856893947],[118.78006352969157,27.435598958437595],[118.74999999981924,27.33333333343802]]]},"properties":{"OBJECTID":99,"Id":99,"gridcode":1,"Shape_Length":0.30722820912531174,"Shape_Area":0.004529170640815843}},{"type":"Feature","id":100,"geometry":{"type":"Polygon","coordinates":[[[119.83333333314806,27.33333333343802],[119.93028895970417,27.361835856893947],[119.86339686302051,27.435598958437595],[119.83333333314806,27.33333333343802]]]},"properties":{"OBJECTID":100,"Id":100,"gridcode":1,"Shape_Length":0.30722820912526744,"Shape_Area":0.0045291706408142228}},{"type":"Feature","id":101,"geometry":{"type":"Polygon","coordinates":[[[119.74999999981515,27.250000000104933],[119.83333333314806,27.250000000104933],[119.83333333314806,27.33333333343802],[119.74999999981515,27.33333333343802],[119.74999999981515,27.250000000104933]]]},"properties":{"OBJECTID":101,"Id":101,"gridcode":1,"Shape_Length":0.33333333333200699,"Shape_Area":0.0069444444443891801}},{"type":"Feature","id":102,"geometry":{"type":"Polygon","coordinates":[[[116.74999999982697,27.166666666772073],[116.84695562638319,27.195169190228],[116.78006352969976,27.268932291771591],[116.74999999982697,27.166666666772073]]]},"properties":{"OBJECTID":102,"Id":102,"gridcode":1,"Shape_Length":0.30722820912522331,"Shape_Area":0.0045291706408124195}},{"type":"Feature","id":105,"geometry":{"type":"MultiPolygon","coordinates":[[[[93.666666666585968,28.000000000101977],[93.56440104158645,28.030063529974484],[93.638164143130098,28.096955626658257],[93.666666666585968,28.000000000101977]]],[[[93.666666666585968,27.666666666770027],[93.470494791586759,27.774195807734657],[93.626666149044695,27.85261788114849],[93.666666666585968,27.666666666770027]],[[92.999999999922068,27.500000000104023],[93.089638270224839,27.440396613294979],[93.031168492357949,27.208333333438532],[93.066264889206593,27.069037696256657],[93.730683232805234,27.279141687108392],[93.566038942562727,27.525679807461017],[93.952354426537454,27.428345233251378],[93.999999999917975,27.500000000104023],[93.8977343749184,27.53006352997653],[93.971497476462218,27.596955626660304],[93.999999999917975,27.500000000104023],[94.098205578142824,27.584608761797369],[94.205234374917268,27.718128217945775],[93.999999999918145,27.701637407260591],[93.782489068355517,27.719114652943119],[93.805226488648202,28.002090446669456],[94.173587669704432,27.796568580315693],[94.011440000899654,28.087189271175191],[94.144976473036536,28.28856770843413],[94.333333333250096,28.069941481082992],[94.416666666583012,28.166666666767924],[94.371901041583214,28.20523437510127],[94.236223958250491,28.362715068044565],[93.715361710328352,28.404566929964119],[94.008814458552422,28.273622814230407],[93.876086877019304,28.119565614598116],[93.666666666585968,28.236408633661597],[93.460652063214638,28.121465724477844],[93.280745227527461,28.135921439161621],[93.381059654200897,27.956125773902272],[93.249999999920931,27.916666666769061],[93.301527399173779,27.79398627140074],[93.280880171880199,27.701884134633929],[93.479929223043598,27.627404572689954],[93.357158893600911,27.299296875104858],[93.28403645825432,27.367369791771239],[93.12812940605528,27.784036458436276],[92.69725486642858,27.631408739587698],[92.749999999922977,27.416666666771107],[92.961911771966641,27.311330405813635],[92.999999999922068,27.500000000104023],[92.89326863325573,27.541666666770482],[92.999999999922068,27.58333333343711],[93.030063529794575,27.685598958436628],[93.096955626478348,27.611835856892867],[92.999999999922068,27.58333333343711],[92.999999999922068,27.500000000104023]]]]},"properties":{"OBJECTID":105,"Id":105,"gridcode":1,"Shape_Length":10.968023247650459,"Shape_Area":0.80626316397349451}},{"type":"Feature","id":106,"geometry":{"type":"Polygon","coordinates":[[[118.49999999982003,27.083333333438986],[118.74999999981924,27.083333333438986],[118.74999999981924,27.33333333343802],[118.66666666648598,27.33333333343802],[118.66666666648598,27.166666666772073],[118.49999999982003,27.166666666772073],[118.49999999982003,27.083333333438986]]]},"properties":{"OBJECTID":106,"Id":106,"gridcode":1,"Shape_Length":0.99999999999647571,"Shape_Area":0.03472222222202169}},{"type":"Feature","id":107,"geometry":{"type":"Polygon","coordinates":[[[92.083333333259077,27.00000000010607],[92.499999999924114,27.00000000010607],[92.499999999924114,27.083333333438986],[92.308359374924805,27.117110830107777],[92.454720639234608,27.189142558991762],[92.499999999924114,27.083333333438986],[92.699872081659919,27.221332705245061],[92.749999999922977,27.416666666771107],[92.534036458257333,27.382630208437945],[92.279826567132602,27.217092085321553],[92.083333333259077,27.166666666772073],[92.017133956312307,27.133177570199052],[92.083333333259077,27.00000000010607]]]},"properties":{"OBJECTID":107,"Id":107,"gridcode":1,"Shape_Length":2.365116986089447,"Shape_Area":0.14994490611194031}},{"type":"Feature","id":108,"geometry":{"type":"Polygon","coordinates":[[[117.83333333315625,26.916666666772983],[117.80483080970032,27.013622293329263],[117.73106770815639,26.94673019664549],[117.83333333315625,26.916666666772983]]]},"properties":{"OBJECTID":108,"Id":108,"gridcode":1,"Shape_Length":0.30722820912600668,"Shape_Area":0.0045291706408359103}},{"type":"Feature","id":117,"geometry":{"type":"Polygon","coordinates":[[[119.91666666648098,26.583333333441033],[119.99999999981401,26.583333333441033],[119.99999999981401,26.66666666677412],[119.91666666648098,26.66666666677412],[119.91666666648098,26.583333333441033]]]},"properties":{"OBJECTID":117,"Id":117,"gridcode":1,"Shape_Length":0.33333333333223436,"Shape_Area":0.0069444444443986543}},{"type":"Feature","id":119,"geometry":{"type":"Polygon","coordinates":[[[119.83333333314806,26.500000000108116],[119.91666666648098,26.500000000108116],[119.91666666648098,26.583333333441033],[119.83333333314806,26.583333333441033],[119.83333333314806,26.500000000108116]]]},"properties":{"OBJECTID":119,"Id":119,"gridcode":1,"Shape_Length":0.33333333333166593,"Shape_Area":0.0069444444443749693}},{"type":"Feature","id":125,"geometry":{"type":"Polygon","coordinates":[[[98.666666666566016,26.083333333443079],[98.626514224058212,26.18578668008638],[98.559869791566484,26.041854712756674],[98.666666666566016,26.000000000109992],[98.666666666566016,26.083333333443079]]]},"properties":{"OBJECTID":125,"Id":125,"gridcode":1,"Shape_Length":0.46669187046995708,"Shape_Area":0.010753452385215101}},{"type":"Feature","id":127,"geometry":{"type":"Polygon","coordinates":[[[119.33333333315011,25.250000000113005],[119.33333333315011,25.333333333446092],[119.24999999981696,25.333333333446092],[119.24999999981696,25.250000000113005],[119.33333333315011,25.250000000113005]]]},"properties":{"OBJECTID":127,"Id":127,"gridcode":1,"Shape_Length":0.33333333333246173,"Shape_Area":0.0069444444444081276}},{"type":"Feature","id":128,"geometry":{"type":"Polygon","coordinates":[[[119.49999999981605,25.166666666780088],[119.47149747636013,25.263622293336198],[119.39773437481654,25.196730196652595],[119.49999999981605,25.166666666780088]]]},"properties":{"OBJECTID":128,"Id":128,"gridcode":1,"Shape_Length":0.30722820912514864,"Shape_Area":0.004529170640810657}},{"type":"Feature","id":135,"geometry":{"type":"Polygon","coordinates":[[[120.74999999981105,24.583333333449048],[120.83333333314397,24.583333333449048],[120.83333333314397,24.666666666782135],[120.74999999981105,24.666666666782135],[120.74999999981105,24.583333333449048]]]},"properties":{"OBJECTID":135,"Id":135,"gridcode":1,"Shape_Length":0.33333333333200699,"Shape_Area":0.0069444444443891801}},{"type":"Feature","id":137,"geometry":{"type":"Polygon","coordinates":[[[120.66666666647814,24.500000000115961],[120.74999999981105,24.500000000115961],[120.74999999981105,24.583333333449048],[120.66666666647814,24.583333333449048],[120.66666666647814,24.500000000115961]]]},"properties":{"OBJECTID":137,"Id":137,"gridcode":1,"Shape_Length":0.33333333333200699,"Shape_Area":0.0069444444443891801}},{"type":"Feature","id":141,"geometry":{"type":"Polygon","coordinates":[[[120.58333333314522,24.333333333450014],[120.66666666647814,24.333333333450014],[120.66666666647814,24.416666666783101],[120.58333333314522,24.416666666783101],[120.58333333314522,24.333333333450014]]]},"properties":{"OBJECTID":141,"Id":141,"gridcode":1,"Shape_Length":0.33333333333200699,"Shape_Area":0.0069444444443891801}},{"type":"Feature","id":143,"geometry":{"type":"Polygon","coordinates":[[[106.08333333320297,24.000000000118064],[106.0548308097471,24.096955626674344],[105.98106770820345,24.030063529990514],[106.08333333320297,24.000000000118064]]]},"properties":{"OBJECTID":143,"Id":143,"gridcode":1,"Shape_Length":0.30722820912547505,"Shape_Area":0.0045291706408210411}},{"type":"Feature","id":145,"geometry":{"type":"Polygon","coordinates":[[[114.24999999983697,24.083333333450923],[114.06062222324874,24.049954673692127],[114.20365163182805,23.975026041784872],[114.24999999983697,24.083333333450923]]]},"properties":{"OBJECTID":145,"Id":145,"gridcode":1,"Shape_Length":0.47157185917971733,"Shape_Area":0.0094819738389322651}},{"type":"Feature","id":149,"geometry":{"type":"Polygon","coordinates":[[[101.99999999988597,23.58333333345297],[101.97149747643005,23.680288960009307],[101.89773437488645,23.613396863325647],[101.99999999988597,23.58333333345297]]]},"properties":{"OBJECTID":149,"Id":149,"gridcode":1,"Shape_Length":0.30722820912545312,"Shape_Area":0.0045291706408198528}},{"type":"Feature","id":151,"geometry":{"type":"Polygon","coordinates":[[[114.41666666650303,23.50000000012011],[114.41666666650303,23.58333333345297],[114.33333333317012,23.58333333345297],[114.33333333317012,23.50000000012011],[114.41666666650303,23.50000000012011]]]},"properties":{"OBJECTID":151,"Id":151,"gridcode":1,"Shape_Length":0.33333333333155224,"Shape_Area":0.0069444444443702326}},{"type":"Feature","id":152,"geometry":{"type":"Polygon","coordinates":[[[117.16666666649201,23.416666666787023],[117.13816414303608,23.513622293343303],[117.06440104149237,23.44673019665953],[117.16666666649201,23.416666666787023]]]},"properties":{"OBJECTID":152,"Id":152,"gridcode":1,"Shape_Length":0.3072282091256201,"Shape_Area":0.0045291706408248878}},{"type":"Feature","id":153,"geometry":{"type":"Polygon","coordinates":[[[114.24999999983697,23.333333333454107],[114.34695562639331,23.361835856909863],[114.28006352970954,23.435598958453681],[114.24999999983697,23.333333333454107]]]},"properties":{"OBJECTID":153,"Id":153,"gridcode":1,"Shape_Length":0.30722820912567228,"Shape_Area":0.0045291706408267917}},{"type":"Feature","id":160,"geometry":{"type":"Polygon","coordinates":[[[120.58333333314522,24.333333333450014],[120.51212912327151,24.278372830369449],[120.20296874981318,23.797031250118891],[120.08333333314727,23.083333333455073],[120.34624338542744,23.286266120209518],[120.53880208314524,23.756750284074087],[120.63603112701981,24.105909963870658],[120.58333333314522,24.333333333450014]]]},"properties":{"OBJECTID":160,"Id":160,"gridcode":1,"Shape_Length":2.8220561594007356,"Shape_Area":0.29117236576003758}},{"type":"Feature","id":161,"geometry":{"type":"Polygon","coordinates":[[[114.83333333316807,22.833333333455982],[114.79166666650144,22.940064700122321],[114.74999999983493,22.833333333455982],[114.83333333316807,22.833333333455982]]]},"properties":{"OBJECTID":161,"Id":161,"gridcode":1,"Shape_Length":0.31248564723433508,"Shape_Area":0.0044471402777539757}},{"type":"Feature","id":174,"geometry":{"type":"Polygon","coordinates":[[[99.333333333230087,24.250000000117097],[99.231067708230341,24.280063529989604],[99.30483080977416,24.346955626673207],[99.333333333230087,24.250000000117097]],[[97.583333333237022,24.666666666782135],[97.535146172108682,24.45452926582135],[97.712942708236483,24.379609375116559],[97.787057291569567,24.246473002954133],[97.619444212242627,23.961332688488653],[97.636355842666148,23.825370823557762],[97.997651928429718,24.037750295738192],[98.46750380509917,24.139407467777175],[98.666666666566016,24.114634574959553],[98.934801142905883,24.147986509121154],[98.703723958232558,23.962942708451521],[98.629609374899474,23.846407349232265],[98.882530051593506,23.643871545667025],[98.869817287319506,23.541666666786568],[98.916737032136552,23.164453125121383],[99.619541768915553,23.012394262351677],[99.407447916563001,22.842552083455985],[99.296276041563544,22.453723958457658],[99.17037907055402,22.126193459314663],[99.695237832164707,22.034855068979255],[99.977399720667279,22.069951804232232],[99.953150620648501,21.875000000126533],[99.967529408859946,21.759401041793751],[100.13065218029584,21.628774309236974],[100.11926617207763,21.537235949381511],[100.58686033038782,21.462942708461583],[101.02921590684923,21.722971110503124],[101.22197376449822,21.609662902417767],[101.19796790806453,21.416666666795038],[101.2255490717144,21.194926577112028],[101.45833333322162,21.223881471199718],[101.80020473838334,21.181357761632796],[101.77093581623734,21.416666666795038],[101.79684937913265,21.6250000001275],[101.77919989789382,21.766893852120063],[101.60233392683057,22.067775017299823],[101.65369289737401,22.480677927375098],[101.91666666655311,22.447967908299347],[102.04166666655243,22.463516046036659],[102.16666666655198,22.447967908299347],[102.33634548599582,22.469073425545787],[102.41666666655101,22.750000000123066],[102.37341145821784,22.790078125122818],[102.292209989909,22.877716616910334],[102.12499999988552,22.789237549236191],[101.95970047811852,22.876705693758367],[101.87361467481986,22.873293585895283],[101.29325520822215,23.209921875121154],[101.04007812488982,23.290078125120942],[100.95685733632081,23.379896013238692],[100.70648254246004,23.369972126022674],[100.71336120732246,23.543517457551104],[100.54478978370145,23.536835939135926],[100.29166666655954,23.711014982182974],[100.04131509665217,23.538743095821303],[99.919843749894426,23.669843750119355],[99.783584648432907,23.796094657494109],[99.793517457326175,24.046694540882356],[99.536507667915771,24.036507668137745],[99.543376674670242,24.209809330353323],[99.456744791562869,24.290078125116793],[99.3762712027725,24.544257537144233],[99.123728797021556,24.455742463087915],[99.04325520823113,24.709921875115185],[98.953664222467012,24.965533965142981],[98.961659584372853,25.167253013880554],[98.87547129778676,27.321176139534543],[98.793255208232267,26.206744791775861],[98.749999999899046,26.166666666775996],[98.749999999899046,26.083333333443079],[98.865477675221371,25.380364583445839],[98.746886189038719,25.489113199170788],[98.702968749899128,25.786302083444298],[98.666666666566016,25.833333333444045],[98.527994791566528,25.80533854177753],[98.436887481409201,25.625242696117482],[98.194661458234577,25.55533854177844],[98.082682291568346,25.33398437511272],[97.86132812490257,25.22200520844649],[97.833333333236055,25.166666666780088],[97.833333333236055,25.000000000114085],[97.749999999903025,25.000000000114085],[97.72200520823651,24.861328125114653],[97.666666666570109,24.750000000115051],[97.666666666570109,24.666666666782135],[97.583333333237022,24.666666666782135]]]},"properties":{"OBJECTID":174,"Id":174,"gridcode":1,"Shape_Length":23.495595988134728,"Shape_Area":7.5018577061706093}},{"type":"Feature","id":175,"geometry":{"type":"Polygon","coordinates":[[[109.16666666652395,21.000000000130001],[109.1381641430682,21.096955626686281],[109.06440104152455,21.030063530002508],[109.16666666652395,21.000000000130001]]]},"properties":{"OBJECTID":175,"Id":175,"gridcode":1,"Shape_Length":0.30722820912531179,"Shape_Area":0.0045291706408164285}},{"type":"Feature","id":177,"geometry":{"type":"MultiPolygon","coordinates":[[[[114.24999999983697,31.750000000087027],[114.14773437483746,31.780063529959477],[114.22149747638127,31.846955626643307],[114.24999999983697,31.750000000087027]]],[[[117.83333333315625,30.416666666758999],[117.73106770815639,30.446730196631449],[117.80483080970032,30.513622293315279],[117.83333333315625,30.416666666758999]]],[[[117.58333333315704,30.250000000092996],[117.48106770815741,30.280063529965503],[117.55483080970112,30.346955626649276],[117.58333333315704,30.250000000092996]]],[[[118.83333333315215,29.833333333428129],[118.77382506711001,29.879266070339725],[118.79782400747069,30.041666666760534],[118.77447987363496,30.199636193784841],[119.10622740562212,30.248660577995338],[118.95154556858631,30.129266070338815],[118.97617493252699,29.962599403672812],[118.86963541648515,29.880364583427877],[118.83333333315215,29.833333333428129]]],[[[118.99999999981799,29.750000000095042],[118.89773437481836,29.780063529967549],[118.97149747636217,29.846955626651322],[118.99999999981799,29.750000000095042]]],[[[115.99999999982992,29.500000000096009],[115.89773437483041,29.530063529968459],[115.97149747637434,29.596955626652289],[115.99999999982992,29.500000000096009]]],[[[121.83333333313999,29.250000000097089],[121.73106770814047,29.280063529969595],[121.80483080968406,29.346955626653198],[121.83333333313999,29.250000000097089]]],[[[120.41666666647893,28.833333333432051],[120.3866031366066,28.731067708432477],[120.31971103992294,28.804830809976124],[120.41666666647893,28.833333333432051],[120.52419580744379,29.029505208431317],[120.60261788085757,28.873333850973552],[120.41666666647893,28.833333333432051]]],[[[114.83333333316807,28.750000000099135],[114.80326980329551,28.647734375099446],[114.73637770661173,28.721497476643037],[114.83333333316807,28.750000000099135],[114.87058624491328,28.934531865255849],[114.99999999983402,29.000000000098055],[114.99999999983402,29.083333333431142],[115.16666666649996,29.083333333431142],[115.213015034509,29.191640625097364],[115.35604444308831,29.116711993189938],[115.16666666649996,29.083333333431142],[115.16666666649996,29.000000000098055],[114.99999999983402,29.000000000098055],[115.05290546125082,28.784605181746656],[114.83333333316807,28.750000000099135]]],[[[120.99999999981026,28.666666666766048],[120.89169270814386,28.713015034775026],[120.96662134005112,28.856044443354335],[120.99999999981026,28.666666666766048]]],[[[119.74999999981515,28.583333333433018],[119.6477343748154,28.613396863305468],[119.72149747635922,28.680288959989298],[119.74999999981515,28.583333333433018]]],[[[120.916666666477,28.500000000100101],[120.72049479147779,28.542199114277707],[120.81243571716118,28.690154785833556],[120.916666666477,28.500000000100101]]],[[[120.49999999981196,28.416666666767014],[120.22549571481591,28.454468750100318],[120.16932521850583,28.603487281407126],[120.37499999981242,28.525960986904295],[120.58869887433275,28.606511853547772],[120.49999999981196,28.416666666767014]]],[[[120.41666666647893,28.250000000101011],[120.31440104147953,28.280063529973518],[120.38816414302312,28.346955626657348],[120.41666666647893,28.250000000101011]]],[[[119.83333333314806,28.083333333435064],[119.63791666648217,28.124069738268759],[119.72943849290664,28.278750000100899],[120.10890690454346,28.211643188094058],[119.86208333314789,28.137916666768035],[119.83333333314806,28.083333333435064]]],[[[115.99999999982992,27.500000000104023],[115.89773437483041,27.53006352997653],[115.97149747637434,27.596955626660304],[115.99999999982992,27.500000000104023]]],[[[115.83333333316398,26.916666666772983],[115.80326980329164,26.814401041773465],[115.73637770660798,26.888164143317056],[115.83333333316398,26.916666666772983],[116.0127864581633,27.362213541771268],[116.08333333316295,27.416666666771107],[116.11339686303552,27.518932291770682],[116.18028895971929,27.445169190226864],[116.08333333316295,27.416666666771107],[116.02774739566337,26.972252604272796],[115.83333333316398,26.916666666772983]]],[[[108.33333333319405,26.750000000107036],[108.21369791652779,26.842343173325617],[108.4100606455446,26.945174569840503],[108.33333333319405,26.750000000107036]]],[[[117.83333333315625,26.66666666677412],[117.73106770815639,26.696730196646627],[117.80483080970032,26.763622293330229],[117.83333333315625,26.66666666677412]]],[[[117.58333333315704,26.66666666677412],[117.55326980328448,26.564401041774545],[117.48637770660071,26.638164143318193],[117.58333333315704,26.66666666677412],[117.61339686302949,26.768932291773638],[117.68028895971315,26.695169190229876],[117.58333333315704,26.66666666677412]]],[[[116.58333333316114,26.500000000108116],[116.48106770816139,26.530063529980623],[116.55483080970521,26.596955626664226],[116.58333333316114,26.500000000108116]]],[[[117.33333333315795,26.500000000108116],[117.14169270815876,26.533777496776793],[117.28805397246867,26.605809225660778],[117.33333333315795,26.500000000108116]]],[[[119.33333333315011,26.66666666677412],[119.21011183806684,26.611467897483408],[119.04166666648462,26.663934426336823],[118.94657530242523,26.384895833441817],[118.83926124809261,26.468593130531644],[118.90680630391773,26.685448309759522],[118.79139734630655,26.721395362130181],[118.42177568074783,26.599825445551119],[118.36083390668,26.795480614926646],[118.46822916648694,26.948437500106252],[118.49999999982003,27.083333333438986],[118.28630208315428,26.963697916772901],[118.15881619322124,26.652208002058501],[117.97936204573205,26.884700247657861],[117.2229307930661,26.760440211063724],[117.09118380642576,26.931125331488431],[116.93398264687085,26.547031250107864],[116.84716690521054,26.64498705239771],[116.89267926513025,26.952968750106322],[116.78630208316031,26.880364583439814],[116.59333419833263,26.630364583440951],[116.46840694620505,26.789401978553769],[116.74999999982697,27.166666666772073],[116.61569054094241,27.270336315545649],[116.64481463927746,27.467418806220905],[116.51484374982806,27.448212204193169],[116.38036458316196,27.119635416772326],[116.22026851734267,26.996061820010425],[116.13036458316276,27.20518358952944],[116.41131240874029,27.670940948210955],[116.36836189430812,27.961586662378807],[116.46369791649488,28.119635416768233],[116.59568124926091,28.59360138794932],[117.05836173181501,29.303691321813346],[117.00266043831891,29.68062143411214],[117.11014680282858,29.786302083428211],[117.20451176890776,29.447427606964197],[117.42146721692461,29.578296524505674],[117.53630208315712,29.91730862933872],[117.14033696109357,29.858794414743954],[117.04703124982575,29.907656826875495],[117.21369791649192,30.036302083427245],[117.29593273673663,30.142841599468966],[117.62024732355917,30.094915627528223],[117.7029687498233,30.297031250092914],[117.80934593179325,30.369635416759252],[117.76574306458861,30.074575237715408],[118.1227974508522,30.214940980334404],[118.41666666648712,30.166666666760079],[118.44673019635945,30.268932291759654],[118.51362229304323,30.195169190216006],[118.41666666648712,30.166666666760079],[118.38036458315378,30.036302083427245],[118.28630208315428,29.963697916760793],[118.21369791648794,29.869635416761298],[118.02721841624896,29.793313507385733],[118.19559379326461,29.663349345946244],[118.70186158441516,29.73816366802447],[118.53502856096611,29.461586662372838],[118.55392565655802,29.333710199968493],[119.10622740562212,29.415327244665207],[118.95296874981818,29.297031250096836],[118.87293095574955,29.101472622695383],[118.52721841624702,28.959980174055829],[118.63478046168518,28.876956092471744],[118.50993459981532,28.669985710169044],[118.57432349326757,28.547031250099849],[118.70296874981932,28.713697916765796],[119.01621906965033,28.84190430133566],[119.24999999981696,28.750000000099135],[119.34234317303549,28.86963541676522],[119.61963541648231,28.771278088995132],[119.54502052482826,28.529794576391396],[119.24999999981696,28.750000000099135],[119.28755208315022,28.603670420591868],[119.45070312481619,28.367369791767317],[119.58332881696776,28.275799913456638],[119.16592032846074,28.119615288641512],[119.08333333315102,28.000000000101977],[119.53356817169151,28.110587070214592],[119.58333333314897,27.916666666769061],[119.72635138514931,27.971640293938606],[119.9467788354126,27.944222403076594],[120.12365126777763,28.04819273463886],[120.28705729147964,27.995625844059589],[119.78705729148146,27.712942708436515],[119.7129427081486,27.578928924471199],[120.20107424018147,27.639645214822565],[119.99930271011567,27.114721307397588],[119.87499999981446,27.13018271268453],[119.69535526402353,27.107837583917842],[119.74999999981515,27.250000000104933],[119.53592322901113,27.356412430036812],[119.47007829959239,26.93224858238608],[119.33216884988951,26.999599708985272],[119.26728645586491,26.866745283125454],[119.39953271009688,26.799844236866875],[119.33333333315011,26.66666666677412],[119.43559895814963,26.636603136901613],[119.36183585660604,26.56971104021784],[119.33333333315011,26.66666666677412]]],[[[119.16666666648393,26.416666666775029],[119.06440104148442,26.446730196647536],[119.13816414302823,26.513622293331139],[119.16666666648393,26.416666666775029]]],[[[114.08333333317103,26.250000000109083],[113.91479022886119,26.293252667953709],[114.08103661775033,26.534036458441335],[114.13546107519221,26.462228477530005],[114.08333333317103,26.250000000109083]]],[[[113.74999999983902,26.000000000109992],[113.6477343748395,26.030063529982499],[113.72149747638332,26.096955626666272],[113.74999999983902,26.000000000109992]]],[[[110.24999999985306,24.666666666782135],[109.72083153712128,24.732853422734195],[109.68195030247017,25.045440975890074],[109.87960937485457,25.203723958446631],[109.96965626051593,25.316171826205164],[110.20833333318643,25.286483954200548],[110.35778426136056,25.305073423130068],[110.40657936168105,24.912782870836793],[110.24999999985306,24.666666666782135]]],[[[111.666666666514,24.666666666782135],[111.56440104151449,24.696730196654642],[111.63816414305808,24.763622293338244],[111.666666666514,24.666666666782135]]],[[[114.49999999983606,24.500000000115961],[114.39773437483655,24.530063529988638],[114.47149747638014,24.596955626672298],[114.49999999983606,24.500000000115961]]],[[[114.41666666650303,24.333333333450014],[114.3144010415034,24.363396863322521],[114.38816414304711,24.430288960006294],[114.41666666650303,24.333333333450014]]],[[[112.58333333317705,23.916666666784977],[112.48106770817742,23.946730196657427],[112.55483080972112,24.013622293341257],[112.58333333317705,23.916666666784977]]],[[[114.91666666650099,23.916666666784977],[114.81440104150136,23.946730196657427],[114.88816414304506,24.013622293341257],[114.91666666650099,23.916666666784977]]],[[[113.83333333317216,23.83333333345206],[113.73106770817242,23.863396863324567],[113.80483080971624,23.93028896000834],[113.83333333317216,23.83333333345206]]],[[[115.16666666649996,23.333333333454107],[115.06440104150045,23.363396863326614],[115.13816414304426,23.430288960010216],[115.16666666649996,23.333333333454107]]],[[[114.08333333317103,23.25000000012102],[113.89169270817172,23.283777496789696],[114.03805397248152,23.355809225673852],[114.08333333317103,23.25000000012102]]],[[[115.16666666649996,23.000000000121986],[115.06440104150045,23.030063529994436],[115.13816414304426,23.096955626678266],[115.16666666649996,23.000000000121986]]],[[[109.58333333318899,21.666666666794129],[109.48106770818941,21.696730196666579],[109.55483080973323,21.763622293350238],[109.58333333318899,21.666666666794129]]],[[[110.41666666651906,20.41666666679896],[110.31440104151949,20.446730196671638],[110.38816414306314,20.513622293355297],[110.41666666651906,20.41666666679896]],[[108.49999999985999,21.666666666794129],[109.133202029117,21.60207735586846],[109.12146199463945,21.455968187288192],[109.16805190442875,21.378098958461919],[109.62499999985562,21.545903653193477],[109.94406479350693,21.428733736447725],[109.78856770818828,21.294765625128832],[109.62809895818896,21.055059890470716],[109.87851717433347,20.46043923321389],[109.87165203676659,20.375000000132502],[109.88126664181772,20.255342604495127],[110.43203901282658,20.299597778127861],[110.53856770818527,20.561643139917578],[110.37143527528053,20.705635654828257],[110.37857973001877,20.794551095728991],[110.20327877262469,20.872773668160676],[110.24999999985306,21.000000000130001],[110.14773437485337,21.030063530002508],[110.22149747639719,21.096955626686281],[110.24999999985306,21.000000000130001],[110.61974565930927,21.051616915552756],[110.49999999985198,21.166666666796004],[110.45365163184317,21.058359375129726],[110.31062222326386,21.133288007037152],[110.49999999985198,21.166666666796004],[110.49999999985198,21.250000000129091],[110.66666666651793,21.250000000129091],[110.66666666651793,21.333333333461951],[110.62052778892439,21.456123984815406],[110.63576232684107,21.605587154106843],[111.10949345652824,22.716619660171375],[111.29552083318214,22.871145833455898],[111.3998445511304,22.996736645421208],[111.90091185882068,23.214045406104105],[111.99999999984601,23.333333333454107],[111.72452249601156,23.365974673474852],[111.89018229151316,23.443151041786962],[111.96735865982521,23.608810837288502],[111.99999999984601,23.333333333454107],[112.12832434235963,23.284007710125707],[112.26755749663698,23.614429608927253],[112.3703906248445,23.370390625120649],[112.63071667058705,23.29595944909255],[112.61934781944137,23.204559024345087],[112.71294270817646,23.129609375121561],[112.78705729150954,23.037057291788528],[113.4120050325721,22.806016932092859],[114.21172909279426,23.113416814207255],[114.24999999983697,23.333333333454107],[114.16666666650394,23.333333333454107],[114.16666666650394,23.58333333345297],[114.33333333317012,23.58333333345297],[114.27501412244067,23.926638529468448],[113.999999999838,23.750000000119144],[113.84333419834354,23.547031250119858],[113.72111289936265,23.702623858507593],[113.999999999838,23.750000000119144],[113.94891452917307,23.957985062145042],[113.97964771008435,24.095078125117595],[114.20674733199235,24.251876437760927],[114.24999999983697,24.083333333450923],[114.52603172916622,24.123519337004893],[114.61510416650219,24.384895833449832],[114.66666666650201,24.416666666783101],[114.69673019637457,24.518932291782619],[114.76362229305835,24.445169190238801],[114.66666666650201,24.416666666783101],[114.6303645831689,24.036302083451176],[114.38036458316981,23.843334198623609],[114.49382564716268,23.754208122721536],[114.72326072247449,23.892604831476717],[114.86963541650118,23.702968750119226],[114.97278158340703,23.623353159495423],[114.78480699315594,23.546419343050843],[114.80099642655944,23.436865604389538],[114.41666666650303,23.50000000012011],[114.49061460311668,23.211846334340521],[114.66666666650201,23.166666666787933],[114.85071653089983,23.372656250120599],[114.95555356111981,23.063010859589724],[114.66666666650201,23.166666666787933],[114.69843749983534,23.031770833455198],[115.02902433051122,22.953910614647441],[114.83333333316807,22.833333333455982],[114.83333333316807,22.750000000123066],[114.83333333316807,22.666666666789979],[114.74999999983493,22.666666666789979],[114.82251947099257,22.582493155027862],[115.22921245391149,22.870853336678692],[115.37190104149931,22.705234375123155],[115.47830980628441,22.62809895845686],[115.62190104149818,22.794765625122864],[116.12809895816281,22.871901041789272],[116.55123946394804,22.964196249179793],[116.5381019419226,23.127697678757727],[116.71763020816047,23.282369791787687],[116.9396556563371,23.540075224208636],[117.21143229149175,23.621901041786316],[117.29166666649166,23.715029259628523],[117.40638646270645,23.581873736540331],[117.53856770815719,23.878098958451858],[117.58333333315704,23.916666666784977],[117.532247862492,24.124651728811045],[117.60079185989719,24.430409423721017],[117.43965187434628,24.541666666782419],[117.54929687482377,24.617369791782266],[117.61855080102089,24.80245316148887],[117.70833333315659,24.782325937375902],[117.89144934441492,24.823376428040376],[117.86472965285088,24.704186541098579],[117.91896338190986,24.632630208448745],[118.03403645815524,24.799296875114919],[118.21596354148778,24.86736979178113],[118.33333333315397,25.181044376547902],[118.69071405272882,25.100927658234696],[118.8673697914852,25.215963541779786],[118.99999999981799,25.250000000113005],[119.05598958315113,25.360677083445978],[119.16666666648393,25.416666666778951],[119.37699907191961,25.4683286939607],[119.72474720751552,25.322269847569999],[119.86736979148122,25.567978333923293],[119.66666666648223,25.522985207967167],[119.51087531230769,25.55791012516147],[119.6346154716349,25.95710777598714],[119.60086599529882,26.10765578134982],[119.74999999981515,26.333333333441942],[119.66666666648223,26.333333333441942],[119.66666666648223,26.416666666775029],[119.56440104148237,26.446730196647536],[119.6381641430263,26.513622293331139],[119.66666666648223,26.416666666775029],[119.74999999981515,26.416666666775029],[119.74999999981515,26.333333333441942],[119.83333333314806,26.333333333441942],[119.83333333314806,26.500000000108116],[119.74999999981515,26.500000000108116],[119.74999999981515,26.583333333441033],[119.58145689550497,26.626586001285716],[119.74770328439411,26.867369791773285],[119.80212774183622,26.795561810861955],[119.74999999981515,26.583333333441033],[119.83333333314806,26.583333333441033],[119.83333333314806,26.66666666677412],[119.91666666648098,26.66666666677412],[119.95833333314761,26.77339803344023],[119.99999999981401,26.66666666677412],[120.04929687481376,26.700703125107282],[120.11736979148031,26.882630208439821],[120.21596354148005,26.950703125106202],[120.28403645814615,27.049296875105938],[120.38263020814588,27.117369791772148],[120.45070312481243,27.215963541771941],[120.62680759404952,27.337552839866589],[120.70070312481118,27.715963541769895],[120.8501644550563,27.819157392076193],[121.11736979147622,28.215963541767849],[121.16666666647609,28.250000000101011],[121.19673019634854,28.352265625100586],[121.2636222930322,28.278502523556938],[121.16666666647609,28.250000000101011],[121.20372395814263,28.120390625101606],[121.29900878360786,28.046276041768522],[121.70372395814059,28.836860330594845],[121.46408063768831,29.244537177936763],[121.97297854785847,29.048925759729627],[121.94278519540239,29.291666666763547],[121.98283849256529,29.613677072766961],[121.91666666647325,29.666666666762126],[121.84932070538832,29.533540929734329],[121.58333333314113,29.500000000096009],[121.53698496513232,29.3916927084299],[121.39395555655301,29.466621340337156],[121.58333333314113,29.500000000096009],[121.65140624980734,29.598593750095745],[121.91666666647325,29.666666666762126],[122.17583827063061,30.036584164984504],[122.32541872447541,29.71067708342855],[122.39576621374215,29.930124789351623],[122.22473958313856,30.121538700424708],[122.04166666647245,30.132450331219388],[121.93080655937786,29.890907448874145],[121.83333333313999,30.000000000094133],[121.69843749980726,30.031770833427345],[121.29622096748164,30.389648535417905],[120.80156249981087,30.226953557678996],[120.97959626993395,30.519414536902275],[121.13489583314288,30.615104166758215],[121.16666666647609,30.666666666758033],[120.89877138237216,30.843699323036844],[120.52349953079693,30.759571815376717],[120.2598885308023,30.941578987586468],[120.30726730831873,31.152923909818014],[120.06298104339317,31.321588541755489],[120.02367434350958,31.496925936799926],[120.11736979148031,31.632630208420892],[120.16666666647995,31.666666666754111],[120.16666666647995,31.833333333420114],[120.01968749981404,31.853020833419919],[119.96902879137951,32.016790520475411],[119.86430454158256,31.899876146363624],[119.81364583314803,32.063645833419116],[119.74999999981515,32.083333333418977],[119.71993646994247,31.981067708419403],[119.65304437325881,32.054830809963221],[119.74999999981515,32.083333333418977],[119.68824696175159,32.288440149242035],[119.40651418866173,31.961432291752942],[119.49230281761515,32.254906228411869],[119.68436964677369,32.420380907867013],[119.415219906993,32.570549165797274],[119.28856770815014,32.461432291750896],[119.16633566917471,32.319557291751494],[118.9501615976053,32.198946052209976],[118.71434768655263,32.217893962686162],[118.36083260658768,31.967238856853157],[118.16666666648803,31.951637407243595],[117.99999999982208,31.96502925959544],[117.87499999982253,31.954985370331542],[117.74999999982299,31.96502925959544],[117.54166666649053,31.948289444155535],[117.2444675435105,31.972169724800153],[116.59625628679191,31.794765625086768],[116.2885677081623,31.871901041753233],[115.57303685082434,32.149457723974251],[114.95952902997453,32.03822262809399],[114.87330771431641,32.045150606867253],[114.5447656248358,31.95523437508632],[113.87809895817179,31.85364642022148],[113.95548283341475,31.704756329501379],[114.11570312483752,31.71763020842053],[113.79274306984496,30.866571238447705],[113.13215192154018,30.099821620665125],[112.31603124866581,29.619694315686559],[112.20833333317864,29.628347963183614],[112.04166666651247,29.614956110831599],[111.79166666651355,29.635043889359451],[111.55426569452845,29.615968456769167],[111.2133260292789,30.051309387330832],[111.45523437484826,30.031871782251244],[111.37809895818185,30.128098958426961],[111.11657007290574,30.206839409553936],[111.21676326012624,30.293160590632226],[110.94821036340994,30.374015813245819],[110.9661607016485,30.597414560567472],[110.87788442878218,30.795246396923744],[110.78896898788128,30.788101942185676],[110.71103101182064,30.87856472466251],[110.41529405100147,30.854801930376482],[110.12190104152023,31.038567708423102],[110.08333333318711,31.250000000089074],[109.9537162871743,31.211963631695653],[109.97281207381462,31.024618481684968],[109.71218749985519,31.212187500089158],[109.4544791665229,31.371145833421906],[109.37885416652324,31.545520833421278],[109.19838251560998,31.623789900663098],[109.37114583318981,31.767298102680513],[109.20731791539095,31.882271613736407],[109.07621308002655,31.724440172815605],[108.33333333319405,31.800160697974775],[107.99341358849961,31.765513230884721],[107.79435626277348,31.879521161870855],[107.66666666653009,31.866505968865226],[107.53945731788451,31.879472211013649],[107.29552083319822,31.787812500086943],[106.81371434747564,31.646425471536247],[106.47503472209036,31.175834785367499],[106.23063372079935,30.135451550481093],[106.20016207784698,29.836500026380236],[106.30368069375987,29.483738241574713],[106.56757852550874,29.36928792744709],[106.70833333320047,29.199839302209341],[106.79287676595794,29.301617484344149],[106.87114583319993,29.121145833430887],[106.96285449498367,28.961022929675437],[106.94983930197822,28.833333333432051],[106.96682736442085,28.666666666766048],[106.94219020220385,28.424956129339535],[107.41666666653106,28.500000000100101],[107.44673019640351,28.602265625099619],[107.51362229308734,28.528502523555858],[107.41666666653106,28.500000000100101],[107.4537239581976,28.203723958434466],[107.87960937486241,28.046276041768522],[108.03705729152858,27.953723958435603],[108.34246133297461,27.825032826964502],[108.28465842631647,27.36032358304027],[108.11032358279721,27.382008240315599],[108.13222850608133,27.558113922990344],[107.9436569161312,27.534658426559361],[107.97388147093272,27.291666666771562],[107.94455699892598,27.055911165836164],[108.54166666652645,27.13018271268453],[108.62929278216444,27.119283329362077],[108.666666666526,27.250000000104933],[108.29476562486087,27.192306841489142],[108.49137453342911,27.453461969580928],[108.666666666526,27.250000000104933],[108.87114583319192,27.189995200186218],[108.7063274185744,26.945796746224346],[108.37499999986045,26.979568411492721],[108.12499999986159,26.954086317828967],[107.95833333319541,26.971074380271432],[107.71158579451867,26.945923804703796],[107.56603523060369,27.121145833438902],[107.37114583319789,26.962187500106154],[107.15324764039246,26.380459297295545],[107.01272289413123,26.704479166773865],[106.95386446705788,26.543843200362403],[106.96519130907882,26.432717696210432],[106.62908645647781,26.240217276044461],[106.37114583320181,26.454479166774775],[106.28841420521348,26.55407619551022],[106.12263300576831,26.53717838730239],[105.60818573724396,26.756532622531552],[105.45447916653882,26.628854166774204],[105.37885416653916,26.537812500107862],[105.10119920786252,26.417395833441674],[104.95447916654086,26.295520833442197],[104.8788541665412,26.204479166775911],[104.78781249987486,26.12885416677625],[104.7121874998752,26.037812500109908],[104.54552083320925,25.89936856418376],[104.62914852219006,25.315248944494726],[104.99421874987405,24.723385416781753],[105.21218749987315,24.628854166782219],[105.50420437087161,24.418692411815982],[106.00318673709353,24.70447916678188],[106.22113714940855,24.625615818570395],[106.20408631759187,24.458333333449559],[106.21258034881316,24.375000000116643],[106.20408631759187,24.291666666783556],[106.2189106809202,24.146227642778456],[106.12885416653614,24.03781250011798],[106.08333333320297,24.000000000118064],[106.03514973931789,23.877433316669453],[106.0583940451001,23.720139325114133],[105.5979715099453,23.585892780314566],[105.20833333320644,23.643472023074935],[104.87499999987449,23.594213295193754],[104.546652033133,23.642735304626228],[104.2029687498773,23.547031250119858],[104.12926607012264,23.451545568888491],[103.64633035110546,23.522911966390268],[103.44553512247791,23.262771232601835],[103.13036458321488,23.309345932091105],[103.20296874988122,23.202968750121272],[103.36963541654717,23.074323493569523],[103.14675506203884,23.019979763772596],[102.85332491570756,23.063341750963559],[103.00741785659545,22.807885347298736],[102.6666666665501,22.750000000123066],[102.70296874988327,22.702968750123148],[103.0514122152062,22.434015156180692],[103.35598929482336,22.828610712700367],[103.53216131401791,22.600370636182902],[103.65387188079046,22.758053049089085],[103.96120017801218,22.530199287587834],[104.09877950095694,22.866350775356693],[104.37499999987654,22.699732799054459],[104.53630208320925,22.797031250122814],[104.77282986098606,22.893836805678006],[104.87706904394338,23.148527377523692],[105.33040819901635,23.334069004702656],[105.86425562406373,22.938273547647782],[106.19553512246688,22.987228767641341],[106.2874005962903,22.868212235557451],[106.54166666653447,22.905786705048286],[106.80885345938412,22.866302860480914],[106.77996002198557,22.670781250123412],[106.5661322643968,22.505733689725332],[106.66666666653401,22.250000000124942],[106.83333333320002,22.250000000124942],[106.83333333320002,22.083333333458995],[106.66666666653401,22.083333333458995],[106.69466145820053,22.027994791792594],[106.88867187486642,21.972005208459564],[107.11132812486557,21.777994791793503],[107.30533854153146,21.72200520846053],[107.36674528288336,21.600619789508983],[107.45845408947696,21.645407811333598],[107.583333333197,21.583333333461042],[107.61132812486369,21.72200520846053],[107.73271354381507,21.783411949812375],[107.64303787616825,21.967033554994316],[108.27603400721387,22.027994791792594],[108.49999999985999,21.916666666792992],[108.61626746492936,21.833333333460075],[108.49999999985999,21.750000000126988],[108.49999999985999,21.666666666794129]]]]},"properties":{"OBJECTID":177,"Id":177,"gridcode":1,"Shape_Length":145.09045559958403,"Shape_Area":112.32998880597417}},{"type":"Feature","id":178,"geometry":{"type":"Polygon","coordinates":[[[110.41666666651906,20.000000000134094],[110.37499999985261,20.106731366800261],[110.33333333318598,20.000000000134094],[110.41666666651906,20.000000000134094]]]},"properties":{"OBJECTID":178,"Id":178,"gridcode":1,"Shape_Length":0.3124856472339399,"Shape_Area":0.0044471402777438362}},{"type":"Feature","id":179,"geometry":{"type":"Polygon","coordinates":[[[109.91666666652111,19.916666666801007],[110.24999999985306,19.916666666801007],[110.24999999985306,20.000000000134094],[110.21384626730332,20.058675730009838],[109.94843749985415,19.968229166800882],[109.91666666652111,19.916666666801007]]]},"properties":{"OBJECTID":179,"Id":179,"gridcode":1,"Shape_Length":0.82654793466717258,"Shape_Area":0.03058037116742825}},{"type":"Feature","id":180,"geometry":{"type":"Polygon","coordinates":[[[110.8333333331841,19.500000000135969],[110.91666666651702,19.500000000135969],[110.91666666651702,19.583333333469056],[110.8333333331841,19.583333333469056],[110.8333333331841,19.500000000135969]]]},"properties":{"OBJECTID":180,"Id":180,"gridcode":1,"Shape_Length":0.33333333333200699,"Shape_Area":0.0069444444443891801}},{"type":"Feature","id":181,"geometry":{"type":"Polygon","coordinates":[[[110.58333333318507,19.250000000137106],[110.66666666651793,19.250000000137106],[110.66666666651793,19.333333333470023],[110.58333333318507,19.333333333470023],[110.58333333318507,19.250000000137106]]]},"properties":{"OBJECTID":181,"Id":181,"gridcode":1,"Shape_Length":0.33333333333155224,"Shape_Area":0.0069444444443702326}},{"type":"Feature","id":182,"geometry":{"type":"Polygon","coordinates":[[[110.49999999985198,19.083333333471103],[110.58333333318507,19.083333333471103],[110.58333333318507,19.166666666804019],[110.49999999985198,19.166666666804019],[110.49999999985198,19.083333333471103]]]},"properties":{"OBJECTID":182,"Id":182,"gridcode":1,"Shape_Length":0.33333333333200699,"Shape_Area":0.0069444444443891801}},{"type":"Feature","id":185,"geometry":{"type":"Polygon","coordinates":[[[110.08333333318711,18.666666666806066],[110.16666666652003,18.666666666806066],[110.16666666652003,18.583333333472979],[110.46267361096324,18.731770833472524],[110.49999999985198,18.916666666804986],[110.2925234610729,18.81353505396163],[110.11291436449443,18.901251124383521],[110.08333333318711,18.666666666806066]]]},"properties":{"OBJECTID":185,"Id":185,"gridcode":1,"Shape_Length":1.3544538593974518,"Shape_Area":0.075713394795280553}},{"type":"Feature","id":186,"geometry":{"type":"Polygon","coordinates":[[[109.83333333318802,19.916666666801007],[109.73998163128414,20.033241490612227],[109.46133268822666,19.869444212473525],[109.33333333319007,19.885365425292605],[109.19365691612614,19.867991759923484],[109.21399718923465,19.704465157475227],[108.7093893001408,19.349774223724182],[108.62960937485946,18.596407349253354],[108.85322833462118,18.417336004435697],[109.65359265074164,18.212942708474486],[109.78705729152148,18.37960937514049],[109.98799841744295,18.464281931310552],[110.08333333318711,18.583333333472979],[110.08333333318711,18.666666666806066],[109.60018471525279,18.748741876823033],[109.63178776442078,18.962599403716752],[109.53487890195737,19.037400596559337],[109.56013868947804,19.208333333470478],[109.49668267904019,19.637739540025393],[109.61963541652233,19.797031250134808],[109.83333333318802,19.916666666801007]]]},"properties":{"OBJECTID":186,"Id":186,"gridcode":1,"Shape_Length":5.9430865685151204,"Shape_Area":1.3683667414854328}}]}