{
"type": "FeatureCollection",
"name": "china_tendash",
"features": [
{ "type": "Feature", "properties": { "name": "境界线", "gb": null }, "geometry": { "type": "MultiLineString", "coordinates": [ [ [ 400440.092555303417612, 600903.780940414406359 ], [ 399216.553036938246805, 603427.281333582825027 ], [ 398536.939825017645489, 604830.786769301979803 ], [ 397626.510099088540301, 606946.272663461510092 ], [ 397254.768609274877235, 607808.261490470846184 ], [ 396141.440482358506415, 610397.275315116508864 ], [ 395527.833991560211871, 612454.838218735065311 ], [ 395081.823130480537657, 613951.649845142732374 ], [ 394560.236609493033029, 616346.979200834874064 ], [ 394314.238822739629541, 617476.173078783554956 ], [ 394129.027725611580536, 618330.81213924230542 ], [ 393772.019009338808246, 619969.289752595708705 ], [ 393251.159961368888617, 621760.149147160933353 ], [ 392559.861382557253819, 624137.56648152100388 ], [ 392179.948044268181548, 625694.121643330319785 ], [ 391947.390133442822844, 626648.865189616917633 ], [ 391641.3735521134804, 627904.07900434511248 ], [ 391393.918210008298047, 628920.707844490534626 ], [ 391226.506850502395537, 629607.122410159907304 ], [ 390870.316155904904008, 631072.652739160927013 ], [ 390352.312958379916381, 633198.88857930386439 ], [ 390071.949617850536015, 635006.728831668267958 ], [ 389905.992291921342257, 636077.216534963110462 ], [ 389687.850355727889109, 637481.166168795083649 ], [ 389412.097884428862017, 639263.650313762598671 ], [ 389184.574599858606234, 640728.446800925885327 ], [ 388977.804310306673869, 642240.842999567394145 ], [ 388746.937337609590031, 643923.359073472907767 ], [ 388540.3066387277795, 645434.052356331143528 ], [ 388143.90797217952786, 648330.310630177496932 ], [ 387650.221164352842607, 650794.165114397415891 ], [ 387362.232421235879883, 652229.955796944908798 ], [ 386938.104626331187319, 654343.922420187154785 ], [ 386861.812842715298757, 656706.393300411407836 ], [ 386817.488721227739006, 658078.94538063229993 ], [ 386746.238227218738757, 660285.306397768319584 ], [ 386647.417449569969904, 661917.194582510041073 ], [ 386535.762459203775506, 663752.560769422561862 ], [ 386445.289555754803587, 665242.594077568151988 ], [ 386312.932071576709859, 667428.623735261033289 ], [ 386163.985961368773133, 669878.888696775073186 ], [ 386199.658833696215879, 671708.07742068823427 ], [ 386231.9104581385036, 673362.134753226069734 ], [ 386256.55027280835202, 674623.710941485129297 ], [ 386287.589043015730567, 676254.289440187858418 ], [ 386319.474751455883961, 677887.805404862039723 ], [ 386340.07948480657069, 678959.295607158564962 ], [ 386368.222896102466621, 680420.196629140875302 ], [ 386358.376866281556431, 683257.216200322029181 ], [ 386352.923519558040425, 684820.291955696418881 ], [ 386348.410753366362769, 686268.191532124998048 ], [ 386341.666597730189096, 688067.959910169010982 ], [ 386335.777429787616711, 689814.737080985913053 ], [ 386547.686807061138097, 691701.119786235387437 ], [ 386685.246516758808866, 692928.102284624474123 ], [ 386850.764336417953018, 694398.612410478293896 ], [ 387016.09713516762713, 695873.219123529270291 ], [ 387177.117089544073679, 697312.157044225954451 ], [ 387383.639528150320984, 699153.746683817706071 ], [ 387600.782183743955102, 701091.95532448682934 ], [ 387940.286007561837323, 703246.038172592874616 ], [ 388133.543246777611785, 704473.511040518293157 ], [ 388322.697707123821601, 705681.427258008276112 ], [ 388725.761091097025201, 708241.331321610836312 ] ], [ [ 475649.138376779970713, 1665042.886401127325371 ], [ 476464.73247636918677, 1663924.781325185904279 ], [ 476808.766431740659755, 1663453.311812235042453 ], [ 477271.427700263331644, 1662818.928928127279505 ], [ 477762.887212876987178, 1662144.938570509431884 ], [ 478809.791413008468226, 1660710.374208704335615 ], [ 480168.697131120483391, 1659202.181272216374055 ], [ 481087.268015743000433, 1658183.610089867841452 ], [ 481720.791306147177238, 1657481.044667341513559 ], [ 482948.940232682332862, 1656119.220946818822995 ], [ 483808.362198203976732, 1655129.12355586909689 ], [ 484153.142381966987159, 1654731.725266251014546 ], [ 484707.182959170429967, 1654093.568200711393729 ], [ 485435.005892186192796, 1653256.585320011712611 ], [ 486329.6634107028367, 1652226.731221909169108 ], [ 487150.528362076031044, 1651282.112553717568517 ], [ 488421.387180774589069, 1649787.998082283651456 ], [ 488936.39212143921759, 1649183.332864488940686 ], [ 489618.485268639400601, 1648381.463672424666584 ], [ 490444.375235490384512, 1647411.359977320535108 ], [ 491337.180045717046596, 1646426.374973273603246 ], [ 492627.999368196702562, 1645001.768399588530883 ], [ 493125.529135459510144, 1644477.620363164227456 ], [ 493916.034634960524272, 1643648.94627254223451 ], [ 495131.523017258208711, 1642371.598991686478257 ], [ 496562.277546243392862, 1640870.030444422038272 ], [ 497805.172072274785023, 1639638.215629084035754 ], [ 499239.760644540307112, 1638217.123688097810373 ], [ 501381.740351983869914, 1636096.288803939707577 ], [ 502222.741806897742208, 1634968.919883254915476 ], [ 503502.476922568050213, 1633253.954852202907205 ], [ 504331.213332916027866, 1632144.070828941883519 ], [ 506054.315552151296288, 1630220.603963494533673 ], [ 507280.170408071717247, 1628852.779482409358025 ], [ 508361.626640512200538, 1627646.548630430595949 ], [ 509756.174897932331078, 1625506.192632314981893 ], [ 510794.133351449621841, 1623913.146787038538605 ], [ 512110.782138029462658, 1622190.690382282948121 ], [ 513757.453408654138912, 1620038.379298340529203 ], [ 514718.422433823696338, 1618627.885006775381044 ], [ 516185.50778206915129, 1616474.287926521617919 ], [ 516960.475120775401592, 1615277.726283186348155 ], [ 518812.985435448761564, 1612419.414754799567163 ], [ 520458.44323841604637, 1609594.82549990224652 ], [ 521086.913472454063594, 1608516.109984031645581 ], [ 522614.08816496306099, 1605896.164245561696589 ], [ 523361.407569404225796, 1604614.070946316001937 ], [ 524537.338468996691518, 1602486.882957726484165 ], [ 525771.326059628976509, 1600256.120107007678598 ], [ 526395.065140881226398, 1599031.012513566762209 ], [ 527284.486177324899472, 1597283.411889998940751 ], [ 528375.875869843293913, 1595140.683614248875529 ], [ 529110.799865306937136, 1593697.920619313139468 ], [ 530133.029960346757434, 1591416.100056252675131 ], [ 530886.761989040882327, 1589735.008490883512422 ], [ 532041.881506902282126, 1587160.516515435883775 ], [ 532532.162370517966338, 1585905.605063487542793 ], [ 533392.735888607800007, 1583700.841331029776484 ], [ 533833.720620422274806, 1582573.42520496994257 ], [ 534643.987498397007585, 1579901.992029443383217 ], [ 535080.706047889310867, 1578461.762181539321318 ], [ 536124.825295366696082, 1576111.542688663117588 ], [ 537040.975558004458435, 1574052.028492777608335 ], [ 537699.669039223575965, 1572140.74867045879364 ], [ 538322.940754545968957, 1570330.096593460068107 ], [ 539076.324076825170778, 1568145.987946792505682 ], [ 539534.915198807255365, 1566536.980668193427846 ], [ 540341.697877964470536, 1563704.966703948331997 ], [ 540649.754257116816007, 1562338.929430504795164 ], [ 541234.482201186008751, 1559747.02578600961715 ], [ 542245.318465463933535, 1556962.443356639239937 ] ], [ [ 611005.703292143531144, 1251795.896003727801144 ], [ 611034.413294763537124, 1250148.705961370375007 ], [ 611056.689354261383414, 1248850.477321648504585 ], [ 611093.68992286012508, 1246754.428487197030336 ], [ 611287.435950633953325, 1245041.402300344081596 ], [ 611434.995731600676663, 1243730.626149465795606 ], [ 611561.922067018342204, 1242609.464061601320282 ], [ 611737.517993421875872, 1240614.069408589974046 ], [ 611805.030985676101409, 1239847.504282272653654 ], [ 611900.037342812516727, 1238766.18920189794153 ], [ 611905.746918616467156, 1237366.530761821428314 ], [ 611908.2692213030532, 1236648.106024659005925 ], [ 611911.043745144736022, 1235924.89777220133692 ], [ 611920.257921774522401, 1233560.018025851342827 ], [ 612010.236826746142469, 1231883.309039825573564 ], [ 612139.131319525185972, 1229481.428795118816197 ], [ 612166.182829361059703, 1228977.33831256069243 ], [ 612236.792727028252557, 1227661.56046487367712 ], [ 612123.031053089536726, 1226635.049166144104674 ], [ 612123.328261519782245, 1226629.509317597141489 ], [ 611834.862066866015084, 1224023.647123739356175 ], [ 611711.084831360611133, 1222902.373226533411071 ], [ 611678.903670106432401, 1218643.726106791524217 ], [ 611412.046850076760165, 1215655.131501938449219 ], [ 611190.677694274578243, 1213179.586609196150675 ], [ 610689.147021033102646, 1207952.716241607908159 ], [ 610049.387316422420554, 1204246.751070226309821 ], [ 609494.486266769352369, 1201036.519921272061765 ], [ 608713.997313938220032, 1196525.55196504923515 ], [ 608297.817260072333738, 1194122.936014876700938 ], [ 607912.112097693490796, 1192735.322524651885033 ], [ 606763.756594201899134, 1188610.794537234352902 ], [ 606000.914915014989674, 1185355.734828852117062 ], [ 605699.178802257170901, 1184069.316099971532822 ], [ 604726.286959423334338, 1181653.78374880948104 ], [ 603852.616831780644134, 1179487.823616355890408 ], [ 603387.954953452921472, 1178084.561468091793358 ], [ 602500.155276285950094, 1175405.628327465616167 ], [ 601047.877106330124661, 1173206.262578767258674 ], [ 600058.21584554715082, 1170697.226319468347356 ], [ 599433.400457434705459, 1169112.120701434090734 ], [ 598016.381708837347105, 1166208.388670226326212 ], [ 596337.510504208039492, 1163291.585397444665432 ], [ 594397.617447132011876, 1160362.088281874079257 ], [ 592741.201099920785055, 1156976.528916785027832 ], [ 590325.059477076167241, 1153081.673887858167291 ], [ 588892.171721873921342, 1150416.477774511324242 ], [ 587670.840291437809356, 1148704.917878062929958 ], [ 586709.508940372732468, 1147006.824253446189687 ] ], [ [ 841301.405851240037009, 362651.790786354220472 ], [ 844663.284450678038411, 363180.291357751877513 ], [ 846991.982657219516113, 363546.83742062287638 ], [ 849509.779177800519392, 363943.72339738777373 ], [ 852997.074636660749093, 364802.846671682666056 ], [ 855574.820379514130764, 365438.510548087826464 ], [ 858402.733267510542646, 366136.587124675919767 ], [ 861515.799154217820615, 366861.337189793528523 ], [ 866141.366352372919209, 367939.899930410378147 ], [ 870530.896396829746664, 369146.343481872114353 ], [ 873855.722982671926729, 370061.469501205079723 ], [ 876473.48972097504884, 370842.973806244845036 ], [ 880785.393212267081253, 372131.853557699010707 ], [ 885929.566970444284379, 373520.871228911390062 ], [ 890720.705156005569734, 374816.803552753059193 ], [ 893511.197333388612606, 375572.592092467879411 ], [ 898637.008019278873689, 377066.064793582307175 ], [ 902069.726812658831477, 378067.555754138913471 ], [ 905057.936439884477295, 378940.326011069118977 ], [ 909621.480557615635917, 380441.355085120245349 ], [ 913851.237303395057097, 381834.452306019957177 ], [ 916183.814245471381582, 382603.571606714220252 ], [ 919118.920304866274819, 383682.763473798753694 ], [ 923100.118583373376168, 385148.062912204593886 ], [ 926173.051191824721172, 386280.360296583152376 ], [ 928406.913473781198263, 387136.408448154281359 ], [ 932677.010257244808599, 388774.490203130000737 ], [ 937594.647814935306087, 390745.193214559520129 ], [ 943023.950349073973484, 392960.578307643416338 ], [ 946919.748931986512616, 394733.425890289538074 ], [ 948972.847476946655661, 395668.561450502020307 ], [ 951907.045405721873976, 397120.20837821054738 ], [ 953824.915962112369016, 398069.623273477773182 ], [ 959309.658053840626962, 400670.834595775115304 ], [ 962025.910304780350998, 401969.200509998772759 ], [ 963476.43365251517389, 402662.916867585037835 ], [ 965203.738035900751129, 403489.33545909303939 ], [ 969028.651883692597039, 405585.175496992596891 ] ], [ [ 1264207.060034045483917, 777696.52486197440885 ], [ 1271292.13228004402481, 786478.548577149049379 ], [ 1272862.276112473104149, 788428.248778444132768 ], [ 1274771.410418516723439, 790799.742558381287381 ], [ 1277269.018078124849126, 793905.315058460342698 ], [ 1279171.313788617495447, 796272.015716292196885 ], [ 1281531.79647836019285, 799211.798045785515569 ], [ 1283926.672369906445965, 802195.897479051491246 ], [ 1285987.235525464871898, 804766.585703450487927 ], [ 1287271.860591238830239, 806369.554971399251372 ], [ 1289840.729210315970704, 809578.023223820608109 ], [ 1291137.954971404746175, 811199.288926883134991 ], [ 1292178.284112421795726, 812500.354858343955129 ], [ 1293540.309526046970859, 814204.013350954512134 ], [ 1295167.042701941216365, 816239.47124345775228 ], [ 1296886.060990666272119, 818392.606635152478702 ], [ 1298320.857185416854918, 820190.895910092978738 ], [ 1300026.420643921941519, 822329.728101634653285 ], [ 1301599.941229850752279, 824302.740967922261916 ], [ 1302805.532833653502166, 825816.545774115482345 ], [ 1304488.385528251994401, 827930.100713790510781 ], [ 1305946.465433506993577, 829761.964853130630217 ], [ 1308012.47032599686645, 832359.976294794818386 ], [ 1309747.266726894536987, 834542.337611744645983 ], [ 1310725.106427641119808, 835773.39318764442578 ], [ 1312843.564064874779433, 838441.742771739023738 ], [ 1314078.229358192533255, 839998.422226966591552 ], [ 1315917.493509703082964, 842317.980330695165321 ], [ 1318165.850050798151642, 845155.986741642584093 ], [ 1320720.966839028289542, 848382.735047183115967 ], [ 1323744.168309566564858, 852205.261045427527279 ], [ 1326206.677410683827475, 855322.641997972968966 ], [ 1328983.078219744842499, 858839.49944098002743 ], [ 1331347.153421127004549, 861837.670130803599022 ], [ 1333967.791176297469065, 865164.650140659417957 ], [ 1337276.681137240957469, 869369.33512430312112 ], [ 1338060.081863763742149, 870365.488511962350458 ] ], [ [ 1568836.613927330356091, 1203247.160703180124983 ], [ 1570116.344161638990045, 1206025.658891407307237 ], [ 1571282.933006483362988, 1208560.534793228842318 ], [ 1573367.892038257559761, 1212640.65807600133121 ], [ 1575127.854077109601349, 1217151.607608343241736 ], [ 1576034.046341311419383, 1218872.441005174769089 ], [ 1577013.697004040936008, 1220732.751822232268751 ], [ 1577510.899678159505129, 1222380.859263268765062 ], [ 1578282.25868328451179, 1224941.267289088806137 ], [ 1580069.201274513965473, 1229222.751954190433025 ], [ 1580880.850848022615537, 1231314.539028930244967 ], [ 1582015.802354885963723, 1234240.018052784027532 ], [ 1583262.288156086113304, 1237836.780077995033935 ], [ 1584089.039248004090041, 1240226.49716435559094 ], [ 1584837.214188853977248, 1242478.122150767361745 ], [ 1585578.192833979381248, 1244708.881715029012412 ], [ 1586380.361985910916701, 1246784.701342652318999 ], [ 1587129.67648320319131, 1248726.177764805732295 ], [ 1588130.550298017216846, 1251470.202889946755022 ], [ 1589228.638759359717369, 1254484.56544344429858 ], [ 1590872.210704888449982, 1259706.255071179475635 ], [ 1592062.517153654480353, 1264390.519479641923681 ], [ 1592710.57136244722642, 1267193.44922568439506 ], [ 1593104.198611564235762, 1268897.973315365845338 ], [ 1593538.376969286473468, 1270781.557114540599287 ], [ 1594823.21651896648109, 1274768.522764026885852 ], [ 1595460.795203723246232, 1277341.075353542808443 ], [ 1596167.27835485432297, 1280192.989831701619551 ], [ 1596692.280611515743658, 1282173.90721952333115 ], [ 1597542.066013644682243, 1285385.613729842472821 ], [ 1598011.018420463893563, 1287551.85311035788618 ], [ 1598657.604684953577816, 1290543.312157672597095 ], [ 1599021.17401361442171, 1292354.57973944186233 ], [ 1599738.51934498292394, 1295936.000526194693521 ], [ 1600439.661087066167966, 1298417.444588735699654 ], [ 1600750.656907858559862, 1301797.277249162318185 ], [ 1601256.255538359517232, 1304147.6331096382346 ], [ 1602019.283909767400473, 1307696.949399036588147 ], [ 1602267.325413994025439, 1310179.895750147057697 ], [ 1602453.746322998777032, 1312049.889992293901742 ], [ 1602838.134551684139296, 1314752.255124457413331 ], [ 1603111.749892400112003, 1316674.078451735433191 ], [ 1603472.696586263366044, 1319324.267655505798757 ], [ 1603724.074566369876266, 1321175.260480890981853 ] ], [ [ 1552729.810929839964956, 1746633.490592534886673 ], [ 1553159.327922361204401, 1743573.273633821634576 ], [ 1553316.891182409599423, 1742450.173189143883064 ], [ 1553449.104048863053322, 1741504.859896103385836 ], [ 1553547.480814939597622, 1740803.130493768723682 ], [ 1553642.426062827231362, 1740124.680645131971687 ], [ 1553754.823155238758773, 1739324.618572687963024 ], [ 1553883.817972728516906, 1738401.864777068141848 ], [ 1554030.47072239825502, 1737361.550700665684417 ], [ 1554128.97812455589883, 1736658.896371362265199 ], [ 1554261.288525683572516, 1735712.881121567683294 ], [ 1554359.923567009158432, 1735009.327901034848765 ], [ 1554468.714306539855897, 1734233.76122803799808 ], [ 1554574.142594655975699, 1733482.56092574307695 ], [ 1554683.457124061882496, 1732704.103117083664984 ], [ 1554812.107709997799248, 1731783.743489019107074 ], [ 1554903.818250893848017, 1731128.746397816110402 ], [ 1555003.199770865961909, 1730425.450424431590363 ], [ 1555111.196813446236774, 1729649.936877404572442 ], [ 1555200.444818146992475, 1729018.495768954977393 ], [ 1555309.32386101433076, 1728242.296057855011895 ], [ 1555414.128265375969931, 1727489.167853955179453 ], [ 1555503.351816706825048, 1726857.89506584405899 ], [ 1555615.795937881572172, 1726057.47302156011574 ], [ 1555751.502914948388934, 1725087.603214900707826 ], [ 1555867.459636518731713, 1724261.754837608896196 ], [ 1555972.83583383844234, 1723510.897946706973016 ], [ 1556074.877411772496998, 1722783.426900670398027 ], [ 1556237.140635191928595, 1721620.999530208064243 ], [ 1556356.201238127192482, 1720774.160116100450978 ], [ 1556444.395462023792788, 1720143.802236430114135 ], [ 1556570.529566088225693, 1719247.348879213677719 ], [ 1556686.573216619435698, 1718420.87682527070865 ], [ 1556845.430185635806993, 1717283.109149533556774 ], [ 1556978.778328279033303, 1716336.052351912949234 ], [ 1557128.264485355000943, 1715269.510169602464885 ], [ 1557244.029068141477183, 1714444.985803084913641 ], [ 1557420.584646370261908, 1713183.070997653529048 ], [ 1557522.588726129150018, 1712455.84020297601819 ], [ 1557659.093837525928393, 1711485.84207098511979 ], [ 1557784.569311020197347, 1710588.47461848356761 ], [ 1557948.004551858874038, 1709424.079166365088895 ], [ 1558114.92436533048749, 1708235.240147077711299 ], [ 1558277.3091664344538, 1707071.902024077018723 ], [ 1558444.329801366664469, 1705882.347347464645281 ], [ 1558604.142793799052015, 1704743.341168807353824 ], [ 1558740.10064223385416, 1703772.433013256173581 ], [ 1558855.768707078648731, 1702948.557846588548273 ], [ 1558975.020125912269577, 1702100.336175410775468 ], [ 1559093.686491475207731, 1701249.910303829237819 ], [ 1559223.180184548255056, 1700329.8474813378416 ], [ 1559355.24916515708901, 1699385.413283700123429 ], [ 1559488.05769412429072, 1698442.096354234497994 ], [ 1559641.549224839312956, 1697347.40286505036056 ], [ 1559759.885834634071216, 1696499.275896263541654 ], [ 1559889.363986774347723, 1695579.31037623132579 ], [ 1560024.998324508080259, 1694609.854740597074851 ], [ 1560147.676712175598368, 1693737.577138478634879 ], [ 1560307.377370486501604, 1692599.318125419318676 ], [ 1560432.47226505796425, 1691703.775532935047522 ], [ 1560684.083641304634511, 1689909.023029546253383 ], [ 1560817.276001578429714, 1688962.201121595920995 ], [ 1560942.483128295280039, 1688065.860346825793386 ], [ 1561139.445249513955787, 1686660.708003401057795 ], [ 1561252.100452339975163, 1685858.713143394095823 ], [ 1561404.968118611956015, 1684768.353484402643517 ], [ 1561506.811701328260824, 1684042.186513273045421 ], [ 1561694.262428859015927, 1682709.2566967245657 ], [ 1561843.646304399240762, 1681643.322229470359161 ], [ 1562016.068750616163015, 1680409.474112360505387 ], [ 1562179.271635365206748, 1679246.605188861256465 ], [ 1562342.209295534063131, 1678085.592698298627511 ], [ 1562522.18457599892281, 1676799.544035420985892 ], [ 1562712.995553209446371, 1675443.018605940509588 ], [ 1562892.811314154183492, 1674158.078196751419455 ], [ 1563082.593275261111557, 1672802.438335741171613 ], [ 1563228.594516704790294, 1671760.197072262177244 ], [ 1563384.690430596703663, 1670647.14741197321564 ], [ 1563510.528671084903181, 1669752.648709638975561 ], [ 1563683.387358966516331, 1668515.691776815336198 ], [ 1563945.22469690698199, 1666649.086281883297488 ], [ 1564126.018754739779979, 1665362.783225086983293 ], [ 1564325.925228564534336, 1663936.881747414590791 ], [ 1564522.941608740249649, 1662530.454666242701933 ], [ 1564747.432344971923158, 1660932.102104958845302 ], [ 1565066.227026422973722, 1658654.074520661262795 ], [ 1565300.778907755855471, 1656984.34134549787268 ], [ 1565575.383096127770841, 1655021.789749352261424 ], [ 1565769.199061826337129, 1653644.105656229192391 ], [ 1565952.133731947978958, 1652337.198801426915452 ], [ 1566176.532781675923616, 1650738.650862049311399 ], [ 1566431.345359906787053, 1648921.221349059604108 ], [ 1566668.460200309986249, 1647227.919776724651456 ], [ 1566933.046654898440465, 1645341.913247323594987 ], [ 1567153.002315726364031, 1643768.953524369746447 ], [ 1567832.105100400978699, 1638926.986260424833745 ] ], [ [ 1607509.471809854730964, 2076868.453528244281188 ], [ 1607234.851680096006021, 2076195.989670326234773 ], [ 1606320.015351949259639, 2073962.004799689399078 ], [ 1604903.776658934308216, 2070503.218526515876874 ], [ 1603426.206389405764639, 2066899.732255877694115 ], [ 1600640.094798179110512, 2060636.719871370587498 ], [ 1597042.415674578864127, 2052565.778741585323587 ], [ 1594364.495263373479247, 2045761.157109389081597 ], [ 1592389.933986607007682, 2040751.902997993165627 ], [ 1590845.967505020555109, 2036842.761410609353334 ], [ 1589209.105055702850223, 2032749.596788319060579 ], [ 1588455.39291879767552, 2030867.793949644081295 ], [ 1587446.991993581643328, 2028351.26472703483887 ], [ 1586459.827363623538986, 2025890.354594311211258 ], [ 1584951.880755902035162, 2022133.443558514583856 ], [ 1583236.817539206473157, 2017725.511882349848747 ], [ 1582465.893407532712445, 2015745.223633611574769 ], [ 1579433.420485770562664, 2007970.136745804455131 ], [ 1578244.868248164653778, 2004347.880096174543723 ], [ 1577342.431095131672919, 2001598.619079177733511 ], [ 1576612.169651648262516, 1999375.248008840484545 ], [ 1574498.925935456296429, 1992953.686528998659924 ], [ 1573273.889804887818173, 1988092.448956474428996 ], [ 1572571.179990228964016, 1985308.847087356261909 ], [ 1570880.939631816465408, 1978619.617250487674028 ], [ 1569448.24317831126973, 1973452.429074461571872 ], [ 1568705.649001315934584, 1970777.662459195591509 ], [ 1568075.03684355202131, 1968505.467440890846774 ], [ 1566891.053714038804173, 1964248.348082196665928 ] ], [ [ 1760668.252388924825937, 2400467.350079492200166 ], [ 1760163.378146519884467, 2399564.931511178147048 ], [ 1758402.138123326469213, 2396417.35789139661938 ], [ 1755889.330610315082595, 2391931.870223616715521 ], [ 1754311.250997504685074, 2389117.33766155410558 ], [ 1752368.303786483127624, 2385657.177180854137987 ], [ 1751742.445347049273551, 2384542.447184808086604 ], [ 1751257.54655317380093, 2383678.661732905078679 ], [ 1750267.86673984117806, 2381918.335224935784936 ], [ 1749279.126744602574036, 2380160.189763125497848 ], [ 1748411.401401578215882, 2378617.992233549244702 ], [ 1747543.159499058732763, 2377076.449374776799232 ], [ 1746800.106369831832126, 2375756.678032211028039 ], [ 1745747.465744427405298, 2373888.498374030459672 ], [ 1744960.825160280335695, 2372492.273079436738044 ], [ 1744233.604642323916778, 2371203.196107578929514 ], [ 1743055.77161967381835, 2369115.437037560623139 ], [ 1742356.172176705440506, 2367875.449440243188292 ], [ 1741611.313502721255645, 2366557.329332206398249 ], [ 1740963.72207768028602, 2365410.631863771472126 ], [ 1740262.905206743394956, 2364170.024676621891558 ], [ 1739642.984321252210066, 2363073.499450189061463 ], [ 1739190.488223006483167, 2362273.689828527159989 ], [ 1738472.22235164209269, 2361003.700619787443429 ], [ 1737461.590150984236971, 2359217.353789623361081 ], [ 1736749.039665663614869, 2357959.176482568029314 ], [ 1736242.084266195539385, 2357064.523606448899955 ], [ 1735516.045756017323583, 2355782.654651407152414 ], [ 1735027.109036009060219, 2354919.259075562935323 ], [ 1734484.029163791099563, 2353962.05201454134658 ], [ 1733898.535965631948784, 2352928.448976824991405 ], [ 1733417.370738694211468, 2352080.310963448137045 ], [ 1732980.543061925796792, 2351310.565575005020946 ], [ 1732018.994458462344483, 2349615.916382922790945 ], [ 1731644.739926510257646, 2348956.653863639105111 ], [ 1731137.976550435647368, 2348064.336244038771838 ], [ 1730513.912252376554534, 2346965.299042468890548 ], [ 1730049.607135663274676, 2346148.116574521642178 ], [ 1729487.229674959089607, 2345159.285858832765371 ], [ 1729113.824267886113375, 2344502.284553702920675 ], [ 1728437.060723144328222, 2343311.673847119323909 ], [ 1727983.763796851271763, 2342514.314291673246771 ], [ 1727476.149511000839993, 2341622.7549171554856 ], [ 1727085.516462696017697, 2340935.779521255753934 ], [ 1726480.526490939082578, 2339872.266059193294495 ], [ 1725954.369190542725846, 2338948.967898903880268 ], [ 1725393.069807415828109, 2337962.991040519904345 ], [ 1724776.9093715287745, 2336881.012765570543706 ], [ 1724294.519132182467729, 2336034.41749693127349 ], [ 1723811.905473009683192, 2335188.617830974049866 ], [ 1723382.797432613559067, 2334436.270067218691111 ], [ 1722707.05076420144178, 2333250.330720282625407 ], [ 1722205.337221395689994, 2332371.497545980382711 ], [ 1721677.716867940733209, 2331446.624289464671165 ], [ 1721202.923076150706038, 2330614.961329360026866 ], [ 1720586.177958629094064, 2329534.960632595699281 ], [ 1720193.132452016696334, 2328846.583146438933909 ], [ 1719844.666465056827292, 2328236.697210035752505 ], [ 1719272.493032698053867, 2327234.351050276309252 ], [ 1718726.565082342596725, 2326279.332295871339738 ], [ 1718234.777900914894417, 2325418.927426025737077 ], [ 1717759.833840399747714, 2324588.859041582792997 ], [ 1717187.160830329870805, 2323587.3869588971138 ], [ 1716570.74359306669794, 2322509.931284185964614 ], [ 1715865.233737007714808, 2321276.533530428539962 ], [ 1715192.893125219736248, 2320102.597067988011986 ], [ 1714558.928601091494784, 2318995.504545313306153 ], [ 1713887.51504349661991, 2317823.598048754967749 ], [ 1713529.95872737839818, 2317199.674211105331779 ], [ 1713126.190442039631307, 2316494.804717874154449 ], [ 1712714.876662966795266, 2315777.096298856195062 ], [ 1712266.027734651230276, 2314994.849606861826032 ], [ 1711746.285832698456943, 2314088.845052645076066 ], [ 1711309.544542409246787, 2313326.647973416838795 ], [ 1710870.478777811862528, 2312562.562331870663911 ], [ 1710538.406293413368985, 2311983.533918467815965 ], [ 1710135.499601476592943, 2311280.984463048633188 ], [ 1709649.514573289779946, 2310435.084284208249301 ], [ 1709155.277702185558155, 2309573.927779832389206 ], [ 1708660.86592634418048, 2308713.90894000697881 ], [ 1707977.053674130234867, 2307523.763039079494774 ], [ 1707412.173430663533509, 2306540.999202264938504 ], [ 1706963.033388051902875, 2305760.170859110541642 ], [ 1706406.724222471704707, 2304792.79687365796417 ], [ 1706029.674670050852001, 2304136.979140797629952 ], [ 1705560.767234134720638, 2303321.609032205771655 ], [ 1704813.844800315331668, 2302024.295223452616483 ], [ 1704337.628852228168398, 2301197.456758736167103 ], [ 1703915.18120490340516, 2300463.63559131231159 ], [ 1703377.934548510005698, 2299530.466275080572814 ], [ 1702955.265104732010514, 2298797.703085643704981 ], [ 1702506.032429495593533, 2298017.346924377139658 ], [ 1702217.888697906862944, 2297517.8136908817105 ], [ 1701983.063040217850357, 2297110.057031528092921 ], [ 1701660.513975801179186, 2296550.796512523666024 ], [ 1701266.839788605459034, 2295868.339922428131104 ], [ 1701029.347266651224345, 2295456.769299606326967 ], [ 1700765.697041080566123, 2294999.866736890748143 ], [ 1700361.170373717788607, 2294298.011213688645512 ], [ 1700012.989889970747754, 2293694.950926178600639 ] ], [ [ 1795702.445677174488083, 2737691.129465810023248 ], [ 1799407.012862098403275, 2627262.960313764866441 ] ] ] } }
]
}
