{
"type": "FeatureCollection",
"name": "tea_trees",
"features": [
{ "type": "Feature", "properties": { "name": "七舍大茶树", "province": "贵州", "species": "大厂茶", "kind": "野生型", "type": 1, "typeName": "野生型", "color": "#C8462E", "repaired": false }, "geometry": { "type": "Point", "coordinates": [ -42232.81266302234144, 2573468.734633993823081 ] } },
{ "type": "Feature", "properties": { "name": "晴隆半坡大茶树", "province": "贵州", "species": "大厂茶", "kind": "野生型", "type": 1, "typeName": "野生型", "color": "#C8462E", "repaired": false }, "geometry": { "type": "Point", "coordinates": [ 15241.154675138621315, 2695030.325887084472924 ] } },
{ "type": "Feature", "properties": { "name": "普白大茶树", "province": "贵州", "species": "大厂茶", "kind": "野生型", "type": 1, "typeName": "野生型", "color": "#C8462E", "repaired": false }, "geometry": { "type": "Point", "coordinates": [ -14811.351167731061651, 2648186.580516233108938 ] } },
{ "type": "Feature", "properties": { "name": "姑箐大茶树", "province": "贵州", "species": "秃房茶", "kind": "其他", "type": 2, "typeName": "过渡/其他", "color": "#B28F4C", "repaired": false }, "geometry": { "type": "Point", "coordinates": [ 47873.222195142094279, 2802880.84142693830654 ] } },
{ "type": "Feature", "properties": { "name": "普安四球茶", "province": "贵州", "species": "大厂茶", "kind": "其他", "type": 2, "typeName": "过渡/其他", "color": "#B28F4C", "repaired": false }, "geometry": { "type": "Point", "coordinates": [ -2567.341638741684164, 2662685.239862308837473 ] } },
{ "type": "Feature", "properties": { "name": "三都古茶树", "province": "贵州", "species": "未定种", "kind": "野生型", "type": 1, "typeName": "野生型", "color": "#C8462E", "repaired": false }, "geometry": { "type": "Point", "coordinates": [ 315239.53908796608448, 2729261.646564428228885 ] } },
{ "type": "Feature", "properties": { "name": "贵州遵义务川 6 号", "province": "贵州", "species": "未定种", "kind": "栽培型", "type": 3, "typeName": "栽培型", "color": "#2F5D3A", "repaired": false }, "geometry": { "type": "Point", "coordinates": [ 288319.851885851006955, 2998085.963466100860387 ] } },
{ "type": "Feature", "properties": { "name": "黄山大茶树", "province": "安徽", "species": "疏齿茶", "kind": "野生型", "type": 1, "typeName": "野生型", "color": "#C8462E", "repaired": true }, "geometry": { "type": "Point", "coordinates": [ 1249927.437045976519585, 3269253.210521884728223 ] } },
{ "type": "Feature", "properties": { "name": "高笋塘大茶树", "province": "四川", "species": "秃房茶", "kind": "栽培型", "type": 3, "typeName": "栽培型", "color": "#2F5D3A", "repaired": false }, "geometry": { "type": "Point", "coordinates": [ -71447.912774889860884, 3050872.711372441612184 ] } },
{ "type": "Feature", "properties": { "name": "黄荆大茶树", "province": "四川", "species": "疏齿茶", "kind": "野生型", "type": 1, "typeName": "野生型", "color": "#C8462E", "repaired": false }, "geometry": { "type": "Point", "coordinates": [ 58586.387873174688139, 2942324.610780054703355 ] } },
{ "type": "Feature", "properties": { "name": "大木茶", "province": "四川", "species": "未定种", "kind": "栽培型", "type": 3, "typeName": "栽培型", "color": "#2F5D3A", "repaired": true }, "geometry": { "type": "Point", "coordinates": [ -117238.126205947090057, 2937272.244645128957927 ] } },
{ "type": "Feature", "properties": { "name": "蒙顶山茶", "province": "四川", "species": "茶（小叶种）", "kind": "其他", "type": 2, "typeName": "过渡/其他", "color": "#B28F4C", "repaired": false }, "geometry": { "type": "Point", "coordinates": [ -151654.925537054252345, 3278924.967768645845354 ] } },
{ "type": "Feature", "properties": { "name": "蒙顶山1 号", "province": "四川", "species": "茶（小叶种）", "kind": "栽培型", "type": 3, "typeName": "栽培型", "color": "#2F5D3A", "repaired": false }, "geometry": { "type": "Point", "coordinates": [ -185711.142541550623719, 3182440.393969748634845 ] } },
{ "type": "Feature", "properties": { "name": "雷波大茶树", "province": "四川", "species": "未定种", "kind": "其他", "type": 2, "typeName": "过渡/其他", "color": "#B28F4C", "repaired": true }, "geometry": { "type": "Point", "coordinates": [ -139128.059214216365945, 2977784.717047495767474 ] } },
{ "type": "Feature", "properties": { "name": "早白尖", "province": "四川", "species": "茶（小叶种）", "kind": "栽培型", "type": 3, "typeName": "栽培型", "color": "#2F5D3A", "repaired": false }, "geometry": { "type": "Point", "coordinates": [ -12904.141447457983304, 3027859.530711142811924 ] } },
{ "type": "Feature", "properties": { "name": "宜宾1号", "province": "四川", "species": "秃房茶", "kind": "野生型", "type": 1, "typeName": "野生型", "color": "#C8462E", "repaired": false }, "geometry": { "type": "Point", "coordinates": [ -41614.227432834566571, 3028313.905633713118732 ] } },
{ "type": "Feature", "properties": { "name": "广西姑辽大茶树", "province": "广西", "species": "未定种", "kind": "其他", "type": 2, "typeName": "过渡/其他", "color": "#B28F4C", "repaired": false }, "geometry": { "type": "Point", "coordinates": [ 296466.927881164243445, 2311682.063102940097451 ] } },
{ "type": "Feature", "properties": { "name": "大王岭野生古茶树", "province": "广西", "species": "厚柱茶", "kind": "野生型", "type": 1, "typeName": "野生型", "color": "#C8462E", "repaired": false }, "geometry": { "type": "Point", "coordinates": [ 142266.199978220858611, 2475675.03824357688427 ] } },
{ "type": "Feature", "properties": { "name": "德保野生古茶树", "province": "广西", "species": "未定种", "kind": "其他", "type": 2, "typeName": "过渡/其他", "color": "#B28F4C", "repaired": false }, "geometry": { "type": "Point", "coordinates": [ 132175.140654399525374, 2464507.295698740985245 ] } },
{ "type": "Feature", "properties": { "name": "凌云白毛茶", "province": "广西", "species": "白毛茶（毛肋茶）", "kind": "栽培型", "type": 3, "typeName": "栽培型", "color": "#2F5D3A", "repaired": false }, "geometry": { "type": "Point", "coordinates": [ 165516.613876343180891, 2493686.071821714751422 ] } },
{ "type": "Feature", "properties": { "name": "六堡野生茶", "province": "广西", "species": "茶（小叶种）", "kind": "栽培型", "type": 3, "typeName": "栽培型", "color": "#2F5D3A", "repaired": false }, "geometry": { "type": "Point", "coordinates": [ 644922.948502304847352, 2502904.32400913303718 ] } },
{ "type": "Feature", "properties": { "name": "金佛山大茶树", "province": "重庆", "species": "南川茶", "kind": "栽培型", "type": 3, "typeName": "栽培型", "color": "#2F5D3A", "repaired": false }, "geometry": { "type": "Point", "coordinates": [ 216334.175165371794719, 3049688.998627599328756 ] } },
{ "type": "Feature", "properties": { "name": "合溪大茶树", "province": "重庆", "species": "南川茶", "kind": "栽培型", "type": 3, "typeName": "栽培型", "color": "#2F5D3A", "repaired": false }, "geometry": { "type": "Point", "coordinates": [ 217299.787749848299427, 3049710.837414479348809 ] } },
{ "type": "Feature", "properties": { "name": "重庆南川1号古茶树", "province": "重庆", "species": "南川茶", "kind": "栽培型", "type": 3, "typeName": "栽培型", "color": "#2F5D3A", "repaired": false }, "geometry": { "type": "Point", "coordinates": [ 216265.13036507324432, 3050180.064534469507635 ] } },
{ "type": "Feature", "properties": { "name": "重庆南川2号大茶树", "province": "重庆", "species": "南川茶", "kind": "栽培型", "type": 3, "typeName": "栽培型", "color": "#2F5D3A", "repaired": false }, "geometry": { "type": "Point", "coordinates": [ 216235.153751342208125, 3050224.172520432621241 ] } },
{ "type": "Feature", "properties": { "name": "龙井18棵御茶", "province": "浙江", "species": "茶（小叶种）", "kind": "其他", "type": 2, "typeName": "过渡/其他", "color": "#B28F4C", "repaired": false }, "geometry": { "type": "Point", "coordinates": [ 1435594.499521328136325, 3309594.926147141028196 ] } },
{ "type": "Feature", "properties": { "name": "鸠坑茶树王", "province": "浙江", "species": "茶（小叶种）", "kind": "其他", "type": 2, "typeName": "过渡/其他", "color": "#B28F4C", "repaired": false }, "geometry": { "type": "Point", "coordinates": [ 1302297.673799510346726, 3220619.157761826179922 ] } },
{ "type": "Feature", "properties": { "name": "黄山大叶", "province": "安徽", "species": "茶（小叶种）", "kind": "其他", "type": 2, "typeName": "过渡/其他", "color": "#B28F4C", "repaired": true }, "geometry": { "type": "Point", "coordinates": [ 1249927.437045976519585, 3269253.210521884728223 ] } },
{ "type": "Feature", "properties": { "name": "宣城尖叶", "province": "安徽", "species": "茶（小叶种）", "kind": "其他", "type": 2, "typeName": "过渡/其他", "color": "#B28F4C", "repaired": false }, "geometry": { "type": "Point", "coordinates": [ 1292638.595105932792649, 3337050.781569312792271 ] } },
{ "type": "Feature", "properties": { "name": "恩施大叶", "province": "湖北", "species": "茶（小叶种）", "kind": "其他", "type": 2, "typeName": "过渡/其他", "color": "#B28F4C", "repaired": false }, "geometry": { "type": "Point", "coordinates": [ 420533.613425938470755, 3196712.270804137457162 ] } },
{ "type": "Feature", "properties": { "name": "鹤峰苔子茶", "province": "湖北", "species": "茶（小叶种）", "kind": "栽培型", "type": 3, "typeName": "栽培型", "color": "#2F5D3A", "repaired": false }, "geometry": { "type": "Point", "coordinates": [ 480001.698243279359303, 3170340.851257008500397 ] } },
{ "type": "Feature", "properties": { "name": "宜昌大叶", "province": "湖北", "species": "茶（小叶种）", "kind": "栽培型", "type": 3, "typeName": "栽培型", "color": "#2F5D3A", "repaired": false }, "geometry": { "type": "Point", "coordinates": [ 566215.580318264197558, 3294339.946316412650049 ] } },
{ "type": "Feature", "properties": { "name": "五峰大叶", "province": "湖北", "species": "茶（小叶种）", "kind": "栽培型", "type": 3, "typeName": "栽培型", "color": "#2F5D3A", "repaired": false }, "geometry": { "type": "Point", "coordinates": [ 518960.594348955375608, 3209479.699131353292614 ] } },
{ "type": "Feature", "properties": { "name": "巴东大叶", "province": "湖北", "species": "茶（小叶种）", "kind": "栽培型", "type": 3, "typeName": "栽培型", "color": "#2F5D3A", "repaired": false }, "geometry": { "type": "Point", "coordinates": [ 502553.81109213171294, 3301955.352043509948999 ] } },
{ "type": "Feature", "properties": { "name": "神农架茶", "province": "湖北", "species": "茶（小叶种）", "kind": "栽培型", "type": 3, "typeName": "栽培型", "color": "#2F5D3A", "repaired": false }, "geometry": { "type": "Point", "coordinates": [ 513482.925020147231407, 3343091.659427959937602 ] } },
{ "type": "Feature", "properties": { "name": "竹溪茶", "province": "湖北", "species": "茶（小叶种）", "kind": "栽培型", "type": 3, "typeName": "栽培型", "color": "#2F5D3A", "repaired": false }, "geometry": { "type": "Point", "coordinates": [ 441303.543036411574576, 3354400.167080526705831 ] } },
{ "type": "Feature", "properties": { "name": "江华古茶", "province": "湖南", "species": "阿萨姆茶（苦茶种）", "kind": "栽培型", "type": 3, "typeName": "栽培型", "color": "#2F5D3A", "repaired": false }, "geometry": { "type": "Point", "coordinates": [ 676823.217352774576284, 2622422.61219549831003 ] } },
{ "type": "Feature", "properties": { "name": "蓝山苦茶", "province": "湖南", "species": "阿萨姆茶（苦茶种）", "kind": "栽培型", "type": 3, "typeName": "栽培型", "color": "#2F5D3A", "repaired": false }, "geometry": { "type": "Point", "coordinates": [ 730685.046899830107577, 2689548.22839765297249 ] } },
{ "type": "Feature", "properties": { "name": "炎陵苦茶", "province": "湖南", "species": "阿萨姆茶（苦茶种）", "kind": "栽培型", "type": 3, "typeName": "栽培型", "color": "#2F5D3A", "repaired": false }, "geometry": { "type": "Point", "coordinates": [ 877523.123315651086159, 2776263.526831480208784 ] } },
{ "type": "Feature", "properties": { "name": "汝城白毛茶", "province": "湖南", "species": "白毛茶（毛肋茶）", "kind": "其他", "type": 2, "typeName": "过渡/其他", "color": "#B28F4C", "repaired": false }, "geometry": { "type": "Point", "coordinates": [ 879562.032341305166483, 2693812.026485129725188 ] } },
{ "type": "Feature", "properties": { "name": "城步峒茶", "province": "湖南", "species": "白毛茶（毛肋茶）", "kind": "栽培型", "type": 3, "typeName": "栽培型", "color": "#2F5D3A", "repaired": false }, "geometry": { "type": "Point", "coordinates": [ 526047.853088645613752, 2735546.230415393598378 ] } },
{ "type": "Feature", "properties": { "name": "莽山野茶", "province": "湖南", "species": "白毛茶（毛肋茶）", "kind": "其他", "type": 2, "typeName": "过渡/其他", "color": "#B28F4C", "repaired": false }, "geometry": { "type": "Point", "coordinates": [ 798149.326049376395531, 2690283.375917267054319 ] } },
{ "type": "Feature", "properties": { "name": "洞庭君山古茶", "province": "湖南", "species": "茶（小叶种）", "kind": "其他", "type": 2, "typeName": "过渡/其他", "color": "#B28F4C", "repaired": false }, "geometry": { "type": "Point", "coordinates": [ 767899.460526523762383, 3130287.908834914211184 ] } },
{ "type": "Feature", "properties": { "name": "大红袍", "province": "福建", "species": "茶（小叶种）", "kind": "其他", "type": 2, "typeName": "过渡/其他", "color": "#B28F4C", "repaired": true }, "geometry": { "type": "Point", "coordinates": [ 1273188.531286429846659, 2991208.111594703514129 ] } },
{ "type": "Feature", "properties": { "name": "铁罗汉", "province": "福建", "species": "茶（小叶种）", "kind": "其他", "type": 2, "typeName": "过渡/其他", "color": "#B28F4C", "repaired": false }, "geometry": { "type": "Point", "coordinates": [ 1266599.409270119620487, 2993717.43714296258986 ] } },
{ "type": "Feature", "properties": { "name": "肉桂", "province": "福建", "species": "茶（小叶种）", "kind": "其他", "type": 2, "typeName": "过渡/其他", "color": "#B28F4C", "repaired": true }, "geometry": { "type": "Point", "coordinates": [ 1271435.718316869577393, 3004486.711980844847858 ] } },
{ "type": "Feature", "properties": { "name": "福建水仙", "province": "福建", "species": "茶（小叶种）", "kind": "其他", "type": 2, "typeName": "过渡/其他", "color": "#B28F4C", "repaired": false }, "geometry": { "type": "Point", "coordinates": [ 1302909.81782153644599, 2961408.21742878947407 ] } },
{ "type": "Feature", "properties": { "name": "铁观音", "province": "福建", "species": "茶（小叶种）", "kind": "其他", "type": 2, "typeName": "过渡/其他", "color": "#B28F4C", "repaired": false }, "geometry": { "type": "Point", "coordinates": [ 1270895.504515016917139, 2676271.18836712744087 ] } },
{ "type": "Feature", "properties": { "name": "大叶乌龙", "province": "福建", "species": "茶（小叶种）", "kind": "其他", "type": 2, "typeName": "过渡/其他", "color": "#B28F4C", "repaired": false }, "geometry": { "type": "Point", "coordinates": [ 1325078.263056554133072, 2690781.737192654516548 ] } },
{ "type": "Feature", "properties": { "name": "佛手", "province": "福建", "species": "茶（小叶种）", "kind": "其他", "type": 2, "typeName": "过渡/其他", "color": "#B28F4C", "repaired": false }, "geometry": { "type": "Point", "coordinates": [ 1308881.247744475258514, 2705395.269192637875676 ] } },
{ "type": "Feature", "properties": { "name": "五指山野茶", "province": "海南", "species": "未定种", "kind": "野生型", "type": 1, "typeName": "野生型", "color": "#C8462E", "repaired": false }, "geometry": { "type": "Point", "coordinates": [ 504080.417650598566979, 1950817.503734226804227 ] } },
{ "type": "Feature", "properties": { "name": "黄竹坪野茶", "province": "海南", "species": "白毛茶（毛肋茶）", "kind": "其他", "type": 2, "typeName": "过渡/其他", "color": "#B28F4C", "repaired": false }, "geometry": { "type": "Point", "coordinates": [ 536719.354359156452119, 1988206.372512819478288 ] } },
{ "type": "Feature", "properties": { "name": "凤凰水仙", "province": "广东", "species": "茶（小叶种）", "kind": "其他", "type": 2, "typeName": "过渡/其他", "color": "#B28F4C", "repaired": false }, "geometry": { "type": "Point", "coordinates": [ 1184550.478486120468006, 2570627.556702850852162 ] } },
{ "type": "Feature", "properties": { "name": "宋种东方红单丛", "province": "广东", "species": "茶（小叶种）", "kind": "其他", "type": 2, "typeName": "过渡/其他", "color": "#B28F4C", "repaired": false }, "geometry": { "type": "Point", "coordinates": [ 1186965.963500015204772, 2567576.969000222627074 ] } },
{ "type": "Feature", "properties": { "name": "宋种1号", "province": "广东", "species": "茶（小叶种）", "kind": "栽培型", "type": 3, "typeName": "栽培型", "color": "#2F5D3A", "repaired": false }, "geometry": { "type": "Point", "coordinates": [ 1187980.13166449777782, 2567696.57665565982461 ] } },
{ "type": "Feature", "properties": { "name": "凤凰4号", "province": "广东", "species": "茶（小叶种）", "kind": "栽培型", "type": 3, "typeName": "栽培型", "color": "#2F5D3A", "repaired": false }, "geometry": { "type": "Point", "coordinates": [ 1183424.377339036669582, 2562713.968878986313939 ] } },
{ "type": "Feature", "properties": { "name": "眉原山山茶", "province": "台湾", "species": "秃房茶", "kind": "栽培型", "type": 3, "typeName": "栽培型", "color": "#2F5D3A", "repaired": false }, "geometry": { "type": "Point", "coordinates": [ 1622265.194740872830153, 2646323.923680848442018 ] } },
{ "type": "Feature", "properties": { "name": "平镇山茶", "province": "台湾", "species": "秃房茶", "kind": "栽培型", "type": 3, "typeName": "栽培型", "color": "#2F5D3A", "repaired": false }, "geometry": { "type": "Point", "coordinates": [ 1630014.225242450833321, 2735838.557911691255867 ] } },
{ "type": "Feature", "properties": { "name": "青心乌龙", "province": "台湾", "species": "茶（小叶种）", "kind": "栽培型", "type": 3, "typeName": "栽培型", "color": "#2F5D3A", "repaired": false }, "geometry": { "type": "Point", "coordinates": [ 1321477.088117595762014, 2936611.852992508560419 ] } },
{ "type": "Feature", "properties": { "name": "硬枝红心", "province": "台湾", "species": "茶（小叶种）", "kind": "栽培型", "type": 3, "typeName": "栽培型", "color": "#2F5D3A", "repaired": false }, "geometry": { "type": "Point", "coordinates": [ 1668943.535255036782473, 2778257.619570686481893 ] } },
{ "type": "Feature", "properties": { "name": "感通寺1号古茶树", "province": "云南", "species": "大理茶", "kind": "其他", "type": 2, "typeName": "过渡/其他", "color": "#B28F4C", "repaired": false }, "geometry": { "type": "Point", "coordinates": [ -484313.649232803087216, 2697396.441493805032223 ] } },
{ "type": "Feature", "properties": { "name": "单大人1号古茶树", "province": "云南", "species": "大理茶", "kind": "其他", "type": 2, "typeName": "过渡/其他", "color": "#B28F4C", "repaired": false }, "geometry": { "type": "Point", "coordinates": [ -483100.61913971893955, 2693448.387916636187583 ] } },
{ "type": "Feature", "properties": { "name": "小古德1号古茶树", "province": "云南", "species": "大理茶", "kind": "其他", "type": 2, "typeName": "过渡/其他", "color": "#B28F4C", "repaired": false }, "geometry": { "type": "Point", "coordinates": [ -448332.400648205482867, 2593194.029280051123351 ] } },
{ "type": "Feature", "properties": { "name": "斯须乐古茶树", "province": "云南", "species": "秃房茶", "kind": "其他", "type": 2, "typeName": "过渡/其他", "color": "#B28F4C", "repaired": true }, "geometry": { "type": "Point", "coordinates": [ -403649.55513194721425, 2313120.382543264422566 ] } },
{ "type": "Feature", "properties": { "name": "杨梅树1号古茶树", "province": "云南", "species": "阿萨姆茶（普洱茶种）", "kind": "栽培型", "type": 3, "typeName": "栽培型", "color": "#2F5D3A", "repaired": false }, "geometry": { "type": "Point", "coordinates": [ -460049.575388399593066, 2607354.11290594143793 ] } },
{ "type": "Feature", "properties": { "name": "大箐2号古茶树", "province": "云南", "species": "阿萨姆茶（普洱茶种）", "kind": "栽培型", "type": 3, "typeName": "栽培型", "color": "#2F5D3A", "repaired": true }, "geometry": { "type": "Point", "coordinates": [ -478476.614507139893249, 2536794.652875277679414 ] } },
{ "type": "Feature", "properties": { "name": "金光寺1号古茶树", "province": "云南", "species": "大理茶", "kind": "野生型", "type": 1, "typeName": "野生型", "color": "#C8462E", "repaired": false }, "geometry": { "type": "Point", "coordinates": [ -550502.220665174652822, 2651187.829187803436071 ] } },
{ "type": "Feature", "properties": { "name": "古永大茶树", "province": "云南", "species": "大理茶", "kind": "其他", "type": 2, "typeName": "过渡/其他", "color": "#B28F4C", "repaired": true }, "geometry": { "type": "Point", "coordinates": [ -674731.586850752006285, 2653369.355055268853903 ] } },
{ "type": "Feature", "properties": { "name": "源头茶", "province": "云南", "species": "德宏茶", "kind": "其他", "type": 2, "typeName": "过渡/其他", "color": "#B28F4C", "repaired": true }, "geometry": { "type": "Point", "coordinates": [ -622639.383434837101959, 2597835.047993164509535 ] } },
{ "type": "Feature", "properties": { "name": "红裤茶", "province": "云南", "species": "大理茶", "kind": "其他", "type": 2, "typeName": "过渡/其他", "color": "#B28F4C", "repaired": false }, "geometry": { "type": "Point", "coordinates": [ -535372.363630513078533, 2617191.640900038648397 ] } },
{ "type": "Feature", "properties": { "name": "田园镇石佛古茶树", "province": "云南", "species": "大理茶", "kind": "其他", "type": 2, "typeName": "过渡/其他", "color": "#B28F4C", "repaired": true }, "geometry": { "type": "Point", "coordinates": [ -629653.051919538760558, 2631552.295982581097633 ] } },
{ "type": "Feature", "properties": { "name": "沿江村茶王树", "province": "云南", "species": "大理茶", "kind": "其他", "type": 2, "typeName": "过渡/其他", "color": "#B28F4C", "repaired": true }, "geometry": { "type": "Point", "coordinates": [ -653185.809057187638246, 2596449.624492991250008 ] } },
{ "type": "Feature", "properties": { "name": "芹菜塘大茶树13号", "province": "云南", "species": "大理茶", "kind": "其他", "type": 2, "typeName": "过渡/其他", "color": "#B28F4C", "repaired": true }, "geometry": { "type": "Point", "coordinates": [ -617246.593875599326566, 2668531.254609308205545 ] } },
{ "type": "Feature", "properties": { "name": "香竹箐古茶树", "province": "云南", "species": "大理茶", "kind": "其他", "type": 2, "typeName": "过渡/其他", "color": "#B28F4C", "repaired": false }, "geometry": { "type": "Point", "coordinates": [ -498574.400513730244711, 2581824.69275968382135 ] } },
{ "type": "Feature", "properties": { "name": "勐库大雪山1号古茶树", "province": "云南", "species": "大理茶", "kind": "野生型", "type": 1, "typeName": "野生型", "color": "#C8462E", "repaired": true }, "geometry": { "type": "Point", "coordinates": [ -528540.313176867901348, 2456412.430839702021331 ] } },
{ "type": "Feature", "properties": { "name": "勐库大雪山+1号古茶树", "province": "云南", "species": "大理茶", "kind": "其他", "type": 2, "typeName": "过渡/其他", "color": "#B28F4C", "repaired": true }, "geometry": { "type": "Point", "coordinates": [ -528540.313176867901348, 2456412.430839702021331 ] } },
{ "type": "Feature", "properties": { "name": "白莺山1号", "province": "云南", "species": "未定种", "kind": "野生型", "type": 1, "typeName": "野生型", "color": "#C8462E", "repaired": false }, "geometry": { "type": "Point", "coordinates": [ -473241.205444087565411, 2583037.198908849153668 ] } },
{ "type": "Feature", "properties": { "name": "岔路寨1号古茶树", "province": "云南", "species": "大理茶", "kind": "野生型", "type": 1, "typeName": "野生型", "color": "#C8462E", "repaired": false }, "geometry": { "type": "Point", "coordinates": [ -596100.009724508156069, 2514288.535779493395239 ] } },
{ "type": "Feature", "properties": { "name": "绿荫塘村14号古茶树", "province": "云南", "species": "大理茶", "kind": "野生型", "type": 1, "typeName": "野生型", "color": "#C8462E", "repaired": false }, "geometry": { "type": "Point", "coordinates": [ -604746.686238693073392, 2489374.615297391079366 ] } },
{ "type": "Feature", "properties": { "name": "大青山1号古茶树", "province": "云南", "species": "大理茶", "kind": "野生型", "type": 1, "typeName": "野生型", "color": "#C8462E", "repaired": false }, "geometry": { "type": "Point", "coordinates": [ -587303.019049507915042, 2471779.677679681219161 ] } },
{ "type": "Feature", "properties": { "name": "大兴1号古茶树", "province": "云南", "species": "大理茶", "kind": "野生型", "type": 1, "typeName": "野生型", "color": "#C8462E", "repaired": false }, "geometry": { "type": "Point", "coordinates": [ -530682.561753286398016, 2494069.909976789262146 ] } },
{ "type": "Feature", "properties": { "name": "贺岭村1号古茶树", "province": "云南", "species": "大理茶", "kind": "野生型", "type": 1, "typeName": "野生型", "color": "#C8462E", "repaired": false }, "geometry": { "type": "Point", "coordinates": [ -583424.218222558149137, 2431823.168954794760793 ] } },
{ "type": "Feature", "properties": { "name": "冰岛茶树王", "province": "云南", "species": "阿萨姆茶（普洱茶种）", "kind": "其他", "type": 2, "typeName": "过渡/其他", "color": "#B28F4C", "repaired": true }, "geometry": { "type": "Point", "coordinates": [ -521427.527184623526409, 2474812.322426441125572 ] } },
{ "type": "Feature", "properties": { "name": "困鹿山大茶树", "province": "云南", "species": "阿萨姆茶（普洱茶种）", "kind": "其他", "type": 2, "typeName": "过渡/其他", "color": "#B28F4C", "repaired": false }, "geometry": { "type": "Point", "coordinates": [ -403556.248770853853785, 2428749.537065793760121 ] } },
{ "type": "Feature", "properties": { "name": "景谷大秧塔大白茶始祖", "province": "云南", "species": "白毛茶（毛肋茶）", "kind": "其他", "type": 2, "typeName": "过渡/其他", "color": "#B28F4C", "repaired": true }, "geometry": { "type": "Point", "coordinates": [ -441365.456371820881031, 2452260.440431260038167 ] } },
{ "type": "Feature", "properties": { "name": "邦崴大茶树", "province": "云南", "species": "未定种", "kind": "其他", "type": 2, "typeName": "过渡/其他", "color": "#B28F4C", "repaired": true }, "geometry": { "type": "Point", "coordinates": [ -525336.561818513087928, 2358176.975039063952863 ] } },
{ "type": "Feature", "properties": { "name": "景迈大寨1号", "province": "云南", "species": "阿萨姆茶（普洱茶种）", "kind": "其他", "type": 2, "typeName": "过渡/其他", "color": "#B28F4C", "repaired": true }, "geometry": { "type": "Point", "coordinates": [ -520189.944788773544133, 2316139.074847476091236 ] } },
{ "type": "Feature", "properties": { "name": "芒洪1号", "province": "云南", "species": "阿萨姆茶（普洱茶种）", "kind": "其他", "type": 2, "typeName": "过渡/其他", "color": "#B28F4C", "repaired": true }, "geometry": { "type": "Point", "coordinates": [ -542045.436244467156939, 2453811.612342147622257 ] } },
{ "type": "Feature", "properties": { "name": "班章茶树王", "province": "云南", "species": "阿萨姆茶（普洱茶种）", "kind": "其他", "type": 2, "typeName": "过渡/其他", "color": "#B28F4C", "repaired": true }, "geometry": { "type": "Point", "coordinates": [ -457375.454148658725899, 2275846.20361451851204 ] } },
{ "type": "Feature", "properties": { "name": "大黑山野生大茶树", "province": "云南", "species": "大理茶", "kind": "野生型", "type": 1, "typeName": "野生型", "color": "#C8462E", "repaired": false }, "geometry": { "type": "Point", "coordinates": [ -473520.645803975872695, 2288640.798338795080781 ] } },
{ "type": "Feature", "properties": { "name": "巴达大茶树", "province": "云南", "species": "大理茶", "kind": "野生型", "type": 1, "typeName": "野生型", "color": "#C8462E", "repaired": true }, "geometry": { "type": "Point", "coordinates": [ -509943.098455266735982, 2291469.399648782797158 ] } },
{ "type": "Feature", "properties": { "name": "南糯山大茶树", "province": "云南", "species": "阿萨姆茶（普洱茶种）", "kind": "栽培型", "type": 3, "typeName": "栽培型", "color": "#2F5D3A", "repaired": true }, "geometry": { "type": "Point", "coordinates": [ -458031.433791731484234, 2284651.732088217046112 ] } },
{ "type": "Feature", "properties": { "name": "新南糯山大茶树", "province": "云南", "species": "阿萨姆茶（普洱茶种）", "kind": "其他", "type": 2, "typeName": "过渡/其他", "color": "#B28F4C", "repaired": true }, "geometry": { "type": "Point", "coordinates": [ -458031.433791731484234, 2284651.732088217046112 ] } },
{ "type": "Feature", "properties": { "name": "中茗茶庄2号古茶树", "province": "云南", "species": "大理茶", "kind": "野生型", "type": 1, "typeName": "野生型", "color": "#C8462E", "repaired": false }, "geometry": { "type": "Point", "coordinates": [ -613817.493958132457919, 2723907.354272223543376 ] } },
{ "type": "Feature", "properties": { "name": "独龙江大叶茶", "province": "云南", "species": "阿萨姆茶（普洱茶种）", "kind": "栽培型", "type": 3, "typeName": "栽培型", "color": "#2F5D3A", "repaired": false }, "geometry": { "type": "Point", "coordinates": [ -650349.237698005163111, 2956152.077116304077208 ] } },
{ "type": "Feature", "properties": { "name": "芒孜小叶茶", "province": "云南", "species": "茶（小叶种）", "kind": "栽培型", "type": 3, "typeName": "栽培型", "color": "#2F5D3A", "repaired": false }, "geometry": { "type": "Point", "coordinates": [ -618046.593890424119309, 2940610.973723627161235 ] } },
{ "type": "Feature", "properties": { "name": "片马小叶茶", "province": "云南", "species": "茶（小叶种）", "kind": "栽培型", "type": 3, "typeName": "栽培型", "color": "#2F5D3A", "repaired": false }, "geometry": { "type": "Point", "coordinates": [ -637418.799448109581135, 2746545.374936202075332 ] } },
{ "type": "Feature", "properties": { "name": "元阳小新街大茶树", "province": "云南", "species": "厚柱茶", "kind": "野生型", "type": 1, "typeName": "野生型", "color": "#C8462E", "repaired": false }, "geometry": { "type": "Point", "coordinates": [ -204249.834076447819825, 2396279.435103985946625 ] } },
{ "type": "Feature", "properties": { "name": "楚雄双柏1号茶树", "province": "云南", "species": "阿萨姆茶（普洱茶种）", "kind": "栽培型", "type": 3, "typeName": "栽培型", "color": "#2F5D3A", "repaired": false }, "geometry": { "type": "Point", "coordinates": [ -340662.675215585564729, 2604251.133637402206659 ] } },
{ "type": "Feature", "properties": { "name": "西舍路32 号", "province": "云南", "species": "大理茶", "kind": "野生型", "type": 1, "typeName": "野生型", "color": "#C8462E", "repaired": false }, "geometry": { "type": "Point", "coordinates": [ -404850.725716006942093, 2593341.137692495714873 ] } },
{ "type": "Feature", "properties": { "name": "新房子1号", "province": "云南", "species": "未定种", "kind": "栽培型", "type": 3, "typeName": "栽培型", "color": "#2F5D3A", "repaired": true }, "geometry": { "type": "Point", "coordinates": [ -463211.392285295412876, 2355189.835337059106678 ] } },
{ "type": "Feature", "properties": { "name": "玉溪元江孔单上寨1号茶树", "province": "云南", "species": "阿萨姆茶（普洱茶种）", "kind": "栽培型", "type": 3, "typeName": "栽培型", "color": "#2F5D3A", "repaired": true }, "geometry": { "type": "Point", "coordinates": [ -312737.723868866858538, 2459631.012670780532062 ] } },
{ "type": "Feature", "properties": { "name": "曼来官山大茶树", "province": "云南", "species": "阿萨姆茶（普洱茶种）", "kind": "栽培型", "type": 3, "typeName": "栽培型", "color": "#2F5D3A", "repaired": false }, "geometry": { "type": "Point", "coordinates": [ -319566.478983009699732, 2470876.155933202710003 ] } },
{ "type": "Feature", "properties": { "name": "千家寨1号大茶树", "province": "云南", "species": "大理茶", "kind": "野生型", "type": 1, "typeName": "野生型", "color": "#C8462E", "repaired": true }, "geometry": { "type": "Point", "coordinates": [ -402289.765114978072233, 2504734.82255230192095 ] } },
{ "type": "Feature", "properties": { "name": "梁河青龙山大茶树", "province": "云南", "species": "大理茶", "kind": "野生型", "type": 1, "typeName": "野生型", "color": "#C8462E", "repaired": false }, "geometry": { "type": "Point", "coordinates": [ -683220.049720642506145, 2602885.331081605050713 ] } },
{ "type": "Feature", "properties": { "name": "芒市花拉场大茶树", "province": "云南", "species": "大理茶", "kind": "野生型", "type": 1, "typeName": "野生型", "color": "#C8462E", "repaired": false }, "geometry": { "type": "Point", "coordinates": [ -670395.607889743871056, 2582061.862755223643035 ] } },
{ "type": "Feature", "properties": { "name": "盈江0001号古茶树", "province": "云南", "species": "大理茶", "kind": "野生型", "type": 1, "typeName": "野生型", "color": "#C8462E", "repaired": false }, "geometry": { "type": "Point", "coordinates": [ -725127.838120843633078, 2599170.330006637610495 ] } },
{ "type": "Feature", "properties": { "name": "邦瓦大茶树", "province": "云南", "species": "德宏茶", "kind": "栽培型", "type": 3, "typeName": "栽培型", "color": "#2F5D3A", "repaired": false }, "geometry": { "type": "Point", "coordinates": [ -703326.54477851674892, 2562144.477469267789274 ] } },
{ "type": "Feature", "properties": { "name": "高黎贡山茶树王", "province": "云南", "species": "大理茶", "kind": "野生型", "type": 1, "typeName": "野生型", "color": "#C8462E", "repaired": false }, "geometry": { "type": "Point", "coordinates": [ -624482.402775883092545, 2665649.149484414607286 ] } },
{ "type": "Feature", "properties": { "name": "曲靖富源", "province": "云南", "species": "大厂茶", "kind": "野生型", "type": 1, "typeName": "野生型", "color": "#C8462E", "repaired": false }, "geometry": { "type": "Point", "coordinates": [ -48337.991433321250952, 2638468.799060182180256 ] } },
{ "type": "Feature", "properties": { "name": "曲靖师宗", "province": "云南", "species": "大厂茶", "kind": "野生型", "type": 1, "typeName": "野生型", "color": "#C8462E", "repaired": true }, "geometry": { "type": "Point", "coordinates": [ -103160.698041113268118, 2595677.17430966719985 ] } },
{ "type": "Feature", "properties": { "name": "古林箐", "province": "云南", "species": "马关茶", "kind": "野生型", "type": 1, "typeName": "野生型", "color": "#C8462E", "repaired": false }, "geometry": { "type": "Point", "coordinates": [ -15482.804859348714672, 2388752.413717004470527 ] } },
{ "type": "Feature", "properties": { "name": "古林箐2", "province": "云南", "species": "马关茶", "kind": "野生型", "type": 1, "typeName": "野生型", "color": "#C8462E", "repaired": false }, "geometry": { "type": "Point", "coordinates": [ -105405.581545923982048, 2377181.350583072286099 ] } },
{ "type": "Feature", "properties": { "name": "文山麻栗坡", "province": "云南", "species": "阿萨姆茶（普洱茶种）", "kind": "栽培型", "type": 3, "typeName": "栽培型", "color": "#2F5D3A", "repaired": true }, "geometry": { "type": "Point", "coordinates": [ -29881.953927523685707, 2406393.91141377389431 ] } },
{ "type": "Feature", "properties": { "name": "下金厂", "province": "云南", "species": "广西茶", "kind": "野生型", "type": 1, "typeName": "野生型", "color": "#C8462E", "repaired": false }, "geometry": { "type": "Point", "coordinates": [ -19565.205225602185237, 2412975.104172121733427 ] } },
{ "type": "Feature", "properties": { "name": "天保 2 号", "province": "云南", "species": "阿萨姆茶（普洱茶种）", "kind": "栽培型", "type": 3, "typeName": "栽培型", "color": "#2F5D3A", "repaired": false }, "geometry": { "type": "Point", "coordinates": [ -18563.401538766964222, 2397561.090298801660538 ] } }
]
}
